{"type": "FeatureCollection", "features": [{"type": "Feature", "geometry": {"type": "Point", "coordinates": [-115.55267, 32.77146]}, "properties": {"id": "dR40cfto3GsdDbVZ-JDS37b0_0M=", "ref": "211", "@spider": "innout", "addr:full": "2390 S. 4Th Street", "addr:city": "El Centro", "addr:state": "CA", "addr:postcode": "92243", "name": "El Centro", "website": "http://locations.in-n-out.com/211", "brand": "In-N-Out Burger", "brand:wikidata": "Q1205312", "marker-color": "rgb(240,59,32)", "marker-size": "small"}}, {"type": "Feature", "geometry": {"type": "Point", "coordinates": [-116.23308, 33.71425]}, "properties": {"id": "4cBuxFU0DrKcOCjoFERAv9R_wao=", "ref": "51", "@spider": "innout", "addr:full": "82043 Hwy. 111", "addr:city": "Indio", "addr:state": "CA", "addr:postcode": "92201", "name": "Indio", "website": "http://locations.in-n-out.com/51", "brand": "In-N-Out Burger", "brand:wikidata": "Q1205312", "marker-color": "rgb(253,141,60)", "marker-size": "small"}}, {"type": "Feature", "geometry": {"type": "Point", "coordinates": [-116.29265, 33.71257]}, "properties": {"id": "0GQYERjnMe-dTauIcxmwU2nPlCw=", "ref": "311", "@spider": "innout", "addr:full": "78611 Hwy. 111", "addr:city": "La Quinta", "addr:state": "CA", "addr:postcode": "92253", "name": "La Quinta", "website": "http://locations.in-n-out.com/311", "brand": "In-N-Out Burger", "brand:wikidata": "Q1205312", "marker-color": "rgb(253,141,60)", "marker-size": "small"}}, {"type": "Feature", "geometry": {"type": "Point", "coordinates": [-116.40139, 33.81566]}, "properties": {"id": "NyuNiBFZlDk3qYelEoExEwT_JZc=", "ref": "50", "@spider": "innout", "addr:full": "72265 Varner Rd.", "addr:city": "Thousand Palms", "addr:state": "CA", "addr:postcode": "92276", "name": "Thousand Palms", "website": "http://locations.in-n-out.com/50", "brand": "In-N-Out Burger", "brand:wikidata": "Q1205312", "marker-color": "rgb(253,141,60)", "marker-size": "small"}}, {"type": "Feature", "geometry": {"type": "Point", "coordinates": [-116.40772, 33.73631]}, "properties": {"id": "hpMEBc_cmZTNIJiLTXnUXAEu-vU=", "ref": "374", "@spider": "innout", "addr:full": "42560 Bob Hope Dr.", "addr:city": "Rancho Mirage", "addr:state": "CA", "addr:postcode": "92270", "name": "Rancho Mirage", "website": "http://locations.in-n-out.com/374", "brand": "In-N-Out Burger", "brand:wikidata": "Q1205312", "marker-color": "rgb(253,141,60)", "marker-size": "small"}}, {"type": "Feature", "geometry": {"type": "Point", "coordinates": [-117.08238, 34.85006]}, "properties": {"id": "NDadnFfRSDZSM-JKUzeEMoNRvcs=", "ref": "56", "@spider": "innout", "addr:full": "2821 Lenwood Rd.", "addr:city": "Barstow", "addr:state": "CA", "addr:postcode": "92311", "name": "Barstow", "website": "http://locations.in-n-out.com/56", "brand": "In-N-Out Burger", "brand:wikidata": "Q1205312", "marker-color": "rgb(253,141,60)", "marker-size": "small"}}, {"type": "Feature", "geometry": {"type": "Point", "coordinates": [-116.80362, 33.9214]}, "properties": {"id": "Xt5zuEaAbhAuG00CxgAE4VKrNnU=", "ref": "292", "@spider": "innout", "addr:full": "49188 Seminole Dr.", "addr:city": "Cabazon", "addr:state": "CA", "addr:postcode": "92230", "name": "Cabazon", "website": "http://locations.in-n-out.com/292", "brand": "In-N-Out Burger", "brand:wikidata": "Q1205312", "marker-color": "rgb(253,141,60)", "marker-size": "small"}}, {"type": "Feature", "geometry": {"type": "Point", "coordinates": [-116.94849, 33.92323]}, "properties": {"id": "tLLE9cn0hnIBkYdMsbd0XSJSV8s=", "ref": "355", "@spider": "innout", "addr:full": "1551 E. 2nd St. ", "addr:city": "Beaumont", "addr:state": "CA", "addr:postcode": "92223", "name": "Beaumont", "website": "http://locations.in-n-out.com/355", "brand": "In-N-Out Burger", "brand:wikidata": "Q1205312", "marker-color": "rgb(253,141,60)", "marker-size": "small"}}, {"type": "Feature", "geometry": {"type": "Point", "coordinates": [-117.29092, 34.4705]}, "properties": {"id": "JN-QlUKgoibWPL7pLnHH3WfqzMA=", "ref": "72", "@spider": "innout", "addr:full": "17069 Bear Valley Rd.", "addr:city": "Hesperia", "addr:state": "CA", "addr:postcode": "92345", "name": "Hesperia (Bear Valley Rd.)", "website": "http://locations.in-n-out.com/72", "brand": "In-N-Out Burger", "brand:wikidata": "Q1205312", "marker-color": "rgb(253,141,60)", "marker-size": "small"}}, {"type": "Feature", "geometry": {"type": "Point", "coordinates": [-117.11733, 34.02775]}, "properties": {"id": "hlgVWpuqNZJReT0sqFKHeNKtCuM=", "ref": "318", "@spider": "innout", "addr:full": "31465 Avenue E", "addr:city": "Yucaipa", "addr:state": "CA", "addr:postcode": "92399", "name": "Yucaipa", "website": "http://locations.in-n-out.com/318", "brand": "In-N-Out Burger", "brand:wikidata": "Q1205312", "marker-color": "rgb(253,141,60)", "marker-size": "small"}}, {"type": "Feature", "geometry": {"type": "Point", "coordinates": [-117.00175, 33.74698]}, "properties": {"id": "afC_DjuOJtCjpmT0FpHYOQxDGq0=", "ref": "52", "@spider": "innout", "addr:full": "2885 W. Florida Ave.", "addr:city": "Hemet", "addr:state": "CA", "addr:postcode": "92545", "name": "Hemet", "website": "http://locations.in-n-out.com/52", "brand": "In-N-Out Burger", "brand:wikidata": "Q1205312", "marker-color": "rgb(253,141,60)", "marker-size": "small"}}, {"type": "Feature", "geometry": {"type": "Point", "coordinates": [-117.32202, 34.52112]}, "properties": {"id": "JoOQT9bLQZAdNOVGhh8cLOdNPdk=", "ref": "233", "@spider": "innout", "addr:full": "15290 Civic Drive", "addr:city": "Victorville", "addr:state": "CA", "addr:postcode": "92394", "name": "Victorville", "website": "http://locations.in-n-out.com/233", "brand": "In-N-Out Burger", "brand:wikidata": "Q1205312", "marker-color": "rgb(253,141,60)", "marker-size": "small"}}, {"type": "Feature", "geometry": {"type": "Point", "coordinates": [-117.19374, 34.10791]}, "properties": {"id": "g02vnruExv6nHU27ZA3lc6PKPmI=", "ref": "272", "@spider": "innout", "addr:full": "28009 Greenspot Rd.", "addr:city": "Highland", "addr:state": "CA", "addr:postcode": "92346", "name": "Highland", "website": "http://locations.in-n-out.com/272", "brand": "In-N-Out Burger", "brand:wikidata": "Q1205312", "marker-color": "rgb(253,141,60)", "marker-size": "small"}}, {"type": "Feature", "geometry": {"type": "Point", "coordinates": [-117.37809, 34.42713]}, "properties": {"id": "aCaiYpgSFAWGmt_EfDKhTxUFWzg=", "ref": "29", "@spider": "innout", "addr:full": "13074 Main St.", "addr:city": "Hesperia", "addr:state": "CA", "addr:postcode": "92345", "name": "Hesperia (Main St.)", "website": "http://locations.in-n-out.com/29", "brand": "In-N-Out Burger", "brand:wikidata": "Q1205312", "marker-color": "rgb(253,141,60)", "marker-size": "small"}}, {"type": "Feature", "geometry": {"type": "Point", "coordinates": [-117.26181, 34.06638]}, "properties": {"id": "De8lNmgP4ser9ynzhy2QiofdO1U=", "ref": "31", "@spider": "innout", "addr:full": "1065 Harriman Pl.", "addr:city": "San Bernardino", "addr:state": "CA", "addr:postcode": "92408", "name": "San Bernardino (Tippecanoe)", "website": "http://locations.in-n-out.com/31", "brand": "In-N-Out Burger", "brand:wikidata": "Q1205312", "marker-color": "rgb(253,141,60)", "marker-size": "small"}}, {"type": "Feature", "geometry": {"type": "Point", "coordinates": [-117.30054, 34.10794]}, "properties": {"id": "zRz5cz2XrIuzFLHbCJL2aWVVKJ0=", "ref": "26", "@spider": "innout", "addr:full": "795 W. 5th Street", "addr:city": "San Bernardino", "addr:state": "CA", "addr:postcode": "92410", "name": "San Bernardino (5th Street)", "website": "http://locations.in-n-out.com/26", "brand": "In-N-Out Burger", "brand:wikidata": "Q1205312", "marker-color": "rgb(253,141,60)", "marker-size": "small"}}, {"type": "Feature", "geometry": {"type": "Point", "coordinates": [-117.26014, 33.94211]}, "properties": {"id": "vIZwsxX-_XGoRZTZmeOa-oXi6L4=", "ref": "44", "@spider": "innout", "addr:full": "23035 Hemlock", "addr:city": "Moreno Valley", "addr:state": "CA", "addr:postcode": "92557", "name": "Moreno Valley", "website": "http://locations.in-n-out.com/44", "brand": "In-N-Out Burger", "brand:wikidata": "Q1205312", "marker-color": "rgb(253,141,60)", "marker-size": "small"}}, {"type": "Feature", "geometry": {"type": "Point", "coordinates": [-117.17501, 33.68112]}, "properties": {"id": "dFPzyfiHPtVuqdNWruxFH_PGE_I=", "ref": "224", "@spider": "innout", "addr:full": "30296 Haun Road", "addr:city": "Menifee", "addr:state": "CA", "addr:postcode": "92584", "name": "Menifee", "website": "http://locations.in-n-out.com/224", "brand": "In-N-Out Burger", "brand:wikidata": "Q1205312", "marker-color": "rgb(253,141,60)", "marker-size": "small"}}, {"type": "Feature", "geometry": {"type": "Point", "coordinates": [-117.37003, 34.1344]}, "properties": {"id": "_0vPymrb6SbrVajPavk0IWJvZJA=", "ref": "286", "@spider": "innout", "addr:full": "108 E. Easton St.", "addr:city": "Rialto", "addr:state": "CA", "addr:postcode": "92376", "name": "Rialto", "website": "http://locations.in-n-out.com/286", "brand": "In-N-Out Burger", "brand:wikidata": "Q1205312", "marker-color": "rgb(253,141,60)", "marker-size": "small"}}, {"type": "Feature", "geometry": {"type": "Point", "coordinates": [-117.27293, 33.88854]}, "properties": {"id": "C-JhdFzRx3Okza9VMONkfbQedS0=", "ref": "353", "@spider": "innout", "addr:full": "22410 Van Buren Blvd.", "addr:city": "Riverside", "addr:state": "CA", "addr:postcode": "92518", "name": "Riverside", "website": "http://locations.in-n-out.com/353", "brand": "In-N-Out Burger", "brand:wikidata": "Q1205312", "marker-color": "rgb(253,141,60)", "marker-size": "small"}}, {"type": "Feature", "geometry": {"type": "Point", "coordinates": [-117.12363, 33.47588]}, "properties": {"id": "bKlApmqwb61YFQj_bllcN3epUUE=", "ref": "200", "@spider": "innout", "addr:full": "30697 Temecula Pkwy.", "addr:city": "Temecula", "addr:state": "CA", "addr:postcode": "92592", "name": "Temecula (Highway 79)", "website": "http://locations.in-n-out.com/200", "brand": "In-N-Out Burger", "brand:wikidata": "Q1205312", "marker-color": "rgb(253,141,60)", "marker-size": "small"}}, {"type": "Feature", "geometry": {"type": "Point", "coordinates": [-117.17903, 33.57324]}, "properties": {"id": "bF-ycmnJ0CA0rBJZ4oCpPHvL2ws=", "ref": "212", "@spider": "innout", "addr:full": "39697 Avenida Acacias", "addr:city": "Murrieta", "addr:state": "CA", "addr:postcode": "92563", "name": "Murrieta", "website": "http://locations.in-n-out.com/212", "brand": "In-N-Out Burger", "brand:wikidata": "Q1205312", "marker-color": "rgb(253,141,60)", "marker-size": "small"}}, {"type": "Feature", "geometry": {"type": "Point", "coordinates": [-117.159, 33.51498]}, "properties": {"id": "xlU-c-cbQfwe4vA7OARyoc0Wy9o=", "ref": "62", "@spider": "innout", "addr:full": "27700 Jefferson Ave.", "addr:city": "Temecula", "addr:state": "CA", "addr:postcode": "92590", "name": "Temecula (Jefferson Ave.)", "website": "http://locations.in-n-out.com/62", "brand": "In-N-Out Burger", "brand:wikidata": "Q1205312", "marker-color": "rgb(253,141,60)", "marker-size": "small"}}, {"type": "Feature", "geometry": {"type": "Point", "coordinates": [-117.43523, 34.07498]}, "properties": {"id": "ty4PYue2Loqv8Dy4BUjpMCK9OYY=", "ref": "22", "@spider": "innout", "addr:full": "9855 Sierra Ave.", "addr:city": "Fontana", "addr:state": "CA", "addr:postcode": "92335", "name": "Fontana", "website": "http://locations.in-n-out.com/22", "brand": "In-N-Out Burger", "brand:wikidata": "Q1205312", "marker-color": "rgb(253,141,60)", "marker-size": "small"}}, {"type": "Feature", "geometry": {"type": "Point", "coordinates": [-117.40385, 33.93579]}, "properties": {"id": "p_nbdZ4QKf0Ef495ZahCX-EoxQc=", "ref": "46", "@spider": "innout", "addr:full": "7467 Indiana Ave.", "addr:city": "Riverside", "addr:state": "CA", "addr:postcode": "92504", "name": "Riverside", "website": "http://locations.in-n-out.com/46", "brand": "In-N-Out Burger", "brand:wikidata": "Q1205312", "marker-color": "rgb(253,141,60)", "marker-size": "small"}}, {"type": "Feature", "geometry": {"type": "Point", "coordinates": [-117.29851, 33.66356]}, "properties": {"id": "DGgNfRtT7s7FvhBP7bY3SvYnFc4=", "ref": "54", "@spider": "innout", "addr:full": "331 Railroad Canyon", "addr:city": "Lake Elsinore", "addr:state": "CA", "addr:postcode": "92532", "name": "Lake Elsinore", "website": "http://locations.in-n-out.com/54", "brand": "In-N-Out Burger", "brand:wikidata": "Q1205312", "marker-color": "rgb(253,141,60)", "marker-size": "small"}}, {"type": "Feature", "geometry": {"type": "Point", "coordinates": [-117.44211, 33.91562]}, "properties": {"id": "pDtMapdfmDUSu9Ydg5TcyKdbMA4=", "ref": "365", "@spider": "innout", "addr:full": "3483 Van Buren Boulevard", "addr:city": "Riverside", "addr:state": "CA", "addr:postcode": "92503", "name": "Riverside", "website": "http://locations.in-n-out.com/365", "brand": "In-N-Out Burger", "brand:wikidata": "Q1205312", "marker-color": "rgb(253,141,60)", "marker-size": "small"}}, {"type": "Feature", "geometry": {"type": "Point", "coordinates": [-117.46584, 33.96709]}, "properties": {"id": "6nPp5kydJKmqUeR1N6fQDoODP1o=", "ref": "39", "@spider": "innout", "addr:full": "6634 Clay St.", "addr:city": "Riverside", "addr:state": "CA", "addr:postcode": "92509", "name": "Pedley", "website": "http://locations.in-n-out.com/39", "brand": "In-N-Out Burger", "brand:wikidata": "Q1205312", "marker-color": "rgb(253,141,60)", "marker-size": "small"}}, {"type": "Feature", "geometry": {"type": "Point", "coordinates": [-117.53026, 34.10585]}, "properties": {"id": "FlYebe_tlTECEzVrOAeOqTi3P8U=", "ref": "84", "@spider": "innout", "addr:full": "12599 Foothill Blvd.", "addr:city": "Rancho Cucamonga", "addr:state": "CA", "addr:postcode": "91739", "name": "Rancho Cucamonga (Foothill & I-15)", "website": "http://locations.in-n-out.com/84", "brand": "In-N-Out Burger", "brand:wikidata": "Q1205312", "marker-color": "rgb(253,141,60)", "marker-size": "small"}}, {"type": "Feature", "geometry": {"type": "Point", "coordinates": [-117.55714, 34.06834]}, "properties": {"id": "I_ApDLJ8O9LpQ2JzGxBec3AkFWk=", "ref": "144", "@spider": "innout", "addr:full": "4310 E. Ontario Mills Pkwy.", "addr:city": "Ontario", "addr:state": "CA", "addr:postcode": "91764", "name": "Ontario (Ontario Mills)", "website": "http://locations.in-n-out.com/144", "brand": "In-N-Out Burger", "brand:wikidata": "Q1205312", "marker-color": "rgb(253,141,60)", "marker-size": "small"}}, {"type": "Feature", "geometry": {"type": "Point", "coordinates": [-117.55833, 33.99813]}, "properties": {"id": "GImc4-oVsg59zhw_dzjnNCTD3_Y=", "ref": "340", "@spider": "innout", "addr:full": "4950 Hamner Avenue ", "addr:city": "Eastvale", "addr:state": "CA", "addr:postcode": "91752", "name": "Eastvale", "website": "http://locations.in-n-out.com/340", "brand": "In-N-Out Burger", "brand:wikidata": "Q1205312", "marker-color": "rgb(253,141,60)", "marker-size": "small"}}, {"type": "Feature", "geometry": {"type": "Point", "coordinates": [-117.60964, 34.10625]}, "properties": {"id": "5OPxX0UCGKBLZasnXivYom3BLgs=", "ref": "23", "@spider": "innout", "addr:full": "8955 Foothill Blvd.", "addr:city": "Rancho Cucamonga", "addr:state": "CA", "addr:postcode": "91730", "name": "Rancho Cucamonga (Foothill & Vineyard)", "website": "http://locations.in-n-out.com/23", "brand": "In-N-Out Burger", "brand:wikidata": "Q1205312", "marker-color": "rgb(253,141,60)", "marker-size": "small"}}, {"type": "Feature", "geometry": {"type": "Point", "coordinates": [-117.61145, 34.06922]}, "properties": {"id": "5KXVCWvn4yAy2zfzW-8TqUsWbdM=", "ref": "34", "@spider": "innout", "addr:full": "1891 E. G Street", "addr:city": "Ontario", "addr:state": "CA", "addr:postcode": "91764", "name": "Ontario (Vineyard & G St.)", "website": "http://locations.in-n-out.com/34", "brand": "In-N-Out Burger", "brand:wikidata": "Q1205312", "marker-color": "rgb(253,141,60)", "marker-size": "small"}}, {"type": "Feature", "geometry": {"type": "Point", "coordinates": [-117.63897, 34.13607]}, "properties": {"id": "7SDykJGpi4EE_OuIyb5Ql19no1Q=", "ref": "336", "@spider": "innout", "addr:full": "1152 East 20th Street ", "addr:city": "Upland ", "addr:state": "CA", "addr:postcode": "91784", "name": "Upland ", "website": "http://locations.in-n-out.com/336", "brand": "In-N-Out Burger", "brand:wikidata": "Q1205312", "marker-color": "rgb(253,141,60)", "marker-size": "small"}}, {"type": "Feature", "geometry": {"type": "Point", "coordinates": [-117.56168, 33.90852]}, "properties": {"id": "yGyb_ddxv1TwPSx26stqbLZObhM=", "ref": "48", "@spider": "innout", "addr:full": "1810 Hamner Avenue", "addr:city": "Norco", "addr:state": "CA", "addr:postcode": "92860", "name": "Norco", "website": "http://locations.in-n-out.com/48", "brand": "In-N-Out Burger", "brand:wikidata": "Q1205312", "marker-color": "rgb(253,141,60)", "marker-size": "small"}}, {"type": "Feature", "geometry": {"type": "Point", "coordinates": [-117.53647, 33.84403]}, "properties": {"id": "goZmWfpyezhHdMhfb3sE3--d9RE=", "ref": "175", "@spider": "innout", "addr:full": "2305 Compton Ave.", "addr:city": "Corona", "addr:state": "CA", "addr:postcode": "92881", "name": "Corona (Ontario Ave. & I-15)", "website": "http://locations.in-n-out.com/175", "brand": "In-N-Out Burger", "brand:wikidata": "Q1205312", "marker-color": "rgb(253,141,60)", "marker-size": "small"}}, {"type": "Feature", "geometry": {"type": "Point", "coordinates": [-117.68629, 34.10724]}, "properties": {"id": "Kd6Q32cmmU7Az8yssDePhJCkvAw=", "ref": "45", "@spider": "innout", "addr:full": "1837 Foothill Blvd.", "addr:city": "Upland", "addr:state": "CA", "addr:postcode": "91786", "name": "Upland", "website": "http://locations.in-n-out.com/45", "brand": "In-N-Out Burger", "brand:wikidata": "Q1205312", "marker-color": "rgb(253,141,60)", "marker-size": "small"}}, {"type": "Feature", "geometry": {"type": "Point", "coordinates": [-117.66782, 34.0327]}, "properties": {"id": "3jLabsalBhKeFNRwe0PEFsMbvm8=", "ref": "21", "@spider": "innout", "addr:full": "2235 Mountain Ave.", "addr:city": "Ontario", "addr:state": "CA", "addr:postcode": "91761", "name": "Ontario (Mountain Ave.)", "website": "http://locations.in-n-out.com/21", "brand": "In-N-Out Burger", "brand:wikidata": "Q1205312", "marker-color": "rgb(253,141,60)", "marker-size": "small"}}, {"type": "Feature", "geometry": {"type": "Point", "coordinates": [-117.61349, 33.88166]}, "properties": {"id": "w4S918mD_Ci8167DmHuOoSmuTfU=", "ref": "25", "@spider": "innout", "addr:full": "450 Auto Center Dr.", "addr:city": "Corona", "addr:state": "CA", "addr:postcode": "92882", "name": "Corona (Auto Center Dr.)", "website": "http://locations.in-n-out.com/25", "brand": "In-N-Out Burger", "brand:wikidata": "Q1205312", "marker-color": "rgb(253,141,60)", "marker-size": "small"}}, {"type": "Feature", "geometry": {"type": "Point", "coordinates": [-117.71965, 34.07792]}, "properties": {"id": "eeW8_iDcl2VWOtTao0PFCssWdFI=", "ref": "8", "@spider": "innout", "addr:full": "1851 Indian Hill", "addr:city": "Pomona", "addr:state": "CA", "addr:postcode": "91767", "name": "Pomona (Indian Hill Blvd.)", "website": "http://locations.in-n-out.com/8", "brand": "In-N-Out Burger", "brand:wikidata": "Q1205312", "marker-color": "rgb(253,141,60)", "marker-size": "small"}}, {"type": "Feature", "geometry": {"type": "Point", "coordinates": [-117.71853, 33.9974]}, "properties": {"id": "prFu2rqk_huOwDhKrKmrorixl2Y=", "ref": "167", "@spider": "innout", "addr:full": "3927 Grand Ave.", "addr:city": "Chino", "addr:state": "CA", "addr:postcode": "91710", "name": "Chino", "website": "http://locations.in-n-out.com/167", "brand": "In-N-Out Burger", "brand:wikidata": "Q1205312", "marker-color": "rgb(253,141,60)", "marker-size": "small"}}, {"type": "Feature", "geometry": {"type": "Point", "coordinates": [-117.76564, 34.11313]}, "properties": {"id": "iCW1Nstg5J0XuK7B0-pgCUqNqwI=", "ref": "3", "@spider": "innout", "addr:full": "2098 Foothill Blvd.", "addr:city": "La Verne", "addr:state": "CA", "addr:postcode": "91750", "name": "La Verne", "website": "http://locations.in-n-out.com/3", "brand": "In-N-Out Burger", "brand:wikidata": "Q1205312", "marker-color": "rgb(253,141,60)", "marker-size": "small"}}, {"type": "Feature", "geometry": {"type": "Point", "coordinates": [-117.74946, 34.02579]}, "properties": {"id": "kwgKqpmKndQms7ulKcmJRhdtmlc=", "ref": "33", "@spider": "innout", "addr:full": "2505 Garey Ave.", "addr:city": "Pomona", "addr:state": "CA", "addr:postcode": "91766", "name": "Pomona (Garey Ave.)", "website": "http://locations.in-n-out.com/33", "brand": "In-N-Out Burger", "brand:wikidata": "Q1205312", "marker-color": "rgb(253,141,60)", "marker-size": "small"}}, {"type": "Feature", "geometry": {"type": "Point", "coordinates": [-117.60524, 33.64253]}, "properties": {"id": "zBr8AUEOS0PtBQzkp7vqBXyTFLY=", "ref": "281", "@spider": "innout", "addr:full": "30121 Santa Margarita Pkwy.", "addr:city": "Rancho Santa Margarita", "addr:state": "CA", "addr:postcode": "92688", "name": "Rancho Santa Margarita", "website": "http://locations.in-n-out.com/281", "brand": "In-N-Out Burger", "brand:wikidata": "Q1205312", "marker-color": "rgb(253,141,60)", "marker-size": "small"}}, {"type": "Feature", "geometry": {"type": "Point", "coordinates": [-117.82941, 34.11673]}, "properties": {"id": "x_UIu1MmJPRC6c3_rSPCiNCvjL8=", "ref": "172", "@spider": "innout", "addr:full": "1261 S. Lone Hill", "addr:city": "Glendora", "addr:state": "CA", "addr:postcode": "91740", "name": "Glendora", "website": "http://locations.in-n-out.com/172", "brand": "In-N-Out Burger", "brand:wikidata": "Q1205312", "marker-color": "rgb(253,141,60)", "marker-size": "small"}}, {"type": "Feature", "geometry": {"type": "Point", "coordinates": [-117.66941, 33.68158]}, "properties": {"id": "l-qRaSoI4Ozv73jeLX9QCBzC4oo=", "ref": "97", "@spider": "innout", "addr:full": "26482 Towne Centre", "addr:city": "Foothill Ranch", "addr:state": "CA", "addr:postcode": "92610", "name": "Foothill Ranch", "website": "http://locations.in-n-out.com/97", "brand": "In-N-Out Burger", "brand:wikidata": "Q1205312", "marker-color": "rgb(253,141,60)", "marker-size": "small"}}, {"type": "Feature", "geometry": {"type": "Point", "coordinates": [-117.83467, 34.02749]}, "properties": {"id": "NrYvSXU2MLJzZXSRrJzhhtNeDA8=", "ref": "199", "@spider": "innout", "addr:full": "21620 E. Valley Blvd", "addr:city": "City Of Industry", "addr:state": "CA", "addr:postcode": "91789", "name": "City Of Industry (Grand & Valley)", "website": "http://locations.in-n-out.com/199", "brand": "In-N-Out Burger", "brand:wikidata": "Q1205312", "marker-color": "rgb(253,141,60)", "marker-size": "small"}}, {"type": "Feature", "geometry": {"type": "Point", "coordinates": [-117.61931, 33.52053]}, "properties": {"id": "x-hSWW0Y5jLbQGCfseOrgbJTkw8=", "ref": "335", "@spider": "innout", "addr:full": "30655 Gateway Pl.", "addr:city": "Rancho Mission Viejo ", "addr:state": "CA", "addr:postcode": "92694", "name": "Rancho Mission Viejo ", "website": "http://locations.in-n-out.com/335", "brand": "In-N-Out Burger", "brand:wikidata": "Q1205312", "marker-color": "rgb(253,141,60)", "marker-size": "small"}}, {"type": "Feature", "geometry": {"type": "Point", "coordinates": [-117.87307, 34.10491]}, "properties": {"id": "u5uziiynlMpc30_JWsiv4SvvQHk=", "ref": "2", "@spider": "innout", "addr:full": "1371 Grand Ave.", "addr:city": "Covina", "addr:state": "CA", "addr:postcode": "91724", "name": "Covina", "website": "http://locations.in-n-out.com/2", "brand": "In-N-Out Burger", "brand:wikidata": "Q1205312", "marker-color": "rgb(253,141,60)", "marker-size": "small"}}, {"type": "Feature", "geometry": {"type": "Point", "coordinates": [-117.8862, 34.12834]}, "properties": {"id": "yDLnir5lLZa-murl71rn47qoC54=", "ref": "343", "@spider": "innout", "addr:full": "988 E. Alosta Ave.", "addr:city": "Azusa", "addr:state": "CA", "addr:postcode": "91702", "name": "Azusa", "website": "http://locations.in-n-out.com/343", "brand": "In-N-Out Burger", "brand:wikidata": "Q1205312", "marker-color": "rgb(253,141,60)", "marker-size": "small"}}, {"type": "Feature", "geometry": {"type": "Point", "coordinates": [-117.84346, 34.0005]}, "properties": {"id": "nFi9Y-VgmokJ9WoVXSs5LK8E9Rc=", "ref": "15", "@spider": "innout", "addr:full": "21133 Golden Springs", "addr:city": "Diamond Bar", "addr:state": "CA", "addr:postcode": "91765", "name": "Diamond Bar", "website": "http://locations.in-n-out.com/15", "brand": "In-N-Out Burger", "brand:wikidata": "Q1205312", "marker-color": "rgb(253,141,60)", "marker-size": "small"}}, {"type": "Feature", "geometry": {"type": "Point", "coordinates": [-117.79148, 33.85933]}, "properties": {"id": "w0JV2FkKm4nh5Gqo_zN0gXOU2VE=", "ref": "138", "@spider": "innout", "addr:full": "5646 E. La Palma", "addr:city": "Anaheim Hills", "addr:state": "CA", "addr:postcode": "92807", "name": "Anaheim Hills", "website": "http://locations.in-n-out.com/138", "brand": "In-N-Out Burger", "brand:wikidata": "Q1205312", "marker-color": "rgb(253,141,60)", "marker-size": "small"}}, {"type": "Feature", "geometry": {"type": "Point", "coordinates": [-117.88194, 34.0714]}, "properties": {"id": "Wc7oRXD1c8hXBYhyzPbLDwqkatU=", "ref": "64", "@spider": "innout", "addr:full": "2940 E. Garvey Ave.", "addr:city": "West Covina", "addr:state": "CA", "addr:postcode": "91791", "name": "West Covina (Garvey Ave.)", "website": "http://locations.in-n-out.com/64", "brand": "In-N-Out Burger", "brand:wikidata": "Q1205312", "marker-color": "rgb(253,141,60)", "marker-size": "small"}}, {"type": "Feature", "geometry": {"type": "Point", "coordinates": [-117.90734, 34.11765]}, "properties": {"id": "ZoVFfneA6iCelU4pkHJi4PcNpIM=", "ref": "6", "@spider": "innout", "addr:full": "324 S. Azusa Ave.", "addr:city": "Azusa", "addr:state": "CA", "addr:postcode": "91702", "name": "Azusa", "website": "http://locations.in-n-out.com/6", "brand": "In-N-Out Burger", "brand:wikidata": "Q1205312", "marker-color": "rgb(253,141,60)", "marker-size": "small"}}, {"type": "Feature", "geometry": {"type": "Point", "coordinates": [-117.81513, 33.89101]}, "properties": {"id": "QPGZHeeRVfLga0FrcH-ruly-tDQ=", "ref": "373", "@spider": "innout", "addr:full": "18181 Imperial Hwy.", "addr:city": "Yorba Linda", "addr:state": "CA", "addr:postcode": "92886", "name": "Yorba Linda", "website": "http://locations.in-n-out.com/373", "brand": "In-N-Out Burger", "brand:wikidata": "Q1205312", "marker-color": "rgb(253,141,60)", "marker-size": "small"}}, {"type": "Feature", "geometry": {"type": "Point", "coordinates": [-117.67383, 33.5453]}, "properties": {"id": "Z3O1hZ3mPTWA2FPuHIlSXMJqgOo=", "ref": "28", "@spider": "innout", "addr:full": "28782 Camino Capistrano", "addr:city": "San Juan Capistrano", "addr:state": "CA", "addr:postcode": "92675", "name": "Laguna Niguel (Avery Pkwy.)", "website": "http://locations.in-n-out.com/28", "brand": "In-N-Out Burger", "brand:wikidata": "Q1205312", "marker-color": "rgb(253,141,60)", "marker-size": "small"}}, {"type": "Feature", "geometry": {"type": "Point", "coordinates": [-117.70842, 33.61331]}, "properties": {"id": "87HCldZvwRotXs8Hy12_BYucWuQ=", "ref": "170", "@spider": "innout", "addr:full": "24001 Avenida de la Carlota", "addr:city": "Laguna Hills", "addr:state": "CA", "addr:postcode": "92653", "name": "Laguna Hills (El Toro)", "website": "http://locations.in-n-out.com/170", "brand": "In-N-Out Burger", "brand:wikidata": "Q1205312", "marker-color": "rgb(253,141,60)", "marker-size": "small"}}, {"type": "Feature", "geometry": {"type": "Point", "coordinates": [-117.70737, 33.56497]}, "properties": {"id": "X1KCk116RJXYaNS0b69PhdvR700=", "ref": "94", "@spider": "innout", "addr:full": "27380 La Paz Rd.", "addr:city": "Laguna Niguel", "addr:state": "CA", "addr:postcode": "92677", "name": "Laguna Niguel (La Paz)", "website": "http://locations.in-n-out.com/94", "brand": "In-N-Out Burger", "brand:wikidata": "Q1205312", "marker-color": "rgb(253,141,60)", "marker-size": "small"}}, {"type": "Feature", "geometry": {"type": "Point", "coordinates": [-118.16698, 34.70441]}, "properties": {"id": "8pre6nrRxY0tJ3Yft1QeIhEVCyM=", "ref": "43", "@spider": "innout", "addr:full": "\"2021 W. Avenue \"\"I\"\"\"", "addr:city": "Lancaster", "addr:state": "CA", "addr:postcode": "93536", "name": "Lancaster", "website": "http://locations.in-n-out.com/43", "brand": "In-N-Out Burger", "brand:wikidata": "Q1205312", "marker-color": "rgb(253,141,60)", "marker-size": "small"}}, {"type": "Feature", "geometry": {"type": "Point", "coordinates": [-118.12803, 34.57934]}, "properties": {"id": "xkWLAq9P2suLcNjygVAsqa3QU5Q=", "ref": "79", "@spider": "innout", "addr:full": "142 E Palmdale Blvd.", "addr:city": "Palmdale", "addr:state": "CA", "addr:postcode": "93550", "name": "Palmdale", "website": "http://locations.in-n-out.com/79", "brand": "In-N-Out Burger", "brand:wikidata": "Q1205312", "marker-color": "rgb(253,141,60)", "marker-size": "small"}}, {"type": "Feature", "geometry": {"type": "Point", "coordinates": [-117.94092, 34.08978]}, "properties": {"id": "KCWQyQ7ZeqyAke5YkXSIFdvM6M0=", "ref": "4", "@spider": "innout", "addr:full": "15610 San Bernardino Rd.", "addr:city": "West Covina", "addr:state": "CA", "addr:postcode": "91790", "name": "West Covina (San Bernardino Rd.)", "website": "http://locations.in-n-out.com/4", "brand": "In-N-Out Burger", "brand:wikidata": "Q1205312", "marker-color": "rgb(253,141,60)", "marker-size": "small"}}, {"type": "Feature", "geometry": {"type": "Point", "coordinates": [-117.81646, 33.78813]}, "properties": {"id": "kelmpbbvQxHWDb3m4z6qbmPP7lM=", "ref": "59", "@spider": "innout", "addr:full": "3501 E. Chapman Ave.", "addr:city": "Orange", "addr:state": "CA", "addr:postcode": "92869", "name": "Orange (Chapman & Prospect)", "website": "http://locations.in-n-out.com/59", "brand": "In-N-Out Burger", "brand:wikidata": "Q1205312", "marker-color": "rgb(253,141,60)", "marker-size": "small"}}, {"type": "Feature", "geometry": {"type": "Point", "coordinates": [-117.83569, 33.83196]}, "properties": {"id": "i003W9Bv1-0qLUmYF3wksvcIbRM=", "ref": "182", "@spider": "innout", "addr:full": "2585 N. Tustin St.", "addr:city": "Orange", "addr:state": "CA", "addr:postcode": "92865", "name": "Orange (Tustin & Lincoln)", "website": "http://locations.in-n-out.com/182", "brand": "In-N-Out Burger", "brand:wikidata": "Q1205312", "marker-color": "rgb(253,141,60)", "marker-size": "small"}}, {"type": "Feature", "geometry": {"type": "Point", "coordinates": [-117.79367, 33.72286]}, "properties": {"id": "8WHza4SV6gYXnCJ_gU2DhdsCTJg=", "ref": "63", "@spider": "innout", "addr:full": "3020 El Camino Real", "addr:city": "Tustin", "addr:state": "CA", "addr:postcode": "92782", "name": "Tustin", "website": "http://locations.in-n-out.com/63", "brand": "In-N-Out Burger", "brand:wikidata": "Q1205312", "marker-color": "rgb(253,141,60)", "marker-size": "small"}}, {"type": "Feature", "geometry": {"type": "Point", "coordinates": [-117.91538, 33.99033]}, "properties": {"id": "GJMDh7EoGLmogH6DKLidxP-mU2c=", "ref": "66", "@spider": "innout", "addr:full": "17849 E. Colima Road", "addr:city": "City Of Industry", "addr:state": "CA", "addr:postcode": "91748", "name": "City Of Industry", "website": "http://locations.in-n-out.com/66", "brand": "In-N-Out Burger", "brand:wikidata": "Q1205312", "marker-color": "rgb(253,141,60)", "marker-size": "small"}}, {"type": "Feature", "geometry": {"type": "Point", "coordinates": [-117.88934, 33.91187]}, "properties": {"id": "n2OGIh11-JwBa0vbFSLGuL2Ql0E=", "ref": "370", "@spider": "innout", "addr:full": "1130 E. Imperial Hwy.", "addr:city": "Brea", "addr:state": "CA", "addr:postcode": "92821", "name": "Brea", "website": "http://locations.in-n-out.com/370", "brand": "In-N-Out Burger", "brand:wikidata": "Q1205312", "marker-color": "rgb(253,141,60)", "marker-size": "small"}}, {"type": "Feature", "geometry": {"type": "Point", "coordinates": [-117.87841, 33.87434]}, "properties": {"id": "jDAXhqugC4oWcsohW5tuUwL6lP0=", "ref": "32", "@spider": "innout", "addr:full": "825 W. Chapman", "addr:city": "Placentia", "addr:state": "CA", "addr:postcode": "92870", "name": "Placentia", "website": "http://locations.in-n-out.com/32", "brand": "In-N-Out Burger", "brand:wikidata": "Q1205312", "marker-color": "rgb(253,141,60)", "marker-size": "small"}}, {"type": "Feature", "geometry": {"type": "Point", "coordinates": [-117.95173, 34.03759]}, "properties": {"id": "NyCIIizNfxJXzS3NJXGbnDegtAc=", "ref": "7", "@spider": "innout", "addr:full": "15259 E. Amar Rd.", "addr:city": "La Puente", "addr:state": "CA", "addr:postcode": "91744", "name": "La Puente", "website": "http://locations.in-n-out.com/7", "brand": "In-N-Out Burger", "brand:wikidata": "Q1205312", "marker-color": "rgb(253,141,60)", "marker-size": "small"}}, {"type": "Feature", "geometry": {"type": "Point", "coordinates": [-117.97349, 34.06767]}, "properties": {"id": "WmIALkURmgv5DBV3CbqtWM99Jww=", "ref": "1", "@spider": "innout", "addr:full": "13850 Francisquito Ave.", "addr:city": "Baldwin Park", "addr:state": "CA", "addr:postcode": "91706", "name": "Baldwin Park", "website": "http://locations.in-n-out.com/1", "brand": "In-N-Out Burger", "brand:wikidata": "Q1205312", "marker-color": "rgb(253,141,60)", "marker-size": "small"}}, {"type": "Feature", "geometry": {"type": "Point", "coordinates": [-117.92377, 33.9244]}, "properties": {"id": "ZQA0JdbdvszrHZ3hFOIiX0g2ixA=", "ref": "36", "@spider": "innout", "addr:full": "2030 E. Lambert Rd.", "addr:city": "La Habra", "addr:state": "CA", "addr:postcode": "90631", "name": "La Habra", "website": "http://locations.in-n-out.com/36", "brand": "In-N-Out Burger", "brand:wikidata": "Q1205312", "marker-color": "rgb(253,141,60)", "marker-size": "small"}}, {"type": "Feature", "geometry": {"type": "Point", "coordinates": [-117.82708, 33.69499]}, "properties": {"id": "wx8SU7N8hx-IE85jTIsa7IobufU=", "ref": "216", "@spider": "innout", "addr:full": "2895 Park Ave.", "addr:city": "Tustin", "addr:state": "CA", "addr:postcode": "92782", "name": "Tustin (District)", "website": "http://locations.in-n-out.com/216", "brand": "In-N-Out Burger", "brand:wikidata": "Q1205312", "marker-color": "rgb(253,141,60)", "marker-size": "small"}}, {"type": "Feature", "geometry": {"type": "Point", "coordinates": [-117.88902, 33.81889]}, "properties": {"id": "7deHdhxdgeN5Lh8vE8MeWcRQwHE=", "ref": "300", "@spider": "innout", "addr:full": "1168 State College Blvd.", "addr:city": "Anaheim", "addr:state": "CA", "addr:postcode": "92806", "name": "Anaheim", "website": "http://locations.in-n-out.com/300", "brand": "In-N-Out Burger", "brand:wikidata": "Q1205312", "marker-color": "rgb(253,141,60)", "marker-size": "small"}}, {"type": "Feature", "geometry": {"type": "Point", "coordinates": [-118.03124, 34.14532]}, "properties": {"id": "yD4yoHjLf3hLTxnZc4LV4M6AdIQ=", "ref": "27", "@spider": "innout", "addr:full": "420 N. Santa Anita", "addr:city": "Arcadia", "addr:state": "CA", "addr:postcode": "91006", "name": "Arcadia", "website": "http://locations.in-n-out.com/27", "brand": "In-N-Out Burger", "brand:wikidata": "Q1205312", "marker-color": "rgb(253,141,60)", "marker-size": "small"}}, {"type": "Feature", "geometry": {"type": "Point", "coordinates": [-117.9873, 34.0194]}, "properties": {"id": "pCW4jZXFbq3mgvobYNbE23BKtVw=", "ref": "11", "@spider": "innout", "addr:full": "14620 E. Gale", "addr:city": "Hacienda Heights", "addr:state": "CA", "addr:postcode": "91745", "name": "Hacienda Heights", "website": "http://locations.in-n-out.com/11", "brand": "In-N-Out Burger", "brand:wikidata": "Q1205312", "marker-color": "rgb(253,141,60)", "marker-size": "small"}}, {"type": "Feature", "geometry": {"type": "Point", "coordinates": [-117.92398, 33.86023]}, "properties": {"id": "CJrvSrOiIdXcuUbA4RmChQ7v-tg=", "ref": "77", "@spider": "innout", "addr:full": "1180 S. Harbor Blvd.", "addr:city": "Fullerton", "addr:state": "CA", "addr:postcode": "92832", "name": "Fullerton", "website": "http://locations.in-n-out.com/77", "brand": "In-N-Out Burger", "brand:wikidata": "Q1205312", "marker-color": "rgb(253,141,60)", "marker-size": "small"}}, {"type": "Feature", "geometry": {"type": "Point", "coordinates": [-117.84063, 33.65015]}, "properties": {"id": "DJeuAYLSRoiCJ45DgnVtjGQCQ1o=", "ref": "67", "@spider": "innout", "addr:full": "4115 Campus Drive", "addr:city": "Irvine", "addr:state": "CA", "addr:postcode": "92612", "name": "Irvine", "website": "http://locations.in-n-out.com/67", "brand": "In-N-Out Burger", "brand:wikidata": "Q1205312", "marker-color": "rgb(253,141,60)", "marker-size": "small"}}, {"type": "Feature", "geometry": {"type": "Point", "coordinates": [-117.88474, 33.7523]}, "properties": {"id": "XZlGFUu8pSEBjF_v-p8xleNlFc4=", "ref": "17", "@spider": "innout", "addr:full": "815 N. Bristol", "addr:city": "Santa Ana", "addr:state": "CA", "addr:postcode": "92703", "name": "Santa Ana (Bristol & Civic Center)", "website": "http://locations.in-n-out.com/17", "brand": "In-N-Out Burger", "brand:wikidata": "Q1205312", "marker-color": "rgb(253,141,60)", "marker-size": "small"}}, {"type": "Feature", "geometry": {"type": "Point", "coordinates": [-117.96633, 33.93986]}, "properties": {"id": "Mnk_u0leoJn5cEgpjbHP_QGe6Rk=", "ref": "330", "@spider": "innout", "addr:full": "1761 W. Whittier Blvd.", "addr:city": "La Habra", "addr:state": "CA", "addr:postcode": "90631", "name": "La Habra", "website": "http://locations.in-n-out.com/330", "brand": "In-N-Out Burger", "brand:wikidata": "Q1205312", "marker-color": "rgb(253,141,60)", "marker-size": "small"}}, {"type": "Feature", "geometry": {"type": "Point", "coordinates": [-118.03846, 34.09244]}, "properties": {"id": "zHTm2lXeodP_hcTuSqdsTfTbqgA=", "ref": "13", "@spider": "innout", "addr:full": "10601 Lower Azusa Rd.", "addr:city": "Temple City", "addr:state": "CA", "addr:postcode": "91780", "name": "Temple City", "website": "http://locations.in-n-out.com/13", "brand": "In-N-Out Burger", "brand:wikidata": "Q1205312", "marker-color": "rgb(253,141,60)", "marker-size": "small"}}, {"type": "Feature", "geometry": {"type": "Point", "coordinates": [-117.8851, 33.70036]}, "properties": {"id": "SuXfgfF-fRT8b8I1vHuMZCpWiZY=", "ref": "133", "@spider": "innout", "addr:full": "3361 S. Bristol", "addr:city": "Santa Ana", "addr:state": "CA", "addr:postcode": "92704", "name": "Santa Ana (Macarthur)", "website": "http://locations.in-n-out.com/133", "brand": "In-N-Out Burger", "brand:wikidata": "Q1205312", "marker-color": "rgb(253,141,60)", "marker-size": "small"}}, {"type": "Feature", "geometry": {"type": "Point", "coordinates": [-117.9585, 33.82483]}, "properties": {"id": "xIKCR3L1c18Pbg34AM8uBWWYdF4=", "ref": "24", "@spider": "innout", "addr:full": "600 S. Brookhurst St.", "addr:city": "Anaheim", "addr:state": "CA", "addr:postcode": "92804", "name": "Anaheim", "website": "http://locations.in-n-out.com/24", "brand": "In-N-Out Burger", "brand:wikidata": "Q1205312", "marker-color": "rgb(253,141,60)", "marker-size": "small"}}, {"type": "Feature", "geometry": {"type": "Point", "coordinates": [-118.07301, 34.08397]}, "properties": {"id": "4SEPbV7jXxi1rk7xOXuCHlNP0UA=", "ref": "20", "@spider": "innout", "addr:full": "4242 N. Rosemead Blvd.", "addr:city": "Rosemead", "addr:state": "CA", "addr:postcode": "91770", "name": "Rosemead", "website": "http://locations.in-n-out.com/20", "brand": "In-N-Out Burger", "brand:wikidata": "Q1205312", "marker-color": "rgb(253,141,60)", "marker-size": "small"}}, {"type": "Feature", "geometry": {"type": "Point", "coordinates": [-118.1068, 34.14948]}, "properties": {"id": "ssO0ThUVWc0AJZIEjqOOyOoehOI=", "ref": "5", "@spider": "innout", "addr:full": "2114 E. Foothill Blvd.", "addr:city": "Pasadena", "addr:state": "CA", "addr:postcode": "91107", "name": "Pasadena", "website": "http://locations.in-n-out.com/5", "brand": "In-N-Out Burger", "brand:wikidata": "Q1205312", "marker-color": "rgb(253,141,60)", "marker-size": "small"}}, {"type": "Feature", "geometry": {"type": "Point", "coordinates": [-117.9199, 33.68773]}, "properties": {"id": "64EDbwt388rX9u8A3yL9kNuwV0o=", "ref": "251", "@spider": "innout", "addr:full": "3211 Harbor Blvd.", "addr:city": "Costa Mesa", "addr:state": "CA", "addr:postcode": "92626", "name": "Costa Mesa", "website": "http://locations.in-n-out.com/251", "brand": "In-N-Out Burger", "brand:wikidata": "Q1205312", "marker-color": "rgb(253,141,60)", "marker-size": "small"}}, {"type": "Feature", "geometry": {"type": "Point", "coordinates": [-118.0505, 33.98]}, "properties": {"id": "VSDuz9zbERonKANOFgLbbpPtSUA=", "ref": "372", "@spider": "innout", "addr:full": "11802 Whittier Blvd.", "addr:city": "Whittier ", "addr:state": "CA", "addr:postcode": "90601", "name": "Whittier ", "website": "http://locations.in-n-out.com/372", "brand": "In-N-Out Burger", "brand:wikidata": "Q1205312", "marker-color": "rgb(253,141,60)", "marker-size": "small"}}, {"type": "Feature", "geometry": {"type": "Point", "coordinates": [-117.97211, 33.76643]}, "properties": {"id": "3hucNunxG2lfBrvanob9GKpSdsA=", "ref": "19", "@spider": "innout", "addr:full": "9032 Trask Ave.", "addr:city": "Garden Grove", "addr:state": "CA", "addr:postcode": "92844", "name": "Garden Grove", "website": "http://locations.in-n-out.com/19", "brand": "In-N-Out Burger", "brand:wikidata": "Q1205312", "marker-color": "rgb(253,141,60)", "marker-size": "small"}}, {"type": "Feature", "geometry": {"type": "Point", "coordinates": [-118.04684, 33.93957]}, "properties": {"id": "Cq_BBSe6GZtuVyqzINaKXhYDT8M=", "ref": "47", "@spider": "innout", "addr:full": "10525 Carmenita", "addr:city": "Santa Fe Springs", "addr:state": "CA", "addr:postcode": "90670", "name": "Santa Fe Springs", "website": "http://locations.in-n-out.com/47", "brand": "In-N-Out Burger", "brand:wikidata": "Q1205312", "marker-color": "rgb(253,141,60)", "marker-size": "small"}}, {"type": "Feature", "geometry": {"type": "Point", "coordinates": [-117.92289, 33.64369]}, "properties": {"id": "yVG6DZxKR1EbU0Arg1-jEGceuyQ=", "ref": "38", "@spider": "innout", "addr:full": "594 W. 19th Street", "addr:city": "Costa Mesa", "addr:state": "CA", "addr:postcode": "92627", "name": "Costa Mesa", "website": "http://locations.in-n-out.com/38", "brand": "In-N-Out Burger", "brand:wikidata": "Q1205312", "marker-color": "rgb(253,141,60)", "marker-size": "small"}}, {"type": "Feature", "geometry": {"type": "Point", "coordinates": [-118.02468, 33.88254]}, "properties": {"id": "vIm0qTZGMo1WnxhH9UKcIQrV-fw=", "ref": "105", "@spider": "innout", "addr:full": "14341 Firestone Blvd.", "addr:city": "La Mirada", "addr:state": "CA", "addr:postcode": "90638", "name": "La Mirada", "website": "http://locations.in-n-out.com/105", "brand": "In-N-Out Burger", "brand:wikidata": "Q1205312", "marker-color": "rgb(253,141,60)", "marker-size": "small"}}, {"type": "Feature", "geometry": {"type": "Point", "coordinates": [-118.09739, 34.03638]}, "properties": {"id": "MSeSW8KF7tP842_4lPh7PeCtF6o=", "ref": "337", "@spider": "innout", "addr:full": "5500 Market Place Dr. ", "addr:city": "Monterey Park ", "addr:state": "CA", "addr:postcode": "91755", "name": "Monterey Park ", "website": "http://locations.in-n-out.com/337", "brand": "In-N-Out Burger", "brand:wikidata": "Q1205312", "marker-color": "rgb(253,141,60)", "marker-size": "small"}}, {"type": "Feature", "geometry": {"type": "Point", "coordinates": [-118.08306, 34.00053]}, "properties": {"id": "NgA2nNtEilMyflAs245FA4oTV4s=", "ref": "49", "@spider": "innout", "addr:full": "9070 Whittier Blvd.", "addr:city": "Pico Rivera", "addr:state": "CA", "addr:postcode": "90660", "name": "Pico Rivera", "website": "http://locations.in-n-out.com/49", "brand": "In-N-Out Burger", "brand:wikidata": "Q1205312", "marker-color": "rgb(253,141,60)", "marker-size": "small"}}, {"type": "Feature", "geometry": {"type": "Point", "coordinates": [-117.99318, 33.77485]}, "properties": {"id": "HP1QTeO3VVgIr7QwjWo8uqw4YCM=", "ref": "345", "@spider": "innout", "addr:full": "12975 Beach Blvd.", "addr:city": "Stanton ", "addr:state": "CA", "addr:postcode": "90680", "name": "Stanton", "website": "http://locations.in-n-out.com/345", "brand": "In-N-Out Burger", "brand:wikidata": "Q1205312", "marker-color": "rgb(253,141,60)", "marker-size": "small"}}, {"type": "Feature", "geometry": {"type": "Point", "coordinates": [-118.0281, 33.84731]}, "properties": {"id": "3XsHqbINfffQm3hqhAdILcKDZxk=", "ref": "42", "@spider": "innout", "addr:full": "7926 Valley View St.", "addr:city": "Buena Park", "addr:state": "CA", "addr:postcode": "90620", "name": "Buena Park", "website": "http://locations.in-n-out.com/42", "brand": "In-N-Out Burger", "brand:wikidata": "Q1205312", "marker-color": "rgb(253,141,60)", "marker-size": "small"}}, {"type": "Feature", "geometry": {"type": "Point", "coordinates": [-118.13437, 34.10603]}, "properties": {"id": "Kz-HgieTTO4YTE_Ozu8Cn7e5JRg=", "ref": "121", "@spider": "innout", "addr:full": "1210 N. Atlantic Blvd.", "addr:city": "Alhambra", "addr:state": "CA", "addr:postcode": "91801", "name": "Alhambra", "website": "http://locations.in-n-out.com/121", "brand": "In-N-Out Burger", "brand:wikidata": "Q1205312", "marker-color": "rgb(253,141,60)", "marker-size": "small"}}, {"type": "Feature", "geometry": {"type": "Point", "coordinates": [-117.98861, 33.70038]}, "properties": {"id": "pte14qEhnbljjIetm1_zcJ8P1dg=", "ref": "180", "@spider": "innout", "addr:full": "18062 Beach Blvd.", "addr:city": "Huntington Beach", "addr:state": "CA", "addr:postcode": "92648", "name": "Huntington Beach", "website": "http://locations.in-n-out.com/180", "brand": "In-N-Out Burger", "brand:wikidata": "Q1205312", "marker-color": "rgb(253,141,60)", "marker-size": "small"}}, {"type": "Feature", "geometry": {"type": "Point", "coordinates": [-118.01959, 33.75871]}, "properties": {"id": "8WFk9zsrDjFDAUhn8rChzMEITOI=", "ref": "37", "@spider": "innout", "addr:full": "6292 Westminster Blvd.", "addr:city": "Westminster", "addr:state": "CA", "addr:postcode": "92683", "name": "Westminster", "website": "http://locations.in-n-out.com/37", "brand": "In-N-Out Burger", "brand:wikidata": "Q1205312", "marker-color": "rgb(253,141,60)", "marker-size": "small"}}, {"type": "Feature", "geometry": {"type": "Point", "coordinates": [-118.08224, 33.90119]}, "properties": {"id": "4qBEC__24IZI5AV3Idi3ShrWF5w=", "ref": "14", "@spider": "innout", "addr:full": "14330 Pioneer Blvd.", "addr:city": "Norwalk", "addr:state": "CA", "addr:postcode": "90650", "name": "Norwalk", "website": "http://locations.in-n-out.com/14", "brand": "In-N-Out Burger", "brand:wikidata": "Q1205312", "marker-color": "rgb(253,141,60)", "marker-size": "small"}}, {"type": "Feature", "geometry": {"type": "Point", "coordinates": [-118.1021, 33.88714]}, "properties": {"id": "OqbrHqql2mY2KiY3wS9oKpK9bHs=", "ref": "305", "@spider": "innout", "addr:full": "10900 Alondra Blvd.", "addr:city": "Cerritos", "addr:state": "CA", "addr:postcode": "90703", "name": "Cerritos", "website": "http://locations.in-n-out.com/305", "brand": "In-N-Out Burger", "brand:wikidata": "Q1205312", "marker-color": "rgb(253,141,60)", "marker-size": "small"}}, {"type": "Feature", "geometry": {"type": "Point", "coordinates": [-118.12421, 33.93609]}, "properties": {"id": "kEKktzWVIGJAJJMmdHCsFcf9LrE=", "ref": "112", "@spider": "innout", "addr:full": "8767 Firestone Blvd.", "addr:city": "Downey", "addr:state": "CA", "addr:postcode": "90241", "name": "Downey", "website": "http://locations.in-n-out.com/112", "brand": "In-N-Out Burger", "brand:wikidata": "Q1205312", "marker-color": "rgb(253,141,60)", "marker-size": "small"}}, {"type": "Feature", "geometry": {"type": "Point", "coordinates": [-118.08485, 33.83109]}, "properties": {"id": "SElvDK9dKXoBWzV76UZMyB4_3jU=", "ref": "135", "@spider": "innout", "addr:full": "7691 Carson St.", "addr:city": "Long Beach", "addr:state": "CA", "addr:postcode": "90808", "name": "Long Beach (Carson St.)", "website": "http://locations.in-n-out.com/135", "brand": "In-N-Out Burger", "brand:wikidata": "Q1205312", "marker-color": "rgb(253,141,60)", "marker-size": "small"}}, {"type": "Feature", "geometry": {"type": "Point", "coordinates": [-118.07251, 33.78222]}, "properties": {"id": "Pf_uP6eMx-lACkzkoBw81jdCYC8=", "ref": "271", "@spider": "innout", "addr:full": "12365 Seal Beach Blvd.", "addr:city": "Seal Beach", "addr:state": "CA", "addr:postcode": "90740", "name": "Seal Beach", "website": "http://locations.in-n-out.com/271", "brand": "In-N-Out Burger", "brand:wikidata": "Q1205312", "marker-color": "rgb(253,141,60)", "marker-size": "small"}}, {"type": "Feature", "geometry": {"type": "Point", "coordinates": [-118.22735, 34.14868]}, "properties": {"id": "ZeofJjGUaO1ljjF_wtbqJZZ458o=", "ref": "157", "@spider": "innout", "addr:full": "310 N. Harvey Dr.", "addr:city": "Glendale", "addr:state": "CA", "addr:postcode": "91206", "name": "Glendale (Harvey & Holly)", "website": "http://locations.in-n-out.com/157", "brand": "In-N-Out Burger", "brand:wikidata": "Q1205312", "marker-color": "rgb(253,141,60)", "marker-size": "small"}}, {"type": "Feature", "geometry": {"type": "Point", "coordinates": [-118.26655, 34.24106]}, "properties": {"id": "r5HzyljPqHpsZN5L3Pwj202boIo=", "ref": "16", "@spider": "innout", "addr:full": "6225 Foothill Blvd.", "addr:city": "Tujunga", "addr:state": "CA", "addr:postcode": "91042", "name": "Tujunga", "website": "http://locations.in-n-out.com/16", "brand": "In-N-Out Burger", "brand:wikidata": "Q1205312", "marker-color": "rgb(253,141,60)", "marker-size": "small"}}, {"type": "Feature", "geometry": {"type": "Point", "coordinates": [-118.12539, 33.8751]}, "properties": {"id": "4bgTovUDsRnzYSL7btY9gcuEZNM=", "ref": "344", "@spider": "innout", "addr:full": "17325 Bellflower Blvd. ", "addr:city": "Bellflower ", "addr:state": "CA", "addr:postcode": "90706", "name": "Bellflower", "website": "http://locations.in-n-out.com/344", "brand": "In-N-Out Burger", "brand:wikidata": "Q1205312", "marker-color": "rgb(253,141,60)", "marker-size": "small"}}, {"type": "Feature", "geometry": {"type": "Point", "coordinates": [-118.12471, 33.86098]}, "properties": {"id": "61rtIGKUu1j5E1Ws5OZJ0OhfhxQ=", "ref": "40", "@spider": "innout", "addr:full": "5820 Bellflower Blvd.", "addr:city": "Lakewood", "addr:state": "CA", "addr:postcode": "90713", "name": "Lakewood", "website": "http://locations.in-n-out.com/40", "brand": "In-N-Out Burger", "brand:wikidata": "Q1205312", "marker-color": "rgb(253,141,60)", "marker-size": "small"}}, {"type": "Feature", "geometry": {"type": "Point", "coordinates": [-118.25545, 34.1456]}, "properties": {"id": "pbkKXANEVn7kIqHyFmN9T3UoKdQ=", "ref": "174", "@spider": "innout", "addr:full": "119 S. Brand Blvd.", "addr:city": "Glendale", "addr:state": "CA", "addr:postcode": "91204", "name": "Glendale (Brand & Broadway)", "website": "http://locations.in-n-out.com/174", "brand": "In-N-Out Burger", "brand:wikidata": "Q1205312", "marker-color": "rgb(253,141,60)", "marker-size": "small"}}, {"type": "Feature", "geometry": {"type": "Point", "coordinates": [-118.18831, 33.95274]}, "properties": {"id": "DUg4kPx-uet5uADER801yhHnKmo=", "ref": "287", "@spider": "innout", "addr:full": "4601 Firestone Blvd.", "addr:city": "South Gate", "addr:state": "CA", "addr:postcode": "90280", "name": "South Gate", "website": "http://locations.in-n-out.com/287", "brand": "In-N-Out Burger", "brand:wikidata": "Q1205312", "marker-color": "rgb(253,141,60)", "marker-size": "small"}}, {"type": "Feature", "geometry": {"type": "Point", "coordinates": [-118.11117, 33.75847]}, "properties": {"id": "J7V2JokTimmrYmFTREU-zDfina8=", "ref": "114", "@spider": "innout", "addr:full": "6391 E. Pacific Coast Hwy.", "addr:city": "Long Beach", "addr:state": "CA", "addr:postcode": "90803", "name": "Long Beach", "website": "http://locations.in-n-out.com/114", "brand": "In-N-Out Burger", "brand:wikidata": "Q1205312", "marker-color": "rgb(253,141,60)", "marker-size": "small"}}, {"type": "Feature", "geometry": {"type": "Point", "coordinates": [-118.143, 33.83164]}, "properties": {"id": "nSUY7J7zXWpd1Uel_0tHgx-FVkI=", "ref": "333", "@spider": "innout", "addr:full": "4041 Lakewood Blvd.", "addr:city": "Long Beach", "addr:state": "CA", "addr:postcode": "90712", "name": "Long Beach", "website": "http://locations.in-n-out.com/333", "brand": "In-N-Out Burger", "brand:wikidata": "Q1205312", "marker-color": "rgb(253,141,60)", "marker-size": "small"}}, {"type": "Feature", "geometry": {"type": "Point", "coordinates": [-118.14011, 33.79119]}, "properties": {"id": "wcYNKc6Igtl5RBZxtkZ7Z-v4-5Q=", "ref": "60", "@spider": "innout", "addr:full": "4600 Los Coyotes Dgl.", "addr:city": "Long Beach", "addr:state": "CA", "addr:postcode": "90815", "name": "Long Beach (Los Coyotes Diagonal)", "website": "http://locations.in-n-out.com/60", "brand": "In-N-Out Burger", "brand:wikidata": "Q1205312", "marker-color": "rgb(253,141,60)", "marker-size": "small"}}, {"type": "Feature", "geometry": {"type": "Point", "coordinates": [-118.2248, 33.98704]}, "properties": {"id": "a8luFbfnu6lNbX7T46cKdeYh0jU=", "ref": "74", "@spider": "innout", "addr:full": "6000 Pacific Blvd.", "addr:city": "Huntington Park", "addr:state": "CA", "addr:postcode": "90255", "name": "Huntington Park", "website": "http://locations.in-n-out.com/74", "brand": "In-N-Out Burger", "brand:wikidata": "Q1205312", "marker-color": "rgb(253,141,60)", "marker-size": "small"}}, {"type": "Feature", "geometry": {"type": "Point", "coordinates": [-118.31607, 34.18497]}, "properties": {"id": "o7XfW7AS5a9unq0hZpWtl-y9xaM=", "ref": "110", "@spider": "innout", "addr:full": "761 First Street", "addr:city": "Burbank", "addr:state": "CA", "addr:postcode": "91502", "name": "Burbank", "website": "http://locations.in-n-out.com/110", "brand": "In-N-Out Burger", "brand:wikidata": "Q1205312", "marker-color": "rgb(253,141,60)", "marker-size": "small"}}, {"type": "Feature", "geometry": {"type": "Point", "coordinates": [-118.42316, 34.42368]}, "properties": {"id": "PCQCuAJQKbTjH4si7NzRn-BZZ10=", "ref": "107", "@spider": "innout", "addr:full": "28368 Sand Canyon Rd.", "addr:city": "Santa Clarita", "addr:state": "CA", "addr:postcode": "91351", "name": "Santa Clarita (Sand Canyon)", "website": "http://locations.in-n-out.com/107", "brand": "In-N-Out Burger", "brand:wikidata": "Q1205312", "marker-color": "rgb(253,141,60)", "marker-size": "small"}}, {"type": "Feature", "geometry": {"type": "Point", "coordinates": [-118.18333, 33.81199]}, "properties": {"id": "IuWlleCuiCHkyzLZ0iHLzcD8ec4=", "ref": "265", "@spider": "innout", "addr:full": "799 E. Spring St.", "addr:city": "Signal Hill", "addr:state": "CA", "addr:postcode": "90755", "name": "Signal Hill", "website": "http://locations.in-n-out.com/265", "brand": "In-N-Out Burger", "brand:wikidata": "Q1205312", "marker-color": "rgb(253,141,60)", "marker-size": "small"}}, {"type": "Feature", "geometry": {"type": "Point", "coordinates": [-118.24841, 33.87269]}, "properties": {"id": "vr6awjPQb05nM0dYrP1xJdjiebg=", "ref": "347", "@spider": "innout", "addr:full": "2200 S. Central Ave.", "addr:city": "Compton", "addr:state": "CA", "addr:postcode": "90220", "name": "Compton ", "website": "http://locations.in-n-out.com/347", "brand": "In-N-Out Burger", "brand:wikidata": "Q1205312", "marker-color": "rgb(253,141,60)", "marker-size": "small"}}, {"type": "Feature", "geometry": {"type": "Point", "coordinates": [-118.34171, 34.09822]}, "properties": {"id": "j_gBD9g1gd0x9GZuGYuOIBLkYzQ=", "ref": "102", "@spider": "innout", "addr:full": "7009 Sunset Blvd.", "addr:city": "Hollywood", "addr:state": "CA", "addr:postcode": "90028", "name": "Hollywood", "website": "http://locations.in-n-out.com/102", "brand": "In-N-Out Burger", "brand:wikidata": "Q1205312", "marker-color": "rgb(253,141,60)", "marker-size": "small"}}, {"type": "Feature", "geometry": {"type": "Point", "coordinates": [-118.36062, 34.13508]}, "properties": {"id": "eY1iImw2Zk2E3ZW-LIPJOc7uUGM=", "ref": "111", "@spider": "innout", "addr:full": "3640 Cahuenga Blvd.", "addr:city": "Los Angeles", "addr:state": "CA", "addr:postcode": "90068", "name": "Studio City", "website": "http://locations.in-n-out.com/111", "brand": "In-N-Out Burger", "brand:wikidata": "Q1205312", "marker-color": "rgb(253,141,60)", "marker-size": "small"}}, {"type": "Feature", "geometry": {"type": "Point", "coordinates": [-118.38194, 34.17746]}, "properties": {"id": "HeevzWlK2oIq3Oyt7276YSHnNa4=", "ref": "9", "@spider": "innout", "addr:full": "5864 Lankershim Blvd", "addr:city": "N. Hollywood", "addr:state": "CA", "addr:postcode": "91601", "name": "North Hollywood", "website": "http://locations.in-n-out.com/9", "brand": "In-N-Out Burger", "brand:wikidata": "Q1205312", "marker-color": "rgb(253,141,60)", "marker-size": "small"}}, {"type": "Feature", "geometry": {"type": "Point", "coordinates": [-118.43073, 34.22201]}, "properties": {"id": "lksfzon-WJoqbZ3g4FKH5WKUqPc=", "ref": "10", "@spider": "innout", "addr:full": "13651 Roscoe Blvd.", "addr:city": "Panorama City", "addr:state": "CA", "addr:postcode": "91402", "name": "Panorama City", "website": "http://locations.in-n-out.com/10", "brand": "In-N-Out Burger", "brand:wikidata": "Q1205312", "marker-color": "rgb(253,141,60)", "marker-size": "small"}}, {"type": "Feature", "geometry": {"type": "Point", "coordinates": [-118.45306, 34.27802]}, "properties": {"id": "XaW4U1bfZ1Vb4F3Pk4lrn336hRw=", "ref": "12", "@spider": "innout", "addr:full": "11455 Laurel Canyon Blvd.", "addr:city": "San Fernando", "addr:state": "CA", "addr:postcode": "91340", "name": "San Fernando", "website": "http://locations.in-n-out.com/12", "brand": "In-N-Out Burger", "brand:wikidata": "Q1205312", "marker-color": "rgb(253,141,60)", "marker-size": "small"}}, {"type": "Feature", "geometry": {"type": "Point", "coordinates": [-118.33238, 33.94579]}, "properties": {"id": "dhhp8vKstOlxvw-W54s5rgYMnTE=", "ref": "166", "@spider": "innout", "addr:full": "3411 W. Century Blvd.", "addr:city": "Inglewood", "addr:state": "CA", "addr:postcode": "90301", "name": "Inglewood", "website": "http://locations.in-n-out.com/166", "brand": "In-N-Out Burger", "brand:wikidata": "Q1205312", "marker-color": "rgb(253,141,60)", "marker-size": "small"}}, {"type": "Feature", "geometry": {"type": "Point", "coordinates": [-118.28839, 33.83114]}, "properties": {"id": "W1e0TRaiI6meEfqVeYJXEyFKZJw=", "ref": "30", "@spider": "innout", "addr:full": "730 W. Carson St.", "addr:city": "Torrance", "addr:state": "CA", "addr:postcode": "90502", "name": "Torrance (Carson St.)", "website": "http://locations.in-n-out.com/30", "brand": "In-N-Out Burger", "brand:wikidata": "Q1205312", "marker-color": "rgb(253,141,60)", "marker-size": "small"}}, {"type": "Feature", "geometry": {"type": "Point", "coordinates": [-118.30729, 33.8732]}, "properties": {"id": "nCUBsS7KNCipBvf-Q488Y4p5dFs=", "ref": "310", "@spider": "innout", "addr:full": "1701 Artesia Blvd.", "addr:city": "Gardena", "addr:state": "CA", "addr:postcode": "90248", "name": "Gardena", "website": "http://locations.in-n-out.com/310", "brand": "In-N-Out Burger", "brand:wikidata": "Q1205312", "marker-color": "rgb(253,141,60)", "marker-size": "small"}}, {"type": "Feature", "geometry": {"type": "Point", "coordinates": [-118.44821, 34.21504]}, "properties": {"id": "79UJXy3r6eqdpWYANWkCkcuohMM=", "ref": "134", "@spider": "innout", "addr:full": "7930 Van Nuys Blvd.", "addr:city": "Van Nuys", "addr:state": "CA", "addr:postcode": "91402", "name": "Van Nuys", "website": "http://locations.in-n-out.com/134", "brand": "In-N-Out Burger", "brand:wikidata": "Q1205312", "marker-color": "rgb(253,141,60)", "marker-size": "small"}}, {"type": "Feature", "geometry": {"type": "Point", "coordinates": [-118.53924, 34.42546]}, "properties": {"id": "yivAkx4STD2pT06Z0aADpn1wkfo=", "ref": "171", "@spider": "innout", "addr:full": "26401 Bouquet Canyon Rd.", "addr:city": "Santa Clarita", "addr:state": "CA", "addr:postcode": "91350", "name": "Santa Clarita (Bouquet Canyon)", "website": "http://locations.in-n-out.com/171", "brand": "In-N-Out Burger", "brand:wikidata": "Q1205312", "marker-color": "rgb(253,141,60)", "marker-size": "small"}}, {"type": "Feature", "geometry": {"type": "Point", "coordinates": [-118.39427, 34.02646]}, "properties": {"id": "GnhA0JSuCADUo77NaFTPTyNAiKI=", "ref": "55", "@spider": "innout", "addr:full": "9245 W. Venice Blvd.", "addr:city": "Los Angeles", "addr:state": "CA", "addr:postcode": "90034", "name": "West Los Angeles", "website": "http://locations.in-n-out.com/55", "brand": "In-N-Out Burger", "brand:wikidata": "Q1205312", "marker-color": "rgb(253,141,60)", "marker-size": "small"}}, {"type": "Feature", "geometry": {"type": "Point", "coordinates": [-118.44831, 34.1521]}, "properties": {"id": "hjilkAo4UdicOKvWLfWWHbxbZk4=", "ref": "85", "@spider": "innout", "addr:full": "4444 Van Nuys Blvd.", "addr:city": "Sherman Oaks", "addr:state": "CA", "addr:postcode": "91403", "name": "Sherman Oaks", "website": "http://locations.in-n-out.com/85", "brand": "In-N-Out Burger", "brand:wikidata": "Q1205312", "marker-color": "rgb(253,141,60)", "marker-size": "small"}}, {"type": "Feature", "geometry": {"type": "Point", "coordinates": [-118.50196, 34.25]}, "properties": {"id": "8kQftkG10k7wSWEAHHMwCToPo1g=", "ref": "35", "@spider": "innout", "addr:full": "9858 Balboa Blvd.", "addr:city": "Northridge", "addr:state": "CA", "addr:postcode": "91325", "name": "Northridge (Balboa & Lassen)", "website": "http://locations.in-n-out.com/35", "brand": "In-N-Out Burger", "brand:wikidata": "Q1205312", "marker-color": "rgb(253,141,60)", "marker-size": "small"}}, {"type": "Feature", "geometry": {"type": "Point", "coordinates": [-118.36179, 33.89208]}, "properties": {"id": "4alod6GAN31jw2kRn8ApjLY6JhU=", "ref": "92", "@spider": "innout", "addr:full": "3801 Inglewood Ave.", "addr:city": "Redondo Beach", "addr:state": "CA", "addr:postcode": "90278", "name": "Redondo Beach", "website": "http://locations.in-n-out.com/92", "brand": "In-N-Out Burger", "brand:wikidata": "Q1205312", "marker-color": "rgb(253,141,60)", "marker-size": "small"}}, {"type": "Feature", "geometry": {"type": "Point", "coordinates": [-118.32835, 33.80279]}, "properties": {"id": "Ey-wt78vOOB8BKWAmfEgWp1wd2s=", "ref": "75", "@spider": "innout", "addr:full": "24445 Crenshaw Blvd.", "addr:city": "Torrance", "addr:state": "CA", "addr:postcode": "90505", "name": "Torrance (Crenshaw & Lomita)", "website": "http://locations.in-n-out.com/75", "brand": "In-N-Out Burger", "brand:wikidata": "Q1205312", "marker-color": "rgb(253,141,60)", "marker-size": "small"}}, {"type": "Feature", "geometry": {"type": "Point", "coordinates": [-118.30862, 33.75336]}, "properties": {"id": "WXK0F7F9bt_m5dGc_S3VFfyEy14=", "ref": "151", "@spider": "innout", "addr:full": "1090 N. Western Ave.", "addr:city": "San Pedro", "addr:state": "CA", "addr:postcode": "90732", "name": "San Pedro", "website": "http://locations.in-n-out.com/151", "brand": "In-N-Out Burger", "brand:wikidata": "Q1205312", "marker-color": "rgb(253,141,60)", "marker-size": "small"}}, {"type": "Feature", "geometry": {"type": "Point", "coordinates": [-118.35312, 33.84883]}, "properties": {"id": "JUuQb2GtQSetC86KfWL1lELsSYY=", "ref": "270", "@spider": "innout", "addr:full": "20150 Hawthorne Blvd", "addr:city": "Torrance", "addr:state": "CA", "addr:postcode": "90503", "name": "Torrance", "website": "http://locations.in-n-out.com/270", "brand": "In-N-Out Burger", "brand:wikidata": "Q1205312", "marker-color": "rgb(253,141,60)", "marker-size": "small"}}, {"type": "Feature", "geometry": {"type": "Point", "coordinates": [-118.39677, 33.95369]}, "properties": {"id": "whlydtDxv3hyZR5O9OcTOasN0_k=", "ref": "117", "@spider": "innout", "addr:full": "9149 S. Sepulveda Blvd.", "addr:city": "Los Angeles", "addr:state": "CA", "addr:postcode": "90045", "name": "Westchester", "website": "http://locations.in-n-out.com/117", "brand": "In-N-Out Burger", "brand:wikidata": "Q1205312", "marker-color": "rgb(253,141,60)", "marker-size": "small"}}, {"type": "Feature", "geometry": {"type": "Point", "coordinates": [-118.56538, 34.37714]}, "properties": {"id": "He7rWyJiVA_RzmtW8BtgLV853VM=", "ref": "53", "@spider": "innout", "addr:full": "25220 N. The Old Road", "addr:city": "Newhall", "addr:state": "CA", "addr:postcode": "91381", "name": "Newhall", "website": "http://locations.in-n-out.com/53", "brand": "In-N-Out Burger", "brand:wikidata": "Q1205312", "marker-color": "rgb(253,141,60)", "marker-size": "small"}}, {"type": "Feature", "geometry": {"type": "Point", "coordinates": [-118.5007, 34.20186]}, "properties": {"id": "hrmDPBjjh4JEtsL6h_8K1vfnWDw=", "ref": "196", "@spider": "innout", "addr:full": "7220 N. Balboa", "addr:city": "Van Nuys", "addr:state": "CA", "addr:postcode": "91406", "name": "Van Nuys (Balboa)", "website": "http://locations.in-n-out.com/196", "brand": "In-N-Out Burger", "brand:wikidata": "Q1205312", "marker-color": "rgb(253,141,60)", "marker-size": "small"}}, {"type": "Feature", "geometry": {"type": "Point", "coordinates": [-118.44803, 34.06306]}, "properties": {"id": "qpJZ2EjHZcZwzPu3j4ZUDOBw7GQ=", "ref": "119", "@spider": "innout", "addr:full": "922 Gayley", "addr:city": "Los Angeles", "addr:state": "CA", "addr:postcode": "90024", "name": "Westwood", "website": "http://locations.in-n-out.com/119", "brand": "In-N-Out Burger", "brand:wikidata": "Q1205312", "marker-color": "rgb(253,141,60)", "marker-size": "small"}}, {"type": "Feature", "geometry": {"type": "Point", "coordinates": [-118.39582, 33.92387]}, "properties": {"id": "T7LTwpz4rC7BQvi9Da17_7u1vlU=", "ref": "309", "@spider": "innout", "addr:full": "600 N. Sepulveda Blvd.", "addr:city": "El Segundo", "addr:state": "CA", "addr:postcode": "90245", "name": "El Segundo", "website": "http://locations.in-n-out.com/309", "brand": "In-N-Out Burger", "brand:wikidata": "Q1205312", "marker-color": "rgb(253,141,60)", "marker-size": "small"}}, {"type": "Feature", "geometry": {"type": "Point", "coordinates": [-118.44626, 33.99165]}, "properties": {"id": "XxA3rOCT09HWoDOjOfZpzwtTQxM=", "ref": "140", "@spider": "innout", "addr:full": "13425 Washington Blvd.", "addr:city": "Marina Del Rey", "addr:state": "CA", "addr:postcode": "90292", "name": "Culver City", "website": "http://locations.in-n-out.com/140", "brand": "In-N-Out Burger", "brand:wikidata": "Q1205312", "marker-color": "rgb(253,141,60)", "marker-size": "small"}}, {"type": "Feature", "geometry": {"type": "Point", "coordinates": [-118.56807, 34.2758]}, "properties": {"id": "GMmnFgY8-ieTexm4dh5piBZba-o=", "ref": "178", "@spider": "innout", "addr:full": "19901 Rinaldi St.", "addr:city": "Porter Ranch", "addr:state": "CA", "addr:postcode": "91326", "name": "Porter Ranch", "website": "http://locations.in-n-out.com/178", "brand": "In-N-Out Burger", "brand:wikidata": "Q1205312", "marker-color": "rgb(253,141,60)", "marker-size": "small"}}, {"type": "Feature", "geometry": {"type": "Point", "coordinates": [-118.55324, 34.23079]}, "properties": {"id": "ieaU_GXo5RKDkMBsyVbg4T2T6gs=", "ref": "208", "@spider": "innout", "addr:full": "8830 Tampa Ave.", "addr:city": "Northridge", "addr:state": "CA", "addr:postcode": "91324", "name": "Northridge (Tampa Ave.)", "website": "http://locations.in-n-out.com/208", "brand": "In-N-Out Burger", "brand:wikidata": "Q1205312", "marker-color": "rgb(253,141,60)", "marker-size": "small"}}, {"type": "Feature", "geometry": {"type": "Point", "coordinates": [-118.56664, 34.17195]}, "properties": {"id": "_7LyYS_9VXRPdkNkqhpppDJ-ENU=", "ref": "18", "@spider": "innout", "addr:full": "19920 Ventura Blvd.", "addr:city": "Woodland Hills", "addr:state": "CA", "addr:postcode": "91364", "name": "Woodland Hills", "website": "http://locations.in-n-out.com/18", "brand": "In-N-Out Burger", "brand:wikidata": "Q1205312", "marker-color": "rgb(253,141,60)", "marker-size": "small"}}, {"type": "Feature", "geometry": {"type": "Point", "coordinates": [-118.60635, 34.19492]}, "properties": {"id": "kAUBqDl8nTezdQKYr6BqZzUTrSE=", "ref": "206", "@spider": "innout", "addr:full": "6841 Topanga Canyon Blvd.", "addr:city": "Canoga Park", "addr:state": "CA", "addr:postcode": "91303", "name": "Canoga Park", "website": "http://locations.in-n-out.com/206", "brand": "In-N-Out Burger", "brand:wikidata": "Q1205312", "marker-color": "rgb(253,141,60)", "marker-size": "small"}}, {"type": "Feature", "geometry": {"type": "Point", "coordinates": [-118.69094, 34.28305]}, "properties": {"id": "PsPloMTnpdnZdwoAXAeMCNz4siM=", "ref": "78", "@spider": "innout", "addr:full": "2600 Stearns St.", "addr:city": "Simi Valley", "addr:state": "CA", "addr:postcode": "93063", "name": "Simi Valley", "website": "http://locations.in-n-out.com/78", "brand": "In-N-Out Burger", "brand:wikidata": "Q1205312", "marker-color": "rgb(253,141,60)", "marker-size": "small"}}, {"type": "Feature", "geometry": {"type": "Point", "coordinates": [-118.94828, 34.98345]}, "properties": {"id": "TCF6OEVIHkLxJiZeSq1IG2u5FjM=", "ref": "209", "@spider": "innout", "addr:full": "5926 Dennis Mccarthy", "addr:city": "Lebec", "addr:state": "CA", "addr:postcode": "93243", "name": "Lebec (Tejon Ranch)", "website": "http://locations.in-n-out.com/209", "brand": "In-N-Out Burger", "brand:wikidata": "Q1205312", "marker-color": "rgb(253,141,60)", "marker-size": "small"}}, {"type": "Feature", "geometry": {"type": "Point", "coordinates": [-118.79711, 34.14764]}, "properties": {"id": "kdE9kQi3-IyudVLMsiSU0HTou8A=", "ref": "297", "@spider": "innout", "addr:full": "30780 Russell Ranch Rd.", "addr:city": "Westlake Village", "addr:state": "CA", "addr:postcode": "91361", "name": "Westlake Village", "website": "http://locations.in-n-out.com/297", "brand": "In-N-Out Burger", "brand:wikidata": "Q1205312", "marker-color": "rgb(253,141,60)", "marker-size": "small"}}, {"type": "Feature", "geometry": {"type": "Point", "coordinates": [-118.86544, 34.28022]}, "properties": {"id": "0pSYN359TmDbfhdgiwvURptawK0=", "ref": "179", "@spider": "innout", "addr:full": "856 New Los Angeles Ave.", "addr:city": "Moorpark", "addr:state": "CA", "addr:postcode": "93021", "name": "Moorpark", "website": "http://locations.in-n-out.com/179", "brand": "In-N-Out Burger", "brand:wikidata": "Q1205312", "marker-color": "rgb(253,141,60)", "marker-size": "small"}}, {"type": "Feature", "geometry": {"type": "Point", "coordinates": [-118.91459, 34.18371]}, "properties": {"id": "vb07h1niilahBSgA-jABngttYcY=", "ref": "58", "@spider": "innout", "addr:full": "1550 Newbury Rd.", "addr:city": "Newbury Park", "addr:state": "CA", "addr:postcode": "91320", "name": "Newbury Park", "website": "http://locations.in-n-out.com/58", "brand": "In-N-Out Burger", "brand:wikidata": "Q1205312", "marker-color": "rgb(253,141,60)", "marker-size": "small"}}, {"type": "Feature", "geometry": {"type": "Point", "coordinates": [-119.05295, 34.21722]}, "properties": {"id": "HDLCa2M0of6JS8TwJao6y3amkYA=", "ref": "41", "@spider": "innout", "addr:full": "1316 Ventura Blvd.", "addr:city": "Camarillo", "addr:state": "CA", "addr:postcode": "93010", "name": "Camarillo", "website": "http://locations.in-n-out.com/41", "brand": "In-N-Out Burger", "brand:wikidata": "Q1205312", "marker-color": "rgb(253,141,60)", "marker-size": "small"}}, {"type": "Feature", "geometry": {"type": "Point", "coordinates": [-119.17967, 34.23508]}, "properties": {"id": "gy3lXdA7rM3kSktHVnJ9rBnKpa0=", "ref": "163", "@spider": "innout", "addr:full": "381 W. Esplanade", "addr:city": "Oxnard", "addr:state": "CA", "addr:postcode": "93036", "name": "Oxnard", "website": "http://locations.in-n-out.com/163", "brand": "In-N-Out Burger", "brand:wikidata": "Q1205312", "marker-color": "rgb(253,141,60)", "marker-size": "small"}}, {"type": "Feature", "geometry": {"type": "Point", "coordinates": [-119.27283, 34.26841]}, "properties": {"id": "POL9kd3GhpIO0rgldGqsxAqvge0=", "ref": "76", "@spider": "innout", "addr:full": "2070 Harbor Blvd.", "addr:city": "Ventura", "addr:state": "CA", "addr:postcode": "93001", "name": "Ventura", "website": "http://locations.in-n-out.com/76", "brand": "In-N-Out Burger", "brand:wikidata": "Q1205312", "marker-color": "rgb(253,141,60)", "marker-size": "small"}}, {"type": "Feature", "geometry": {"type": "Point", "coordinates": [-119.79074, 34.44289]}, "properties": {"id": "Dk6Yn5-DdKZUIp3ZlN9UGhix2H4=", "ref": "108", "@spider": "innout", "addr:full": "4865 Calle Real", "addr:city": "Goleta", "addr:state": "CA", "addr:postcode": "93111", "name": "Goleta", "website": "http://locations.in-n-out.com/108", "brand": "In-N-Out Burger", "brand:wikidata": "Q1205312", "marker-color": "rgb(253,141,60)", "marker-size": "small"}}, {"type": "Feature", "geometry": {"type": "Point", "coordinates": [-121.56419, 37.0238]}, "properties": {"id": "raMTdyzWo5JfDxur8CT3BsA01Z4=", "ref": "100", "@spider": "innout", "addr:full": "641 Leavesley Rd.", "addr:city": "Gilroy", "addr:state": "CA", "addr:postcode": "95020", "name": "Gilroy", "website": "http://locations.in-n-out.com/100", "brand": "In-N-Out Burger", "brand:wikidata": "Q1205312", "marker-color": "rgb(240,59,32)", "marker-size": "small"}}, {"type": "Feature", "geometry": {"type": "Point", "coordinates": [-121.6548, 37.15249]}, "properties": {"id": "Xl_UjICq78T9fBGTh4FsJIHrw8g=", "ref": "198", "@spider": "innout", "addr:full": "895 Cochrane Rd.", "addr:city": "Morgan Hill", "addr:state": "CA", "addr:postcode": "95037", "name": "Morgan Hill", "website": "http://locations.in-n-out.com/198", "brand": "In-N-Out Burger", "brand:wikidata": "Q1205312", "marker-color": "rgb(240,59,32)", "marker-size": "small"}}, {"type": "Feature", "geometry": {"type": "Point", "coordinates": [-121.6409, 36.67993]}, "properties": {"id": "xQXBV34Y64lNIHjP9BELSGfXmiY=", "ref": "99", "@spider": "innout", "addr:full": "151 Kern St.", "addr:city": "Salinas", "addr:state": "CA", "addr:postcode": "93905", "name": "Salinas", "website": "http://locations.in-n-out.com/99", "brand": "In-N-Out Burger", "brand:wikidata": "Q1205312", "marker-color": "rgb(240,59,32)", "marker-size": "small"}}, {"type": "Feature", "geometry": {"type": "Point", "coordinates": [-121.81133, 37.33009]}, "properties": {"id": "LrYpm-_1vt3SYYK5S6P6_eS0PrI=", "ref": "158", "@spider": "innout", "addr:full": "2950 E. Capitol Expy.", "addr:city": "San Jose", "addr:state": "CA", "addr:postcode": "95148", "name": "San Jose (Capitol & Tully)", "website": "http://locations.in-n-out.com/158", "brand": "In-N-Out Burger", "brand:wikidata": "Q1205312", "marker-color": "rgb(240,59,32)", "marker-size": "small"}}, {"type": "Feature", "geometry": {"type": "Point", "coordinates": [-121.80391, 37.25043]}, "properties": {"id": "sxC9hyftQo1RbjLq3ZW_IvHrKj8=", "ref": "342", "@spider": "innout", "addr:full": "5590 Cottle Road", "addr:city": "San Jose ", "addr:state": "CA", "addr:postcode": "95123", "name": "San Jose (Cottle Road)", "website": "http://locations.in-n-out.com/342", "brand": "In-N-Out Burger", "brand:wikidata": "Q1205312", "marker-color": "rgb(240,59,32)", "marker-size": "small"}}, {"type": "Feature", "geometry": {"type": "Point", "coordinates": [-121.85943, 37.24904]}, "properties": {"id": "WESIO880tWpoqRDvxFqsb3AyR5U=", "ref": "142", "@spider": "innout", "addr:full": "5611 Santa Teresa", "addr:city": "San Jose", "addr:state": "CA", "addr:postcode": "95123", "name": "San Jose (Santa Teresa Blvd.)", "website": "http://locations.in-n-out.com/142", "brand": "In-N-Out Burger", "brand:wikidata": "Q1205312", "marker-color": "rgb(240,59,32)", "marker-size": "small"}}, {"type": "Feature", "geometry": {"type": "Point", "coordinates": [-121.92238, 37.42629]}, "properties": {"id": "L-LQJbWtXrZO5HV2En72aInrOlM=", "ref": "115", "@spider": "innout", "addr:full": "50 Ranch Drive", "addr:city": "Milpitas", "addr:state": "CA", "addr:postcode": "95035", "name": "Milpitas", "website": "http://locations.in-n-out.com/115", "brand": "In-N-Out Burger", "brand:wikidata": "Q1205312", "marker-color": "rgb(240,59,32)", "marker-size": "small"}}, {"type": "Feature", "geometry": {"type": "Point", "coordinates": [-121.92187, 37.3503]}, "properties": {"id": "_ATB09YXZaNDuoNGy82QsOmEZiw=", "ref": "240", "@spider": "innout", "addr:full": "550 Newhall Drive", "addr:city": "San Jose", "addr:state": "CA", "addr:postcode": "95110", "name": "San Jose", "website": "http://locations.in-n-out.com/240", "brand": "In-N-Out Burger", "brand:wikidata": "Q1205312", "marker-color": "rgb(240,59,32)", "marker-size": "small"}}, {"type": "Feature", "geometry": {"type": "Point", "coordinates": [-119.29744, 36.3569]}, "properties": {"id": "aZQfnojjp_HTQHA0LhusVfDVtGQ=", "ref": "368", "@spider": "innout", "addr:full": "506 W. Riggin Ave.", "addr:city": "Visalia", "addr:state": "CA", "addr:postcode": "93291", "name": "Visalia", "website": "http://locations.in-n-out.com/368", "brand": "In-N-Out Burger", "brand:wikidata": "Q1205312", "marker-color": "rgb(255,255,178)", "marker-size": "small"}}, {"type": "Feature", "geometry": {"type": "Point", "coordinates": [-119.31423, 36.31346]}, "properties": {"id": "Nd__zKKSdzAo8havS9g67XYNkCA=", "ref": "106", "@spider": "innout", "addr:full": "1933 S. Mooney Blvd.", "addr:city": "Visalia", "addr:state": "CA", "addr:postcode": "93277", "name": "Visalia", "website": "http://locations.in-n-out.com/106", "brand": "In-N-Out Burger", "brand:wikidata": "Q1205312", "marker-color": "rgb(255,255,178)", "marker-size": "small"}}, {"type": "Feature", "geometry": {"type": "Point", "coordinates": [-119.32403, 36.22548]}, "properties": {"id": "vXAY1kh4GvqShtusOQ0jSD1lv0M=", "ref": "367", "@spider": "innout", "addr:full": "1591 E. Prosperity Ave. ", "addr:city": "Tulare", "addr:state": "CA", "addr:postcode": "93274", "name": "Tulare", "website": "http://locations.in-n-out.com/367", "brand": "In-N-Out Burger", "brand:wikidata": "Q1205312", "marker-color": "rgb(255,255,178)", "marker-size": "small"}}, {"type": "Feature", "geometry": {"type": "Point", "coordinates": [-119.70056, 36.83692]}, "properties": {"id": "yyi_6wAraVlwF8YS7fRx4rC2KTU=", "ref": "220", "@spider": "innout", "addr:full": "382 N. Clovis Ave.", "addr:city": "Clovis", "addr:state": "CA", "addr:postcode": "93612", "name": "Clovis", "website": "http://locations.in-n-out.com/220", "brand": "In-N-Out Burger", "brand:wikidata": "Q1205312", "marker-color": "rgb(255,255,178)", "marker-size": "small"}}, {"type": "Feature", "geometry": {"type": "Point", "coordinates": [-119.7904, 36.85229]}, "properties": {"id": "MGHqLCx_YMMRvLJCaCp84OjA-qk=", "ref": "173", "@spider": "innout", "addr:full": "8010 N. Blackstone", "addr:city": "Fresno", "addr:state": "CA", "addr:postcode": "93720", "name": "Fresno (Blackstone & Nees)", "website": "http://locations.in-n-out.com/173", "brand": "In-N-Out Burger", "brand:wikidata": "Q1205312", "marker-color": "rgb(255,255,178)", "marker-size": "small"}}, {"type": "Feature", "geometry": {"type": "Point", "coordinates": [-120.83314, 38.72039]}, "properties": {"id": "W5KAwP-xKBSRJVEtm6j8ZZCPLYs=", "ref": "139", "@spider": "innout", "addr:full": "3055 Forni Road", "addr:city": "Placerville", "addr:state": "CA", "addr:postcode": "95667", "name": "Placerville", "website": "http://locations.in-n-out.com/139", "brand": "In-N-Out Burger", "brand:wikidata": "Q1205312", "marker-color": "rgb(255,255,178)", "marker-size": "small"}}, {"type": "Feature", "geometry": {"type": "Point", "coordinates": [-121.07483, 38.90133]}, "properties": {"id": "b0gx8MDHe1bprt1uK6Gp-zuiGd8=", "ref": "109", "@spider": "innout", "addr:full": "130 Grass Valley Hwy.", "addr:city": "Auburn", "addr:state": "CA", "addr:postcode": "95603", "name": "Auburn", "website": "http://locations.in-n-out.com/109", "brand": "In-N-Out Burger", "brand:wikidata": "Q1205312", "marker-color": "rgb(255,255,178)", "marker-size": "small"}}, {"type": "Feature", "geometry": {"type": "Point", "coordinates": [-121.11442, 38.64672]}, "properties": {"id": "Rj9WPPn43SkOJp4NOTQwKDPEuhE=", "ref": "229", "@spider": "innout", "addr:full": "225 Placerville Rd.", "addr:city": "Folsom", "addr:state": "CA", "addr:postcode": "95630", "name": "Folsom", "website": "http://locations.in-n-out.com/229", "brand": "In-N-Out Burger", "brand:wikidata": "Q1205312", "marker-color": "rgb(255,255,178)", "marker-size": "small"}}, {"type": "Feature", "geometry": {"type": "Point", "coordinates": [-121.20451, 38.80166]}, "properties": {"id": "FolAx448mYfNQh76z_nyP101_9Q=", "ref": "308", "@spider": "innout", "addr:full": "5490 Crossings Dr.", "addr:city": "Rocklin", "addr:state": "CA", "addr:postcode": "95677", "name": "Rocklin", "website": "http://locations.in-n-out.com/308", "brand": "In-N-Out Burger", "brand:wikidata": "Q1205312", "marker-color": "rgb(255,255,178)", "marker-size": "small"}}, {"type": "Feature", "geometry": {"type": "Point", "coordinates": [-121.25955, 38.75825]}, "properties": {"id": "OYFVs8eB3L6LK5vM2t5wt4jMNRY=", "ref": "132", "@spider": "innout", "addr:full": "1803 Taylor", "addr:city": "Roseville", "addr:state": "CA", "addr:postcode": "95661", "name": "Roseville (Taylor Rd.)", "website": "http://locations.in-n-out.com/132", "brand": "In-N-Out Burger", "brand:wikidata": "Q1205312", "marker-color": "rgb(255,255,178)", "marker-size": "small"}}, {"type": "Feature", "geometry": {"type": "Point", "coordinates": [-121.28319, 38.78966]}, "properties": {"id": "oWR154XIQIBW9N41IhrTKrrWYhw=", "ref": "183", "@spider": "innout", "addr:full": "10309 Fairway Dr.", "addr:city": "Roseville", "addr:state": "CA", "addr:postcode": "95678", "name": "Roseville (Fairway Dr.)", "website": "http://locations.in-n-out.com/183", "brand": "In-N-Out Burger", "brand:wikidata": "Q1205312", "marker-color": "rgb(255,255,178)", "marker-size": "small"}}, {"type": "Feature", "geometry": {"type": "Point", "coordinates": [-121.26897, 38.61461]}, "properties": {"id": "raFMe2qa9xgh1F-FMIIVmMe657M=", "ref": "122", "@spider": "innout", "addr:full": "2475 Sunrise Blvd", "addr:city": "Rancho Cordova", "addr:state": "CA", "addr:postcode": "95670", "name": "Rancho Cordova", "website": "http://locations.in-n-out.com/122", "brand": "In-N-Out Burger", "brand:wikidata": "Q1205312", "marker-color": "rgb(255,255,178)", "marker-size": "small"}}, {"type": "Feature", "geometry": {"type": "Point", "coordinates": [-121.304, 38.87275]}, "properties": {"id": "Nf1pkVdXHFYafE3MWy4rcaSvD1Y=", "ref": "324", "@spider": "innout", "addr:full": "850 Groveland Lane", "addr:city": "Lincoln", "addr:state": "CA", "addr:postcode": "95648", "name": "Lincoln", "website": "http://locations.in-n-out.com/324", "brand": "In-N-Out Burger", "brand:wikidata": "Q1205312", "marker-color": "rgb(255,255,178)", "marker-size": "small"}}, {"type": "Feature", "geometry": {"type": "Point", "coordinates": [-121.3571, 38.66041]}, "properties": {"id": "arDceqPtauQBuKUP2vode4X-5RE=", "ref": "217", "@spider": "innout", "addr:full": "4600 Madison Ave.", "addr:city": "Sacramento", "addr:state": "CA", "addr:postcode": "95841", "name": "Sacramento (Madison)", "website": "http://locations.in-n-out.com/217", "brand": "In-N-Out Burger", "brand:wikidata": "Q1205312", "marker-color": "rgb(255,255,178)", "marker-size": "small"}}, {"type": "Feature", "geometry": {"type": "Point", "coordinates": [-119.75259, 39.53557]}, "properties": {"id": "6Nypm-lFIq9dlRHf2_rPZbg7JX0=", "ref": "188", "@spider": "innout", "addr:full": "280 Pyramid Way", "addr:city": "Sparks", "addr:state": "NV", "addr:postcode": "89431", "name": "Sparks", "website": "http://locations.in-n-out.com/188", "brand": "In-N-Out Burger", "brand:wikidata": "Q1205312", "marker-color": "rgb(253,141,60)", "marker-size": "small"}}, {"type": "Feature", "geometry": {"type": "Point", "coordinates": [-119.77732, 39.45201]}, "properties": {"id": "5WTEQwG7DWaVey6AoYrFRjI1P0w=", "ref": "186", "@spider": "innout", "addr:full": "8215 S. Virginia St.", "addr:city": "Reno", "addr:state": "NV", "addr:postcode": "89511", "name": "Reno", "website": "http://locations.in-n-out.com/186", "brand": "In-N-Out Burger", "brand:wikidata": "Q1205312", "marker-color": "rgb(253,141,60)", "marker-size": "small"}}, {"type": "Feature", "geometry": {"type": "Point", "coordinates": [-119.77493, 39.10902]}, "properties": {"id": "81U8VTuWSokbeLoGQ_Oq-sE6Reg=", "ref": "187", "@spider": "innout", "addr:full": "957 Topsy Lane", "addr:city": "Carson City", "addr:state": "NV", "addr:postcode": "89705", "name": "Carson Valley", "website": "http://locations.in-n-out.com/187", "brand": "In-N-Out Burger", "brand:wikidata": "Q1205312", "marker-color": "rgb(253,141,60)", "marker-size": "small"}}, {"type": "Feature", "geometry": {"type": "Point", "coordinates": [-119.82805, 39.52879]}, "properties": {"id": "XqMNIBaqTiKGH4GLBqk_7ZwqItg=", "ref": "377", "@spider": "innout", "addr:full": "915 W. 5th Street ", "addr:city": "Reno", "addr:state": "NV", "addr:postcode": "89503", "name": "Reno II", "website": "http://locations.in-n-out.com/377", "brand": "In-N-Out Burger", "brand:wikidata": "Q1205312", "marker-color": "rgb(253,141,60)", "marker-size": "small"}}, {"type": "Feature", "geometry": {"type": "Point", "coordinates": [-119.95924, 35.98616]}, "properties": {"id": "Y0xdzqxQm3yxgQp-FUvxe3cfnO8=", "ref": "95", "@spider": "innout", "addr:full": "33464 Bernard Dr.", "addr:city": "Kettleman City", "addr:state": "CA", "addr:postcode": "93239", "name": "Kettleman City", "website": "http://locations.in-n-out.com/95", "brand": "In-N-Out Burger", "brand:wikidata": "Q1205312", "marker-color": "rgb(253,141,60)", "marker-size": "small"}}, {"type": "Feature", "geometry": {"type": "Point", "coordinates": [-121.0146, 37.101]}, "properties": {"id": "6BSJ99aA31SyAT3uwqE9hj08-FA=", "ref": "267", "@spider": "innout", "addr:full": "28900 Henry Miller Rd.", "addr:city": "Santa Nella", "addr:state": "CA", "addr:postcode": "95322", "name": "Santa Nella", "website": "http://locations.in-n-out.com/267", "brand": "In-N-Out Burger", "brand:wikidata": "Q1205312", "marker-color": "rgb(253,141,60)", "marker-size": "small"}}, {"type": "Feature", "geometry": {"type": "Point", "coordinates": [-120.6844, 35.49698]}, "properties": {"id": "ngo3aM3p-PPY4lGEb9eA6e3lLf4=", "ref": "98", "@spider": "innout", "addr:full": "6000 San Anselmo Rd.", "addr:city": "Atascadero", "addr:state": "CA", "addr:postcode": "93422", "name": "Atascadero", "website": "http://locations.in-n-out.com/98", "brand": "In-N-Out Burger", "brand:wikidata": "Q1205312", "marker-color": "rgb(253,141,60)", "marker-size": "small"}}, {"type": "Feature", "geometry": {"type": "Point", "coordinates": [-121.29806, 37.81143]}, "properties": {"id": "rMAWp3CqQ5jjQGWhcfdg4MbkHf4=", "ref": "346", "@spider": "innout", "addr:full": "16514 Golden Valley Parkway", "addr:city": "Lathrop ", "addr:state": "CA", "addr:postcode": "95330", "name": "Lathrop ", "website": "http://locations.in-n-out.com/346", "brand": "In-N-Out Burger", "brand:wikidata": "Q1205312", "marker-color": "rgb(253,141,60)", "marker-size": "small"}}, {"type": "Feature", "geometry": {"type": "Point", "coordinates": [-121.43377, 37.76184]}, "properties": {"id": "x3ZeKn6E6mS-YWkic9bYrPMtcEQ=", "ref": "96", "@spider": "innout", "addr:full": "575 Clover Road", "addr:city": "Tracy", "addr:state": "CA", "addr:postcode": "95376", "name": "Tracy", "website": "http://locations.in-n-out.com/96", "brand": "In-N-Out Burger", "brand:wikidata": "Q1205312", "marker-color": "rgb(253,141,60)", "marker-size": "small"}}, {"type": "Feature", "geometry": {"type": "Point", "coordinates": [-121.74774, 37.96115]}, "properties": {"id": "ayAiuSGupfl3l3zU4Ky6Anygkys=", "ref": "189", "@spider": "innout", "addr:full": "5581 Lone Tree Way", "addr:city": "Brentwood", "addr:state": "CA", "addr:postcode": "94513", "name": "Brentwood", "website": "http://locations.in-n-out.com/189", "brand": "In-N-Out Burger", "brand:wikidata": "Q1205312", "marker-color": "rgb(253,141,60)", "marker-size": "small"}}, {"type": "Feature", "geometry": {"type": "Point", "coordinates": [-121.77326, 37.69939]}, "properties": {"id": "tHwhod-Jt_6d8i33I-Zd2cANChA=", "ref": "149", "@spider": "innout", "addr:full": "1881 N. Livermore Ave.", "addr:city": "Livermore", "addr:state": "CA", "addr:postcode": "94550", "name": "Livermore", "website": "http://locations.in-n-out.com/149", "brand": "In-N-Out Burger", "brand:wikidata": "Q1205312", "marker-color": "rgb(253,141,60)", "marker-size": "small"}}, {"type": "Feature", "geometry": {"type": "Point", "coordinates": [-121.83634, 38.00537]}, "properties": {"id": "ryD8dwdWVLqfzS6sA4Y13lQpNOs=", "ref": "168", "@spider": "innout", "addr:full": "4550 Delta Gateway Blvd.", "addr:city": "Pittsburg", "addr:state": "CA", "addr:postcode": "94565", "name": "Pittsburg", "website": "http://locations.in-n-out.com/168", "brand": "In-N-Out Burger", "brand:wikidata": "Q1205312", "marker-color": "rgb(253,141,60)", "marker-size": "small"}}, {"type": "Feature", "geometry": {"type": "Point", "coordinates": [-121.96114, 38.36646]}, "properties": {"id": "OyilFzvG8W40PVdznxynJokZjx0=", "ref": "103", "@spider": "innout", "addr:full": "170 Nut Tree Pkwy.", "addr:city": "Vacaville", "addr:state": "CA", "addr:postcode": "95687", "name": "Vacaville", "website": "http://locations.in-n-out.com/103", "brand": "In-N-Out Burger", "brand:wikidata": "Q1205312", "marker-color": "rgb(253,141,60)", "marker-size": "small"}}, {"type": "Feature", "geometry": {"type": "Point", "coordinates": [-121.90763, 37.70022]}, "properties": {"id": "frWNn4rtVojLdi0FskmNViWzcUc=", "ref": "124", "@spider": "innout", "addr:full": "6015 Johnson Dr.", "addr:city": "Pleasanton", "addr:state": "CA", "addr:postcode": "94588", "name": "Pleasanton", "website": "http://locations.in-n-out.com/124", "brand": "In-N-Out Burger", "brand:wikidata": "Q1205312", "marker-color": "rgb(253,141,60)", "marker-size": "small"}}, {"type": "Feature", "geometry": {"type": "Point", "coordinates": [-121.97702, 37.77914]}, "properties": {"id": "_m5plaCzloHhxABECx_00m39RlI=", "ref": "118", "@spider": "innout", "addr:full": "2270 San Ramon Valley", "addr:city": "San Ramon", "addr:state": "CA", "addr:postcode": "94583", "name": "San Ramon", "website": "http://locations.in-n-out.com/118", "brand": "In-N-Out Burger", "brand:wikidata": "Q1205312", "marker-color": "rgb(253,141,60)", "marker-size": "small"}}, {"type": "Feature", "geometry": {"type": "Point", "coordinates": [-122.0647, 38.25727]}, "properties": {"id": "W8JSWbWp9sZvXdYkQpGOpAgrkMQ=", "ref": "125", "@spider": "innout", "addr:full": "1364 Holiday Lane", "addr:city": "Fairfield", "addr:state": "CA", "addr:postcode": "94534", "name": "Fairfield", "website": "http://locations.in-n-out.com/125", "brand": "In-N-Out Burger", "brand:wikidata": "Q1205312", "marker-color": "rgb(253,141,60)", "marker-size": "small"}}, {"type": "Feature", "geometry": {"type": "Point", "coordinates": [-121.97399, 37.50421]}, "properties": {"id": "pGyIJoB8CsSbZDuHt2w8RGI05XE=", "ref": "194", "@spider": "innout", "addr:full": "43349 Pacific Commons Blvd. ", "addr:city": "Fremont", "addr:state": "CA", "addr:postcode": "94538", "name": "Fremont", "website": "http://locations.in-n-out.com/194", "brand": "In-N-Out Burger", "brand:wikidata": "Q1205312", "marker-color": "rgb(253,141,60)", "marker-size": "small"}}, {"type": "Feature", "geometry": {"type": "Point", "coordinates": [-122.06565, 37.97596]}, "properties": {"id": "1ehNv6-1RUixPTdQBVVIARs3XTM=", "ref": "274", "@spider": "innout", "addr:full": "570 Contra Costa Blvd.", "addr:city": "Pleasant Hill", "addr:state": "CA", "addr:postcode": "94523", "name": "Pleasant Hill", "website": "http://locations.in-n-out.com/274", "brand": "In-N-Out Burger", "brand:wikidata": "Q1205312", "marker-color": "rgb(253,141,60)", "marker-size": "small"}}, {"type": "Feature", "geometry": {"type": "Point", "coordinates": [-121.98201, 37.388]}, "properties": {"id": "TD6LfsGF2HWm79-hOGpnEqnRmag=", "ref": "176", "@spider": "innout", "addr:full": "3001 Mission College", "addr:city": "Santa Clara", "addr:state": "CA", "addr:postcode": "95054", "name": "Santa Clara", "website": "http://locations.in-n-out.com/176", "brand": "In-N-Out Burger", "brand:wikidata": "Q1205312", "marker-color": "rgb(253,141,60)", "marker-size": "small"}}, {"type": "Feature", "geometry": {"type": "Point", "coordinates": [-121.85847, 36.60592]}, "properties": {"id": "UW8GY8-E5t1mkW8H5evOWnir6Xk=", "ref": "312", "@spider": "innout", "addr:full": "1350 Del Monte Blvd.", "addr:city": "Seaside", "addr:state": "CA", "addr:postcode": "93955", "name": "Seaside", "website": "http://locations.in-n-out.com/312", "brand": "In-N-Out Burger", "brand:wikidata": "Q1205312", "marker-color": "rgb(253,141,60)", "marker-size": "small"}}, {"type": "Feature", "geometry": {"type": "Point", "coordinates": [-122.06561, 37.59927]}, "properties": {"id": "ERxeyfNFy80snxEw5hdRsTC0kWg=", "ref": "156", "@spider": "innout", "addr:full": "32060 Union Landing", "addr:city": "Union City", "addr:state": "CA", "addr:postcode": "94587", "name": "Union City", "website": "http://locations.in-n-out.com/156", "brand": "In-N-Out Burger", "brand:wikidata": "Q1205312", "marker-color": "rgb(253,141,60)", "marker-size": "small"}}, {"type": "Feature", "geometry": {"type": "Point", "coordinates": [-122.02497, 37.36097]}, "properties": {"id": "VMW9JyrKhIJp2Kg6LLY0ePCNGiU=", "ref": "130", "@spider": "innout", "addr:full": "604 E. El Camino Real", "addr:city": "Sunnyvale", "addr:state": "CA", "addr:postcode": "94087", "name": "Sunnyvale", "website": "http://locations.in-n-out.com/130", "brand": "In-N-Out Burger", "brand:wikidata": "Q1205312", "marker-color": "rgb(253,141,60)", "marker-size": "small"}}, {"type": "Feature", "geometry": {"type": "Point", "coordinates": [-122.07402, 37.38038]}, "properties": {"id": "GhfMV8QCMlrPDJa3qUWFxsUU514=", "ref": "152", "@spider": "innout", "addr:full": "53 W. El Camino Real", "addr:city": "Mountain View", "addr:state": "CA", "addr:postcode": "94040", "name": "Mountain View (El Camino Real & Grant)", "website": "http://locations.in-n-out.com/152", "brand": "In-N-Out Burger", "brand:wikidata": "Q1205312", "marker-color": "rgb(253,141,60)", "marker-size": "small"}}, {"type": "Feature", "geometry": {"type": "Point", "coordinates": [-122.13113, 37.68697]}, "properties": {"id": "YLPvLTtX81BWWS5EQrjZ7kXzhfw=", "ref": "222", "@spider": "innout", "addr:full": "15575 Hesperian Blvd.", "addr:city": "San Leandro", "addr:state": "CA", "addr:postcode": "94579", "name": "San Leandro", "website": "http://locations.in-n-out.com/222", "brand": "In-N-Out Burger", "brand:wikidata": "Q1205312", "marker-color": "rgb(253,141,60)", "marker-size": "small"}}, {"type": "Feature", "geometry": {"type": "Point", "coordinates": [-122.09334, 37.42096]}, "properties": {"id": "gWSuSj14pjEYq4KoV7gMATYABt8=", "ref": "129", "@spider": "innout", "addr:full": "1159 N. Rengstorff", "addr:city": "Mountain View", "addr:state": "CA", "addr:postcode": "94043", "name": "Mountain View (Rengstorff)", "website": "http://locations.in-n-out.com/129", "brand": "In-N-Out Burger", "brand:wikidata": "Q1205312", "marker-color": "rgb(253,141,60)", "marker-size": "small"}}, {"type": "Feature", "geometry": {"type": "Point", "coordinates": [-122.22787, 38.12479]}, "properties": {"id": "ebnz2pFjwGXLI8wxDaRuW3FPL0w=", "ref": "339", "@spider": "innout", "addr:full": "720 Admiral Callaghan Ln.", "addr:city": "Vallejo", "addr:state": "CA", "addr:postcode": "94591", "name": "Vallejo", "website": "http://locations.in-n-out.com/339", "brand": "In-N-Out Burger", "brand:wikidata": "Q1205312", "marker-color": "rgb(253,141,60)", "marker-size": "small"}}, {"type": "Feature", "geometry": {"type": "Point", "coordinates": [-122.27624, 38.28112]}, "properties": {"id": "y-3jXukw3FfpznS5PeHsMsM6Og8=", "ref": "126", "@spider": "innout", "addr:full": "820 Imola Ave.", "addr:city": "Napa", "addr:state": "CA", "addr:postcode": "94559", "name": "Napa", "website": "http://locations.in-n-out.com/126", "brand": "In-N-Out Burger", "brand:wikidata": "Q1205312", "marker-color": "rgb(253,141,60)", "marker-size": "small"}}, {"type": "Feature", "geometry": {"type": "Point", "coordinates": [-122.1984, 37.74037]}, "properties": {"id": "2hXweOCBg_ePoVZF215oYEH887s=", "ref": "193", "@spider": "innout", "addr:full": "8300 Oakport St.", "addr:city": "Oakland", "addr:state": "CA", "addr:postcode": "94621", "name": "Oakland", "website": "http://locations.in-n-out.com/193", "brand": "In-N-Out Burger", "brand:wikidata": "Q1205312", "marker-color": "rgb(253,141,60)", "marker-size": "small"}}, {"type": "Feature", "geometry": {"type": "Point", "coordinates": [-122.27728, 37.78372]}, "properties": {"id": "CU86HOff5lD5Ovdmefvee7Ez8ec=", "ref": "303", "@spider": "innout", "addr:full": "555 Willie Stargell Ave.", "addr:city": "Alameda", "addr:state": "CA", "addr:postcode": "94501", "name": "Alameda", "website": "http://locations.in-n-out.com/303", "brand": "In-N-Out Burger", "brand:wikidata": "Q1205312", "marker-color": "rgb(253,141,60)", "marker-size": "small"}}, {"type": "Feature", "geometry": {"type": "Point", "coordinates": [-122.31071, 37.98907]}, "properties": {"id": "QAPKpl4GhRMl76CsHjaqMME6K6Q=", "ref": "120", "@spider": "innout", "addr:full": "1417 Fitzgerald Dr.", "addr:city": "Pinole", "addr:state": "CA", "addr:postcode": "94564", "name": "Pinole", "website": "http://locations.in-n-out.com/120", "brand": "In-N-Out Burger", "brand:wikidata": "Q1205312", "marker-color": "rgb(253,141,60)", "marker-size": "small"}}, {"type": "Feature", "geometry": {"type": "Point", "coordinates": [-122.22785, 37.49059]}, "properties": {"id": "arYmT9tCRYaSeN4a5aSz4qtXNQI=", "ref": "246", "@spider": "innout", "addr:full": "949 Veterans Blvd", "addr:city": "Redwood City", "addr:state": "CA", "addr:postcode": "94063", "name": "Redwood City", "website": "http://locations.in-n-out.com/246", "brand": "In-N-Out Burger", "brand:wikidata": "Q1205312", "marker-color": "rgb(253,141,60)", "marker-size": "small"}}, {"type": "Feature", "geometry": {"type": "Point", "coordinates": [-122.25859, 37.51288]}, "properties": {"id": "-UnX1qpZXMtwNqPd0grqr-pth-c=", "ref": "257", "@spider": "innout", "addr:full": "445 Industrial Rd.", "addr:city": "San Carlos", "addr:state": "CA", "addr:postcode": "94070", "name": "San Carlos", "website": "http://locations.in-n-out.com/257", "brand": "In-N-Out Burger", "brand:wikidata": "Q1205312", "marker-color": "rgb(253,141,60)", "marker-size": "small"}}, {"type": "Feature", "geometry": {"type": "Point", "coordinates": [-122.38243, 37.60082]}, "properties": {"id": "7ohE_5ojFLUxd5WxU-Sx4Xu6O1A=", "ref": "190", "@spider": "innout", "addr:full": "11 Rollins Rd.", "addr:city": "Millbrae", "addr:state": "CA", "addr:postcode": "94030", "name": "Millbrae", "website": "http://locations.in-n-out.com/190", "brand": "In-N-Out Burger", "brand:wikidata": "Q1205312", "marker-color": "rgb(253,141,60)", "marker-size": "small"}}, {"type": "Feature", "geometry": {"type": "Point", "coordinates": [-122.47202, 37.68821]}, "properties": {"id": "lddCghp_FOE5Y-VWInLSbG8zFqo=", "ref": "159", "@spider": "innout", "addr:full": "260 Washington St.", "addr:city": "Daly City", "addr:state": "CA", "addr:postcode": "94015", "name": "Daly City", "website": "http://locations.in-n-out.com/159", "brand": "In-N-Out Burger", "brand:wikidata": "Q1205312", "marker-color": "rgb(253,141,60)", "marker-size": "small"}}, {"type": "Feature", "geometry": {"type": "Point", "coordinates": [-122.46904, 37.66603]}, "properties": {"id": "YpZDtpbBczlFxS2u29uYui79MlE=", "ref": "326", "@spider": "innout", "addr:full": "372 Gellert Blvd.", "addr:city": "Daly City", "addr:state": "CA", "addr:postcode": "94015", "name": "Daly City", "website": "http://locations.in-n-out.com/326", "brand": "In-N-Out Burger", "brand:wikidata": "Q1205312", "marker-color": "rgb(253,141,60)", "marker-size": "small"}}, {"type": "Feature", "geometry": {"type": "Point", "coordinates": [-122.5155, 37.89661]}, "properties": {"id": "FcEE9PJE3oLs9xumMj27-vo3Vv4=", "ref": "141", "@spider": "innout", "addr:full": "798 Redwood Hwy.", "addr:city": "Mill Valley", "addr:state": "CA", "addr:postcode": "94941", "name": "Mill Valley", "website": "http://locations.in-n-out.com/141", "brand": "In-N-Out Burger", "brand:wikidata": "Q1205312", "marker-color": "rgb(253,141,60)", "marker-size": "small"}}, {"type": "Feature", "geometry": {"type": "Point", "coordinates": [-122.55495, 38.0897]}, "properties": {"id": "qDFBV-M04b_rouFS2qcQ6SMyyBg=", "ref": "288", "@spider": "innout", "addr:full": "216 Vintage Way", "addr:city": "Novato", "addr:state": "CA", "addr:postcode": "94945", "name": "Novato", "website": "http://locations.in-n-out.com/288", "brand": "In-N-Out Burger", "brand:wikidata": "Q1205312", "marker-color": "rgb(253,141,60)", "marker-size": "small"}}, {"type": "Feature", "geometry": {"type": "Point", "coordinates": [-122.62086, 38.23457]}, "properties": {"id": "ZwPifEWxrabmkFRpCxzdOJH233U=", "ref": "202", "@spider": "innout", "addr:full": "1010 Lakeville Hwy.", "addr:city": "Petaluma", "addr:state": "CA", "addr:postcode": "94952", "name": "Petaluma", "website": "http://locations.in-n-out.com/202", "brand": "In-N-Out Burger", "brand:wikidata": "Q1205312", "marker-color": "rgb(253,141,60)", "marker-size": "small"}}, {"type": "Feature", "geometry": {"type": "Point", "coordinates": [-122.72527, 38.46063]}, "properties": {"id": "HHdHtDoelFPugklRK48AtBx82Us=", "ref": "249", "@spider": "innout", "addr:full": "2131 County Center Drive", "addr:city": "Santa Rosa", "addr:state": "CA", "addr:postcode": "95403", "name": "Santa Rosa", "website": "http://locations.in-n-out.com/249", "brand": "In-N-Out Burger", "brand:wikidata": "Q1205312", "marker-color": "rgb(253,141,60)", "marker-size": "small"}}, {"type": "Feature", "geometry": {"type": "Point", "coordinates": [-122.71419, 38.36124]}, "properties": {"id": "UqKwBqpmSeOdTpslyBx77FUiUIc=", "ref": "113", "@spider": "innout", "addr:full": "5145 Redwood Dr.", "addr:city": "Rohnert Park", "addr:state": "CA", "addr:postcode": "94928", "name": "Rohnert Park", "website": "http://locations.in-n-out.com/113", "brand": "In-N-Out Burger", "brand:wikidata": "Q1205312", "marker-color": "rgb(253,141,60)", "marker-size": "small"}}, {"type": "Feature", "geometry": {"type": "Point", "coordinates": [-123.2109, 39.16879]}, "properties": {"id": "dzDXK2SRSp-AjNP-hAFXXLu5s5E=", "ref": "321", "@spider": "innout", "addr:full": "1351 N. State St.", "addr:city": "Ukiah", "addr:state": "CA", "addr:postcode": "95482", "name": "Ukiah", "website": "http://locations.in-n-out.com/321", "brand": "In-N-Out Burger", "brand:wikidata": "Q1205312", "marker-color": "rgb(253,141,60)", "marker-size": "small"}}, {"type": "Feature", "geometry": {"type": "Point", "coordinates": [-124.18331, 40.78433]}, "properties": {"id": "vSuYDHeJsWCADT3Vk7lxAA16Tas=", "ref": "354", "@spider": "innout", "addr:full": "2616 Broadway Street ", "addr:city": "Eureka ", "addr:state": "CA", "addr:postcode": "95501", "name": "Eureka ", "website": "http://locations.in-n-out.com/354", "brand": "In-N-Out Burger", "brand:wikidata": "Q1205312", "marker-color": "rgb(253,141,60)", "marker-size": "small"}}, {"type": "Feature", "geometry": {"type": "Point", "coordinates": [-117.1019, 33.11518]}, "properties": {"id": "jPcOzoaZCdyK8tGwckSGijxe_rw=", "ref": "247", "@spider": "innout", "addr:full": "1260 W Valley Parkway", "addr:city": "Escondido", "addr:state": "CA", "addr:postcode": "92029", "name": "Escondido", "website": "http://locations.in-n-out.com/247", "brand": "In-N-Out Burger", "brand:wikidata": "Q1205312", "marker-color": "rgb(254,204,92)", "marker-size": "small"}}, {"type": "Feature", "geometry": {"type": "Point", "coordinates": [-116.96289, 32.80802]}, "properties": {"id": "dQvuJQf9n6KWx3e9MZLp3YWeTw0=", "ref": "73", "@spider": "innout", "addr:full": "100 Fletcher Parkway", "addr:city": "El Cajon", "addr:state": "CA", "addr:postcode": "92020", "name": "El Cajon", "website": "http://locations.in-n-out.com/73", "brand": "In-N-Out Burger", "brand:wikidata": "Q1205312", "marker-color": "rgb(254,204,92)", "marker-size": "small"}}, {"type": "Feature", "geometry": {"type": "Point", "coordinates": [-116.99388, 32.83901]}, "properties": {"id": "kshNQ4-ByR2V4MNjK2D3LqQnuVc=", "ref": "279", "@spider": "innout", "addr:full": "9414 Mission Gorge Rd.", "addr:city": "Santee", "addr:state": "CA", "addr:postcode": "92071", "name": "Santee", "website": "http://locations.in-n-out.com/279", "brand": "In-N-Out Burger", "brand:wikidata": "Q1205312", "marker-color": "rgb(254,204,92)", "marker-size": "small"}}, {"type": "Feature", "geometry": {"type": "Point", "coordinates": [-117.04651, 32.93892]}, "properties": {"id": "s2g3o1XEWQmrPSipWo806gXW0pM=", "ref": "254", "@spider": "innout", "addr:full": "12890 Gregg Court", "addr:city": "Poway", "addr:state": "CA", "addr:postcode": "92064", "name": "Poway", "website": "http://locations.in-n-out.com/254", "brand": "In-N-Out Burger", "brand:wikidata": "Q1205312", "marker-color": "rgb(254,204,92)", "marker-size": "small"}}, {"type": "Feature", "geometry": {"type": "Point", "coordinates": [-117.07757, 32.98171]}, "properties": {"id": "AXn16V9AqWqK-Vfs6u_UapoQhro=", "ref": "87", "@spider": "innout", "addr:full": "11880 Carmel Mountain Rd.", "addr:city": "San Diego", "addr:state": "CA", "addr:postcode": "92128", "name": "Carmel Mountain", "website": "http://locations.in-n-out.com/87", "brand": "In-N-Out Burger", "brand:wikidata": "Q1205312", "marker-color": "rgb(254,204,92)", "marker-size": "small"}}, {"type": "Feature", "geometry": {"type": "Point", "coordinates": [-117.17717, 33.13718]}, "properties": {"id": "BX6vyuxW6db6M2VHYW8rtyJD934=", "ref": "185", "@spider": "innout", "addr:full": "583 Grand Ave.", "addr:city": "San Marcos", "addr:state": "CA", "addr:postcode": "92078", "name": "San Marcos", "website": "http://locations.in-n-out.com/185", "brand": "In-N-Out Burger", "brand:wikidata": "Q1205312", "marker-color": "rgb(254,204,92)", "marker-size": "small"}}, {"type": "Feature", "geometry": {"type": "Point", "coordinates": [-116.96204, 32.62049]}, "properties": {"id": "yW0wcjMDzhOW-DNLlW_rnda9vsc=", "ref": "227", "@spider": "innout", "addr:full": "1725 Eastlake Pkwy.", "addr:city": "Chula Vista", "addr:state": "CA", "addr:postcode": "91915", "name": "Chula Vista", "website": "http://locations.in-n-out.com/227", "brand": "In-N-Out Burger", "brand:wikidata": "Q1205312", "marker-color": "rgb(254,204,92)", "marker-size": "small"}}, {"type": "Feature", "geometry": {"type": "Point", "coordinates": [-117.12193, 32.91764]}, "properties": {"id": "gBdSNKEqta70JS5Nw3pfqktyb6k=", "ref": "68", "@spider": "innout", "addr:full": "9410 Mira Mesa Blvd.", "addr:city": "San Diego", "addr:state": "CA", "addr:postcode": "92126", "name": "Mira Mesa", "website": "http://locations.in-n-out.com/68", "brand": "In-N-Out Burger", "brand:wikidata": "Q1205312", "marker-color": "rgb(254,204,92)", "marker-size": "small"}}, {"type": "Feature", "geometry": {"type": "Point", "coordinates": [-117.04325, 32.74421]}, "properties": {"id": "zwXW19SGQDKpuzkckcu-5MSmhA8=", "ref": "57", "@spider": "innout", "addr:full": "7160 Broadway", "addr:city": "Lemon Grove", "addr:state": "CA", "addr:postcode": "91945", "name": "Lemon Grove", "website": "http://locations.in-n-out.com/57", "brand": "In-N-Out Burger", "brand:wikidata": "Q1205312", "marker-color": "rgb(254,204,92)", "marker-size": "small"}}, {"type": "Feature", "geometry": {"type": "Point", "coordinates": [-117.29927, 33.23782]}, "properties": {"id": "62upuEIF8G9Nx-6jhCeIVD70U-w=", "ref": "162", "@spider": "innout", "addr:full": "4605 Frazee", "addr:city": "Oceanside", "addr:state": "CA", "addr:postcode": "92057", "name": "Oceanside", "website": "http://locations.in-n-out.com/162", "brand": "In-N-Out Burger", "brand:wikidata": "Q1205312", "marker-color": "rgb(254,204,92)", "marker-size": "small"}}, {"type": "Feature", "geometry": {"type": "Point", "coordinates": [-117.28496, 33.18455]}, "properties": {"id": "jSRXnSYlwZ7H2qS4aBiHCLdxfmE=", "ref": "61", "@spider": "innout", "addr:full": "2010 Hacienda Dr.", "addr:city": "Vista", "addr:state": "CA", "addr:postcode": "92081", "name": "Vista", "website": "http://locations.in-n-out.com/61", "brand": "In-N-Out Burger", "brand:wikidata": "Q1205312", "marker-color": "rgb(254,204,92)", "marker-size": "small"}}, {"type": "Feature", "geometry": {"type": "Point", "coordinates": [-117.10012, 32.79099]}, "properties": {"id": "Y5hrbWW5dbMPxdm994nl89x3bsg=", "ref": "375", "@spider": "innout", "addr:full": "10370 Friars Rd.", "addr:city": "San Diego ", "addr:state": "CA", "addr:postcode": "92120", "name": "San Diego", "website": "http://locations.in-n-out.com/375", "brand": "In-N-Out Burger", "brand:wikidata": "Q1205312", "marker-color": "rgb(254,204,92)", "marker-size": "small"}}, {"type": "Feature", "geometry": {"type": "Point", "coordinates": [-117.14869, 32.81967]}, "properties": {"id": "BCO6SyXKz_htTtjthWefU69zonc=", "ref": "71", "@spider": "innout", "addr:full": "4375 Kearny Mesa Rd.", "addr:city": "San Diego", "addr:state": "CA", "addr:postcode": "92111", "name": "Kearny Mesa", "website": "http://locations.in-n-out.com/71", "brand": "In-N-Out Burger", "brand:wikidata": "Q1205312", "marker-color": "rgb(254,204,92)", "marker-size": "small"}}, {"type": "Feature", "geometry": {"type": "Point", "coordinates": [-117.14345, 32.76952]}, "properties": {"id": "e_1G1oeAta0OTmgjQU5PXkgyF4M=", "ref": "128", "@spider": "innout", "addr:full": "2005 Camino Del Este", "addr:city": "San Diego", "addr:state": "CA", "addr:postcode": "92108", "name": "Mission Valley", "website": "http://locations.in-n-out.com/128", "brand": "In-N-Out Burger", "brand:wikidata": "Q1205312", "marker-color": "rgb(254,204,92)", "marker-size": "small"}}, {"type": "Feature", "geometry": {"type": "Point", "coordinates": [-117.28499, 33.04729]}, "properties": {"id": "CCfJ0oFjO0Qla6Tq2fG9i1b8_o0=", "ref": "295", "@spider": "innout", "addr:full": "130 Calle Magdalena", "addr:city": "Encinitas", "addr:state": "CA", "addr:postcode": "92024", "name": "Encinitas", "website": "http://locations.in-n-out.com/295", "brand": "In-N-Out Burger", "brand:wikidata": "Q1205312", "marker-color": "rgb(254,204,92)", "marker-size": "small"}}, {"type": "Feature", "geometry": {"type": "Point", "coordinates": [-117.32465, 33.12509]}, "properties": {"id": "shqTly6WE0Ln_rYm8uEeMJ5uK0w=", "ref": "89", "@spider": "innout", "addr:full": "5950 Avenida Encinas", "addr:city": "Carlsbad", "addr:state": "CA", "addr:postcode": "92008", "name": "Carlsbad", "website": "http://locations.in-n-out.com/89", "brand": "In-N-Out Burger", "brand:wikidata": "Q1205312", "marker-color": "rgb(254,204,92)", "marker-size": "small"}}, {"type": "Feature", "geometry": {"type": "Point", "coordinates": [-117.10659, 32.65966]}, "properties": {"id": "54gt9SfB95M8fBWA3lrsslmcSxo=", "ref": "70", "@spider": "innout", "addr:full": "500 Mile-Of Cars Way", "addr:city": "National City", "addr:state": "CA", "addr:postcode": "91950", "name": "National City", "website": "http://locations.in-n-out.com/70", "brand": "In-N-Out Burger", "brand:wikidata": "Q1205312", "marker-color": "rgb(254,204,92)", "marker-size": "small"}}, {"type": "Feature", "geometry": {"type": "Point", "coordinates": [-117.38399, 33.20394]}, "properties": {"id": "yBINQpfFEsHca3hU0u0dPfoJiPo=", "ref": "313", "@spider": "innout", "addr:full": "936 N. Coast Highway", "addr:city": "Oceanside", "addr:state": "CA", "addr:postcode": "92054", "name": "Oceanside", "website": "http://locations.in-n-out.com/313", "brand": "In-N-Out Burger", "brand:wikidata": "Q1205312", "marker-color": "rgb(254,204,92)", "marker-size": "small"}}, {"type": "Feature", "geometry": {"type": "Point", "coordinates": [-117.21887, 32.80896]}, "properties": {"id": "rNIXcLoD1TgbBrAhwQYfQDzdwQU=", "ref": "69", "@spider": "innout", "addr:full": "2910 Damon Ave.", "addr:city": "Pacific Beach", "addr:state": "CA", "addr:postcode": "92109", "name": "Pacific Beach", "website": "http://locations.in-n-out.com/69", "brand": "In-N-Out Burger", "brand:wikidata": "Q1205312", "marker-color": "rgb(254,204,92)", "marker-size": "small"}}, {"type": "Feature", "geometry": {"type": "Point", "coordinates": [-117.20527, 32.75191]}, "properties": {"id": "LH8ZEbYt-ebfif7ExOQbdEq00tM=", "ref": "123", "@spider": "innout", "addr:full": "3102 Sports Arena Blvd.", "addr:city": "San Diego", "addr:state": "CA", "addr:postcode": "92110", "name": "San Diego (Sports Arena Blvd.)", "website": "http://locations.in-n-out.com/123", "brand": "In-N-Out Burger", "brand:wikidata": "Q1205312", "marker-color": "rgb(254,204,92)", "marker-size": "small"}}, {"type": "Feature", "geometry": {"type": "Point", "coordinates": [-119.02855, 35.29633]}, "properties": {"id": "lZPJr-4plGUUZYHKiwrPwR0Tles=", "ref": "65", "@spider": "innout", "addr:full": "2310 Panama Lane", "addr:city": "Bakersfield", "addr:state": "CA", "addr:postcode": "93307", "name": "Bakersfield (Panama Ln.)", "website": "http://locations.in-n-out.com/65", "brand": "In-N-Out Burger", "brand:wikidata": "Q1205312", "marker-color": "rgb(254,204,92)", "marker-size": "small"}}, {"type": "Feature", "geometry": {"type": "Point", "coordinates": [-119.05794, 35.35451]}, "properties": {"id": "lX6iuWod0rz0o9QdQj8PY6SOXw0=", "ref": "145", "@spider": "innout", "addr:full": "5100 Stockdale Hwy.", "addr:city": "Bakersfield", "addr:state": "CA", "addr:postcode": "93309", "name": "Bakersfield (Stockdale Hwy)", "website": "http://locations.in-n-out.com/145", "brand": "In-N-Out Burger", "brand:wikidata": "Q1205312", "marker-color": "rgb(254,204,92)", "marker-size": "small"}}, {"type": "Feature", "geometry": {"type": "Point", "coordinates": [-119.09086, 35.38311]}, "properties": {"id": "L5ONGHIftCu2muL33VvJSYfQ8K4=", "ref": "362", "@spider": "innout", "addr:full": "7985 Rosedale Hwy. ", "addr:city": "Bakersfield", "addr:state": "CA", "addr:postcode": "93308", "name": "Bakersfield", "website": "http://locations.in-n-out.com/362", "brand": "In-N-Out Burger", "brand:wikidata": "Q1205312", "marker-color": "rgb(254,204,92)", "marker-size": "small"}}, {"type": "Feature", "geometry": {"type": "Point", "coordinates": [-119.67359, 36.32131]}, "properties": {"id": "OAzWzr3qte-kbZcw8Kw4QRpymgQ=", "ref": "291", "@spider": "innout", "addr:full": "280 S. 12th Ave.", "addr:city": "Hanford", "addr:state": "CA", "addr:postcode": "93230", "name": "Hanford", "website": "http://locations.in-n-out.com/291", "brand": "In-N-Out Burger", "brand:wikidata": "Q1205312", "marker-color": "rgb(254,204,92)", "marker-size": "small"}}, {"type": "Feature", "geometry": {"type": "Point", "coordinates": [-119.78992, 36.79612]}, "properties": {"id": "FYVpuBlTcr2h70zhei1uD5PPVG4=", "ref": "83", "@spider": "innout", "addr:full": "4302 N. Blackstone Ave.", "addr:city": "Fresno", "addr:state": "CA", "addr:postcode": "93726", "name": "Fresno (Blackstone & Ashlan)", "website": "http://locations.in-n-out.com/83", "brand": "In-N-Out Burger", "brand:wikidata": "Q1205312", "marker-color": "rgb(254,204,92)", "marker-size": "small"}}, {"type": "Feature", "geometry": {"type": "Point", "coordinates": [-119.77024, 36.70482]}, "properties": {"id": "KqAMx60ARFyIhLXRFUt6PX6WOJ0=", "ref": "93", "@spider": "innout", "addr:full": "2657 S. Second St.", "addr:city": "Fresno", "addr:state": "CA", "addr:postcode": "93706", "name": "Fresno (2nd Street)", "website": "http://locations.in-n-out.com/93", "brand": "In-N-Out Burger", "brand:wikidata": "Q1205312", "marker-color": "rgb(254,204,92)", "marker-size": "small"}}, {"type": "Feature", "geometry": {"type": "Point", "coordinates": [-119.88316, 36.8085]}, "properties": {"id": "tbeID6imTzTael1A_O9fOo0FCa4=", "ref": "82", "@spider": "innout", "addr:full": "5106 W. Shaw St.", "addr:city": "Fresno", "addr:state": "CA", "addr:postcode": "93722", "name": "Fresno (Shaw)", "website": "http://locations.in-n-out.com/82", "brand": "In-N-Out Burger", "brand:wikidata": "Q1205312", "marker-color": "rgb(254,204,92)", "marker-size": "small"}}, {"type": "Feature", "geometry": {"type": "Point", "coordinates": [-120.48184, 37.29835]}, "properties": {"id": "oYZx-nQsP9S9qzUFxSF_nJEcemY=", "ref": "91", "@spider": "innout", "addr:full": "1579 M L King Jr Way", "addr:city": "Merced", "addr:state": "CA", "addr:postcode": "95340", "name": "Merced", "website": "http://locations.in-n-out.com/91", "brand": "In-N-Out Burger", "brand:wikidata": "Q1205312", "marker-color": "rgb(254,204,92)", "marker-size": "small"}}, {"type": "Feature", "geometry": {"type": "Point", "coordinates": [-120.8817, 37.5205]}, "properties": {"id": "tWPzwTmOL07Gx0lGLGKoBiqoOok=", "ref": "161", "@spider": "innout", "addr:full": "3071 Countryside Dr.", "addr:city": "Turlock", "addr:state": "CA", "addr:postcode": "95380", "name": "Turlock", "website": "http://locations.in-n-out.com/161", "brand": "In-N-Out Burger", "brand:wikidata": "Q1205312", "marker-color": "rgb(254,204,92)", "marker-size": "small"}}, {"type": "Feature", "geometry": {"type": "Point", "coordinates": [-121.0356, 37.66949]}, "properties": {"id": "g0y7AMpxrheZhO7m08ou68YwbzY=", "ref": "285", "@spider": "innout", "addr:full": "1616 Sisk Rd.", "addr:city": "Modesto", "addr:state": "CA", "addr:postcode": "95350", "name": "Modesto", "website": "http://locations.in-n-out.com/285", "brand": "In-N-Out Burger", "brand:wikidata": "Q1205312", "marker-color": "rgb(254,204,92)", "marker-size": "small"}}, {"type": "Feature", "geometry": {"type": "Point", "coordinates": [-121.06759, 37.6998]}, "properties": {"id": "gS6cjD-PpBfUCNQiz0nAPyOuEYY=", "ref": "90", "@spider": "innout", "addr:full": "3900 Pelandale Ave.", "addr:city": "Modesto", "addr:state": "CA", "addr:postcode": "95356", "name": "Modesto", "website": "http://locations.in-n-out.com/90", "brand": "In-N-Out Burger", "brand:wikidata": "Q1205312", "marker-color": "rgb(254,204,92)", "marker-size": "small"}}, {"type": "Feature", "geometry": {"type": "Point", "coordinates": [-120.41884, 34.93734]}, "properties": {"id": "FXVbgq2Pa5Bs_dzJWm5UDncT4n4=", "ref": "136", "@spider": "innout", "addr:full": "1330 S. Bradley Road", "addr:city": "Santa Maria", "addr:state": "CA", "addr:postcode": "93454", "name": "Santa Maria", "website": "http://locations.in-n-out.com/136", "brand": "In-N-Out Burger", "brand:wikidata": "Q1205312", "marker-color": "rgb(254,204,92)", "marker-size": "small"}}, {"type": "Feature", "geometry": {"type": "Point", "coordinates": [-121.19248, 37.79717]}, "properties": {"id": "RMUaJXQk7zg6G-1evEb6_N9SvgY=", "ref": "191", "@spider": "innout", "addr:full": "1490 E. Yosemite Ave.", "addr:city": "Manteca", "addr:state": "CA", "addr:postcode": "95336", "name": "Manteca", "website": "http://locations.in-n-out.com/191", "brand": "In-N-Out Burger", "brand:wikidata": "Q1205312", "marker-color": "rgb(254,204,92)", "marker-size": "small"}}, {"type": "Feature", "geometry": {"type": "Point", "coordinates": [-120.59796, 35.12729]}, "properties": {"id": "GvuxT9lcEvPFzfskKUbMubmYv1Q=", "ref": "250", "@spider": "innout", "addr:full": "1170 W. Branch St.", "addr:city": "Arroyo Grande", "addr:state": "CA", "addr:postcode": "93420", "name": "Arroyo Grande", "website": "http://locations.in-n-out.com/250", "brand": "In-N-Out Burger", "brand:wikidata": "Q1205312", "marker-color": "rgb(254,204,92)", "marker-size": "small"}}, {"type": "Feature", "geometry": {"type": "Point", "coordinates": [-121.3082, 38.11596]}, "properties": {"id": "zsVmEfyXNkWP1LPfUTNWB4Qqd_o=", "ref": "197", "@spider": "innout", "addr:full": "2625 W. Kettleman Ln.", "addr:city": "Lodi", "addr:state": "CA", "addr:postcode": "95242", "name": "Lodi", "website": "http://locations.in-n-out.com/197", "brand": "In-N-Out Burger", "brand:wikidata": "Q1205312", "marker-color": "rgb(254,204,92)", "marker-size": "small"}}, {"type": "Feature", "geometry": {"type": "Point", "coordinates": [-121.31452, 37.99696]}, "properties": {"id": "02BWj2fWVVQUK8vUiHmZ-uHTJks=", "ref": "369", "@spider": "innout", "addr:full": "5202 Pacific Ave.", "addr:city": "Stockton ", "addr:state": "CA", "addr:postcode": "95207", "name": "Stockton ", "website": "http://locations.in-n-out.com/369", "brand": "In-N-Out Burger", "brand:wikidata": "Q1205312", "marker-color": "rgb(254,204,92)", "marker-size": "small"}}, {"type": "Feature", "geometry": {"type": "Point", "coordinates": [-121.3915, 38.42411]}, "properties": {"id": "rY_OvMMI9y-rThFyKgdij3OXNyc=", "ref": "116", "@spider": "innout", "addr:full": "9188 E Stockton Blvd.", "addr:city": "Elk Grove", "addr:state": "CA", "addr:postcode": "95624", "name": "Elk Grove", "website": "http://locations.in-n-out.com/116", "brand": "In-N-Out Burger", "brand:wikidata": "Q1205312", "marker-color": "rgb(254,204,92)", "marker-size": "small"}}, {"type": "Feature", "geometry": {"type": "Point", "coordinates": [-121.4194, 38.59805]}, "properties": {"id": "GrrhKJeiQpHffZunprT8aCtaH1o=", "ref": "276", "@spider": "innout", "addr:full": "2001 Alta Arden Expy.", "addr:city": "Sacramento", "addr:state": "CA", "addr:postcode": "95825", "name": "Sacramento", "website": "http://locations.in-n-out.com/276", "brand": "In-N-Out Burger", "brand:wikidata": "Q1205312", "marker-color": "rgb(254,204,92)", "marker-size": "small"}}, {"type": "Feature", "geometry": {"type": "Point", "coordinates": [-121.34561, 37.98471]}, "properties": {"id": "5ji96GRkAXvqZGnxPIDe2rlwMF4=", "ref": "101", "@spider": "innout", "addr:full": "2727 W. March Lane", "addr:city": "Stockton", "addr:state": "CA", "addr:postcode": "95219", "name": "Stockton", "website": "http://locations.in-n-out.com/101", "brand": "In-N-Out Burger", "brand:wikidata": "Q1205312", "marker-color": "rgb(254,204,92)", "marker-size": "small"}}, {"type": "Feature", "geometry": {"type": "Point", "coordinates": [-121.50424, 38.63683]}, "properties": {"id": "BqC2JSmKCJrmD-yD5H94OZViNrw=", "ref": "131", "@spider": "innout", "addr:full": "3501 Truxel Road", "addr:city": "Sacramento", "addr:state": "CA", "addr:postcode": "95834", "name": "Sacramento (Truxel)", "website": "http://locations.in-n-out.com/131", "brand": "In-N-Out Burger", "brand:wikidata": "Q1205312", "marker-color": "rgb(254,204,92)", "marker-size": "small"}}, {"type": "Feature", "geometry": {"type": "Point", "coordinates": [-121.49298, 38.46537]}, "properties": {"id": "rf089ZVtf_5sUQzeGxCI3fi-_JU=", "ref": "327", "@spider": "innout", "addr:full": "8200 Delta Shores Circle", "addr:city": "Sacramento", "addr:state": "CA", "addr:postcode": "95832", "name": "Sacramento", "website": "http://locations.in-n-out.com/327", "brand": "In-N-Out Burger", "brand:wikidata": "Q1205312", "marker-color": "rgb(254,204,92)", "marker-size": "small"}}, {"type": "Feature", "geometry": {"type": "Point", "coordinates": [-121.52592, 38.65535]}, "properties": {"id": "ibhA2wbDEupn6N5aWc8qrgdUcos=", "ref": "213", "@spider": "innout", "addr:full": "2900 Del Paso Rd.", "addr:city": "Sacramento", "addr:state": "CA", "addr:postcode": "95834", "name": "Sacramento (Del Paso)", "website": "http://locations.in-n-out.com/213", "brand": "In-N-Out Burger", "brand:wikidata": "Q1205312", "marker-color": "rgb(254,204,92)", "marker-size": "small"}}, {"type": "Feature", "geometry": {"type": "Point", "coordinates": [-121.55012, 38.59157]}, "properties": {"id": "LNhcIJIHNwwi1wAl_8PqoDMORvQ=", "ref": "225", "@spider": "innout", "addr:full": "780 Ikea Court", "addr:city": "West Sacramento", "addr:state": "CA", "addr:postcode": "95605", "name": "West Sacramento", "website": "http://locations.in-n-out.com/225", "brand": "In-N-Out Burger", "brand:wikidata": "Q1205312", "marker-color": "rgb(254,204,92)", "marker-size": "small"}}, {"type": "Feature", "geometry": {"type": "Point", "coordinates": [-121.63516, 39.13592]}, "properties": {"id": "mFiIOlkzVCzP4OYxkPq5Yt6jCyE=", "ref": "214", "@spider": "innout", "addr:full": "1325 Sunsweet Blvd.", "addr:city": "Yuba City", "addr:state": "CA", "addr:postcode": "95993", "name": "Yuba City", "website": "http://locations.in-n-out.com/214", "brand": "In-N-Out Burger", "brand:wikidata": "Q1205312", "marker-color": "rgb(254,204,92)", "marker-size": "small"}}, {"type": "Feature", "geometry": {"type": "Point", "coordinates": [-121.72802, 38.67024]}, "properties": {"id": "i6hrkcpcprNqszJ543ybvJSBNWw=", "ref": "231", "@spider": "innout", "addr:full": "2011 Bronze Star Drive", "addr:city": "Woodland", "addr:state": "CA", "addr:postcode": "95776", "name": "Woodland", "website": "http://locations.in-n-out.com/231", "brand": "In-N-Out Burger", "brand:wikidata": "Q1205312", "marker-color": "rgb(254,204,92)", "marker-size": "small"}}, {"type": "Feature", "geometry": {"type": "Point", "coordinates": [-121.8068, 39.72393]}, "properties": {"id": "NmH4553iTwUqG_eL8h08UBrF3mk=", "ref": "147", "@spider": "innout", "addr:full": "2050 Business Lane", "addr:city": "Chico", "addr:state": "CA", "addr:postcode": "95928", "name": "Chico", "website": "http://locations.in-n-out.com/147", "brand": "In-N-Out Burger", "brand:wikidata": "Q1205312", "marker-color": "rgb(254,204,92)", "marker-size": "small"}}, {"type": "Feature", "geometry": {"type": "Point", "coordinates": [-121.73722, 38.54097]}, "properties": {"id": "wCB3U9VPxnM_vDcJz_a_KhqfLyU=", "ref": "127", "@spider": "innout", "addr:full": "1020 Olive Drive", "addr:city": "Davis", "addr:state": "CA", "addr:postcode": "95616", "name": "Davis", "website": "http://locations.in-n-out.com/127", "brand": "In-N-Out Burger", "brand:wikidata": "Q1205312", "marker-color": "rgb(254,204,92)", "marker-size": "small"}}, {"type": "Feature", "geometry": {"type": "Point", "coordinates": [-122.3478, 40.58532]}, "properties": {"id": "dKt2bccQg8rgBPU1dkk8Rz1thog=", "ref": "137", "@spider": "innout", "addr:full": "1275 Dana Drive", "addr:city": "Redding", "addr:state": "CA", "addr:postcode": "96003", "name": "Redding", "website": "http://locations.in-n-out.com/137", "brand": "In-N-Out Burger", "brand:wikidata": "Q1205312", "marker-color": "rgb(254,204,92)", "marker-size": "small"}}, {"type": "Feature", "geometry": {"type": "Point", "coordinates": [-122.34868, 40.53852]}, "properties": {"id": "6R8EQvIggmzsEOwf62LrxQDpRXw=", "ref": "348", "@spider": "innout", "addr:full": "4681 Churn Creek Rd.", "addr:city": "Redding", "addr:state": "CA", "addr:postcode": "96002", "name": "Redding", "website": "http://locations.in-n-out.com/348", "brand": "In-N-Out Burger", "brand:wikidata": "Q1205312", "marker-color": "rgb(254,204,92)", "marker-size": "small"}}, {"type": "Feature", "geometry": {"type": "Point", "coordinates": [-111.64132, 40.12055]}, "properties": {"id": "lhYd6-SokIg7f-xnjdDvBE6I64A=", "ref": "358", "@spider": "innout", "addr:full": "795 East 800 North ", "addr:city": "Spanish Fork", "addr:state": "UT", "addr:postcode": "84660", "name": "Spanish Fork ", "website": "http://locations.in-n-out.com/358", "brand": "In-N-Out Burger", "brand:wikidata": "Q1205312", "marker-color": "rgb(255,255,178)", "marker-size": "small"}}, {"type": "Feature", "geometry": {"type": "Point", "coordinates": [-111.68661, 40.27312]}, "properties": {"id": "AF_7XUta5HeRlOY1rl1-0l4L-WM=", "ref": "235", "@spider": "innout", "addr:full": "350 E. University Pkwy", "addr:city": "Orem", "addr:state": "UT", "addr:postcode": "84058", "name": "Orem", "website": "http://locations.in-n-out.com/235", "brand": "In-N-Out Burger", "brand:wikidata": "Q1205312", "marker-color": "rgb(255,255,178)", "marker-size": "small"}}, {"type": "Feature", "geometry": {"type": "Point", "coordinates": [-111.81472, 40.37595]}, "properties": {"id": "aUa1J5ih4vxPvYp76yvLGIh7HGU=", "ref": "239", "@spider": "innout", "addr:full": "601 W. Main St.", "addr:city": "American Fork", "addr:state": "UT", "addr:postcode": "84003", "name": "American Fork", "website": "http://locations.in-n-out.com/239", "brand": "In-N-Out Burger", "brand:wikidata": "Q1205312", "marker-color": "rgb(255,255,178)", "marker-size": "small"}}, {"type": "Feature", "geometry": {"type": "Point", "coordinates": [-111.85666, 40.62037]}, "properties": {"id": "9VMbkr-m277apnOfxKSufGtEWy4=", "ref": "261", "@spider": "innout", "addr:full": "7206 S. Union Park Ave.", "addr:city": "Midvale", "addr:state": "UT", "addr:postcode": "84047", "name": "Midvale", "website": "http://locations.in-n-out.com/261", "brand": "In-N-Out Burger", "brand:wikidata": "Q1205312", "marker-color": "rgb(255,255,178)", "marker-size": "small"}}, {"type": "Feature", "geometry": {"type": "Point", "coordinates": [-111.88928, 40.52883]}, "properties": {"id": "ImLbAosgKz3x7vGmUeFTFT_Bf9A=", "ref": "236", "@spider": "innout", "addr:full": "12191 State St.", "addr:city": "Draper", "addr:state": "UT", "addr:postcode": "84020", "name": "Draper", "website": "http://locations.in-n-out.com/236", "brand": "In-N-Out Burger", "brand:wikidata": "Q1205312", "marker-color": "rgb(255,255,178)", "marker-size": "small"}}, {"type": "Feature", "geometry": {"type": "Point", "coordinates": [-111.98478, 40.5226]}, "properties": {"id": "z0PuLhZU5FXHDlQfzO26qbO3p7Y=", "ref": "244", "@spider": "innout", "addr:full": "12569 S. Crossing Drive", "addr:city": "Riverton", "addr:state": "UT", "addr:postcode": "84096", "name": "Riverton", "website": "http://locations.in-n-out.com/244", "brand": "In-N-Out Burger", "brand:wikidata": "Q1205312", "marker-color": "rgb(255,255,178)", "marker-size": "small"}}, {"type": "Feature", "geometry": {"type": "Point", "coordinates": [-111.8895, 40.92237]}, "properties": {"id": "omiARkUv3fKbIXpqAo5jKt9k4t8=", "ref": "248", "@spider": "innout", "addr:full": "475 North 700 West", "addr:city": "Centerville", "addr:state": "UT", "addr:postcode": "84014", "name": "Centerville", "website": "http://locations.in-n-out.com/248", "brand": "In-N-Out Burger", "brand:wikidata": "Q1205312", "marker-color": "rgb(255,255,178)", "marker-size": "small"}}, {"type": "Feature", "geometry": {"type": "Point", "coordinates": [-111.95765, 40.69142]}, "properties": {"id": "OBJgQG3Lfd4oWDJOeH_XItTUVSg=", "ref": "245", "@spider": "innout", "addr:full": "3715 S. Constitution Blvd", "addr:city": "West Valley City", "addr:state": "UT", "addr:postcode": "84119", "name": "West Valley City", "website": "http://locations.in-n-out.com/245", "brand": "In-N-Out Burger", "brand:wikidata": "Q1205312", "marker-color": "rgb(255,255,178)", "marker-size": "small"}}, {"type": "Feature", "geometry": {"type": "Point", "coordinates": [-111.98588, 40.60978]}, "properties": {"id": "IjkWDz4_Dqmt4-j1nXMgNMQxnNI=", "ref": "237", "@spider": "innout", "addr:full": "7785 Jordan Landing Blvd.", "addr:city": "West Jordan", "addr:state": "UT", "addr:postcode": "84084", "name": "West Jordan", "website": "http://locations.in-n-out.com/237", "brand": "In-N-Out Burger", "brand:wikidata": "Q1205312", "marker-color": "rgb(255,255,178)", "marker-size": "small"}}, {"type": "Feature", "geometry": {"type": "Point", "coordinates": [-111.97999, 41.19122]}, "properties": {"id": "SqcxzXkPxYw-Y1oKzDXZTnOs64g=", "ref": "284", "@spider": "innout", "addr:full": "4030 Riverdale Rd.", "addr:city": "Riverdale", "addr:state": "UT", "addr:postcode": "84405", "name": "Riverdale", "website": "http://locations.in-n-out.com/284", "brand": "In-N-Out Burger", "brand:wikidata": "Q1205312", "marker-color": "rgb(255,255,178)", "marker-size": "small"}}, {"type": "Feature", "geometry": {"type": "Point", "coordinates": [-110.93879, 32.41542]}, "properties": {"id": "uWNuqkCKWJ2KBKNnbtrnpWF55mw=", "ref": "241", "@spider": "innout", "addr:full": "11545 N. Oracle Road", "addr:city": "Oro Valley", "addr:state": "AZ", "addr:postcode": "85755", "name": "Oro Valley", "website": "http://locations.in-n-out.com/241", "brand": "In-N-Out Burger", "brand:wikidata": "Q1205312", "marker-color": "rgb(255,255,178)", "marker-size": "small"}}, {"type": "Feature", "geometry": {"type": "Point", "coordinates": [-110.84038, 32.22177]}, "properties": {"id": "6_HNVeh9I5RukX9UlKkpF4GSlwI=", "ref": "242", "@spider": "innout", "addr:full": "7111 E. Broadway Blvd.", "addr:city": "Tucson", "addr:state": "AZ", "addr:postcode": "85710", "name": "Tucson", "website": "http://locations.in-n-out.com/242", "brand": "In-N-Out Burger", "brand:wikidata": "Q1205312", "marker-color": "rgb(255,255,178)", "marker-size": "small"}}, {"type": "Feature", "geometry": {"type": "Point", "coordinates": [-111.5997, 33.38169]}, "properties": {"id": "-z0AGoMY2C0kyBGhuN-G1kFXNro=", "ref": "218", "@spider": "innout", "addr:full": "1859 S. Signal Butte Rd.", "addr:city": "Mesa", "addr:state": "AZ", "addr:postcode": "85209", "name": "Mesa (Signal Butte)", "website": "http://locations.in-n-out.com/218", "brand": "In-N-Out Burger", "brand:wikidata": "Q1205312", "marker-color": "rgb(255,255,178)", "marker-size": "small"}}, {"type": "Feature", "geometry": {"type": "Point", "coordinates": [-110.91414, 32.222]}, "properties": {"id": "ug38Z3Bv8d21R4J4FtEXuzRHYZE=", "ref": "207", "@spider": "innout", "addr:full": "3711 Broadway Blvd.", "addr:city": "Tucson", "addr:state": "AZ", "addr:postcode": "85716", "name": "Tucson (Broadway)", "website": "http://locations.in-n-out.com/207", "brand": "In-N-Out Burger", "brand:wikidata": "Q1205312", "marker-color": "rgb(255,255,178)", "marker-size": "small"}}, {"type": "Feature", "geometry": {"type": "Point", "coordinates": [-111.70158, 33.47368]}, "properties": {"id": "Gd3TnOrIb3H4kwsYct8nlLHnRWQ=", "ref": "338", "@spider": "innout", "addr:full": "3156 North Recker Road", "addr:city": "Mesa", "addr:state": "AZ", "addr:postcode": "85215", "name": "Mesa ", "website": "http://locations.in-n-out.com/338", "brand": "In-N-Out Burger", "brand:wikidata": "Q1205312", "marker-color": "rgb(255,255,178)", "marker-size": "small"}}, {"type": "Feature", "geometry": {"type": "Point", "coordinates": [-110.97786, 32.29045]}, "properties": {"id": "2jioGMCsVJc5GQDoBAgoOsJsEDs=", "ref": "253", "@spider": "innout", "addr:full": "4620 N. Oracle Rd.", "addr:city": "Tucson", "addr:state": "AZ", "addr:postcode": "85705", "name": "Tucson", "website": "http://locations.in-n-out.com/253", "brand": "In-N-Out Burger", "brand:wikidata": "Q1205312", "marker-color": "rgb(255,255,178)", "marker-size": "small"}}, {"type": "Feature", "geometry": {"type": "Point", "coordinates": [-110.94288, 32.17825]}, "properties": {"id": "yPPN578k5SMjXO-lJ_LgBNndYlU=", "ref": "238", "@spider": "innout", "addr:full": "1979 E. Ajo Way", "addr:city": "Tucson", "addr:state": "AZ", "addr:postcode": "85713", "name": "Tucson", "website": "http://locations.in-n-out.com/238", "brand": "In-N-Out Burger", "brand:wikidata": "Q1205312", "marker-color": "rgb(255,255,178)", "marker-size": "small"}}, {"type": "Feature", "geometry": {"type": "Point", "coordinates": [-111.64037, 33.25877]}, "properties": {"id": "LsVmoGPbQOmwZJQUIYQ3cUfRtJ0=", "ref": "293", "@spider": "innout", "addr:full": "20545 E. Rittenhouse", "addr:city": "Queen Creek", "addr:state": "AZ", "addr:postcode": "85242", "name": "Queen Creek", "website": "http://locations.in-n-out.com/293", "brand": "In-N-Out Burger", "brand:wikidata": "Q1205312", "marker-color": "rgb(255,255,178)", "marker-size": "small"}}, {"type": "Feature", "geometry": {"type": "Point", "coordinates": [-111.093, 32.35514]}, "properties": {"id": "s_55ZvL4LmQdBK45yNoZ_r2Ar1o=", "ref": "210", "@spider": "innout", "addr:full": "8180 Cortaro Rd.", "addr:city": "Marana", "addr:state": "AZ", "addr:postcode": "85743", "name": "Marana", "website": "http://locations.in-n-out.com/210", "brand": "In-N-Out Burger", "brand:wikidata": "Q1205312", "marker-color": "rgb(255,255,178)", "marker-size": "small"}}, {"type": "Feature", "geometry": {"type": "Point", "coordinates": [-110.98822, 32.16348]}, "properties": {"id": "kkn5j0RbROb815_WktSRSYAmZFM=", "ref": "356", "@spider": "innout", "addr:full": "1100 W. Irvington Rd. ", "addr:city": "Tucson", "addr:state": "AZ", "addr:postcode": "85714", "name": "Tucson", "website": "http://locations.in-n-out.com/356", "brand": "In-N-Out Burger", "brand:wikidata": "Q1205312", "marker-color": "rgb(255,255,178)", "marker-size": "small"}}, {"type": "Feature", "geometry": {"type": "Point", "coordinates": [-111.91983, 33.63651]}, "properties": {"id": "7LVhELTgCSN2WtC1kER3soOFz84=", "ref": "146", "@spider": "innout", "addr:full": "7467 Frank L Wright", "addr:city": "Scottsdale", "addr:state": "AZ", "addr:postcode": "85260", "name": "Scottsdale", "website": "http://locations.in-n-out.com/146", "brand": "In-N-Out Burger", "brand:wikidata": "Q1205312", "marker-color": "rgb(255,255,178)", "marker-size": "small"}}, {"type": "Feature", "geometry": {"type": "Point", "coordinates": [-111.74348, 33.30588]}, "properties": {"id": "CCkySTpEeeuN-sr7cKsy2MrikPU=", "ref": "205", "@spider": "innout", "addr:full": "2449 S. Market St.", "addr:city": "Gilbert", "addr:state": "AZ", "addr:postcode": "85296", "name": "Gilbert", "website": "http://locations.in-n-out.com/205", "brand": "In-N-Out Burger", "brand:wikidata": "Q1205312", "marker-color": "rgb(255,255,178)", "marker-size": "small"}}, {"type": "Feature", "geometry": {"type": "Point", "coordinates": [-111.80633, 33.3834]}, "properties": {"id": "DCST75TIeCgea3spSkC-E_GVADI=", "ref": "155", "@spider": "innout", "addr:full": "1650 S. Stapley Rd.", "addr:city": "Mesa", "addr:state": "AZ", "addr:postcode": "85204", "name": "Mesa", "website": "http://locations.in-n-out.com/155", "brand": "In-N-Out Burger", "brand:wikidata": "Q1205312", "marker-color": "rgb(255,255,178)", "marker-size": "small"}}, {"type": "Feature", "geometry": {"type": "Point", "coordinates": [-111.97676, 33.67905]}, "properties": {"id": "pglcc0x7wnci1EgWvEMujgSdCfA=", "ref": "160", "@spider": "innout", "addr:full": "21001 N. Tatum Blvd.", "addr:city": "Phoenix", "addr:state": "AZ", "addr:postcode": "85050", "name": "Desert Ridge", "website": "http://locations.in-n-out.com/160", "brand": "In-N-Out Burger", "brand:wikidata": "Q1205312", "marker-color": "rgb(255,255,178)", "marker-size": "small"}}, {"type": "Feature", "geometry": {"type": "Point", "coordinates": [-112.40924, 34.55245]}, "properties": {"id": "ehINuL1ud9VCqPQITt1czIdQ2MM=", "ref": "184", "@spider": "innout", "addr:full": "3040 Hwy. 69", "addr:city": "Prescott", "addr:state": "AZ", "addr:postcode": "86301", "name": "Prescott", "website": "http://locations.in-n-out.com/184", "brand": "In-N-Out Burger", "brand:wikidata": "Q1205312", "marker-color": "rgb(255,255,178)", "marker-size": "small"}}, {"type": "Feature", "geometry": {"type": "Point", "coordinates": [-111.79024, 33.2812]}, "properties": {"id": "rbtR8-hyWCbI-052hlaN3TEnFlg=", "ref": "219", "@spider": "innout", "addr:full": "2910 E. Germann Rd.", "addr:city": "Chandler", "addr:state": "AZ", "addr:postcode": "85249", "name": "Chandler (Germann & Gilbert)", "website": "http://locations.in-n-out.com/219", "brand": "In-N-Out Burger", "brand:wikidata": "Q1205312", "marker-color": "rgb(255,255,178)", "marker-size": "small"}}, {"type": "Feature", "geometry": {"type": "Point", "coordinates": [-111.85768, 33.39005]}, "properties": {"id": "pRFLgk2eWOq2_-bEOgcK3EhSzdQ=", "ref": "230", "@spider": "innout", "addr:full": "1342 S. Alma School Rd.", "addr:city": "Mesa", "addr:state": "AZ", "addr:postcode": "85210", "name": "Mesa (Alma School Rd.)", "website": "http://locations.in-n-out.com/230", "brand": "In-N-Out Burger", "brand:wikidata": "Q1205312", "marker-color": "rgb(255,255,178)", "marker-size": "small"}}, {"type": "Feature", "geometry": {"type": "Point", "coordinates": [-111.97967, 33.59897]}, "properties": {"id": "PfSKIbdj81C2uOhukAsPJ42PEBc=", "ref": "192", "@spider": "innout", "addr:full": "12413 N. Tatum", "addr:city": "Phoenix", "addr:state": "AZ", "addr:postcode": "85032", "name": "Paradise Valley", "website": "http://locations.in-n-out.com/192", "brand": "In-N-Out Burger", "brand:wikidata": "Q1205312", "marker-color": "rgb(255,255,178)", "marker-size": "small"}}, {"type": "Feature", "geometry": {"type": "Point", "coordinates": [-111.92543, 33.4349]}, "properties": {"id": "b1-J8NrLOXDw6mTe27KRx0u6luc=", "ref": "195", "@spider": "innout", "addr:full": "920 E. Playa Del Norte Dr.", "addr:city": "Tempe", "addr:state": "AZ", "addr:postcode": "85281", "name": "Tempe", "website": "http://locations.in-n-out.com/195", "brand": "In-N-Out Burger", "brand:wikidata": "Q1205312", "marker-color": "rgb(255,255,178)", "marker-size": "small"}}, {"type": "Feature", "geometry": {"type": "Point", "coordinates": [-112.12994, 33.80054]}, "properties": {"id": "uZVt79smA-CSkAwKgj97bvIxKEA=", "ref": "228", "@spider": "innout", "addr:full": "34850 N. Valley Parkway", "addr:city": "Phoenix", "addr:state": "AZ", "addr:postcode": "85086", "name": "Phoenix (Carefree Hwy)", "website": "http://locations.in-n-out.com/228", "brand": "In-N-Out Burger", "brand:wikidata": "Q1205312", "marker-color": "rgb(255,255,178)", "marker-size": "small"}}, {"type": "Feature", "geometry": {"type": "Point", "coordinates": [-111.89176, 33.30639]}, "properties": {"id": "dXMh2m57gJrYW6D7leD74l0LTxY=", "ref": "164", "@spider": "innout", "addr:full": "2790 W. Chandler Blvd.", "addr:city": "Chandler", "addr:state": "AZ", "addr:postcode": "85224", "name": "Chandler (Chandler & Price)", "website": "http://locations.in-n-out.com/164", "brand": "In-N-Out Burger", "brand:wikidata": "Q1205312", "marker-color": "rgb(255,255,178)", "marker-size": "small"}}, {"type": "Feature", "geometry": {"type": "Point", "coordinates": [-112.11673, 33.66206]}, "properties": {"id": "neTQHFmZKlYYS5eBAp0ip0E8hCg=", "ref": "177", "@spider": "innout", "addr:full": "19407 N. 27th Ave.", "addr:city": "Phoenix", "addr:state": "AZ", "addr:postcode": "85027", "name": "Phoenix (27th Ave.)", "website": "http://locations.in-n-out.com/177", "brand": "In-N-Out Burger", "brand:wikidata": "Q1205312", "marker-color": "rgb(255,255,178)", "marker-size": "small"}}, {"type": "Feature", "geometry": {"type": "Point", "coordinates": [-112.03922, 33.50715]}, "properties": {"id": "LK8AqjpGMNTcgvtCy9zIDEMiAAs=", "ref": "317", "@spider": "innout", "addr:full": "4840 N. 20th St.", "addr:city": "Phoenix", "addr:state": "AZ", "addr:postcode": "85016", "name": "Phoenix", "website": "http://locations.in-n-out.com/317", "brand": "In-N-Out Burger", "brand:wikidata": "Q1205312", "marker-color": "rgb(255,255,178)", "marker-size": "small"}}, {"type": "Feature", "geometry": {"type": "Point", "coordinates": [-111.68225, 32.88018]}, "properties": {"id": "Ghd4l8NAZmw7ey23ALo_5M8exj4=", "ref": "223", "@spider": "innout", "addr:full": "873 N. Promenade Pkwy.", "addr:city": "Casa Grande", "addr:state": "AZ", "addr:postcode": "85194", "name": "Casa Grande", "website": "http://locations.in-n-out.com/223", "brand": "In-N-Out Burger", "brand:wikidata": "Q1205312", "marker-color": "rgb(255,255,178)", "marker-size": "small"}}, {"type": "Feature", "geometry": {"type": "Point", "coordinates": [-111.97416, 33.37793]}, "properties": {"id": "hdXx5BO64h-SxncetpdEH43rxHc=", "ref": "361", "@spider": "innout", "addr:full": "2405 W. Baseline Rd. ", "addr:city": "Tempe", "addr:state": "AZ", "addr:postcode": "85283", "name": "Tempe", "website": "http://locations.in-n-out.com/361", "brand": "In-N-Out Burger", "brand:wikidata": "Q1205312", "marker-color": "rgb(255,255,178)", "marker-size": "small"}}, {"type": "Feature", "geometry": {"type": "Point", "coordinates": [-111.96413, 33.3204]}, "properties": {"id": "sxTMTJgH-oGTGIVCf2_cELaR3V0=", "ref": "153", "@spider": "innout", "addr:full": "7050 W. Ray Rd.", "addr:city": "Chandler", "addr:state": "AZ", "addr:postcode": "85226", "name": "Chandler (Ray Rd.)", "website": "http://locations.in-n-out.com/153", "brand": "In-N-Out Burger", "brand:wikidata": "Q1205312", "marker-color": "rgb(255,255,178)", "marker-size": "small"}}, {"type": "Feature", "geometry": {"type": "Point", "coordinates": [-112.11982, 33.58241]}, "properties": {"id": "kXClIwRayApQkcoEF5bpCUamIZk=", "ref": "252", "@spider": "innout", "addr:full": "2770 W. Peoria Ave.", "addr:city": "Phoenix", "addr:state": "AZ", "addr:postcode": "85029", "name": "Phoenix (Metro Square)", "website": "http://locations.in-n-out.com/252", "brand": "In-N-Out Burger", "brand:wikidata": "Q1205312", "marker-color": "rgb(255,255,178)", "marker-size": "small"}}, {"type": "Feature", "geometry": {"type": "Point", "coordinates": [-112.23301, 33.63773]}, "properties": {"id": "UyEubdnLnZFPZ-pUiinsJ1RsWGU=", "ref": "169", "@spider": "innout", "addr:full": "8285 W. Bell Rd.", "addr:city": "Peoria", "addr:state": "AZ", "addr:postcode": "85382", "name": "Peoria", "website": "http://locations.in-n-out.com/169", "brand": "In-N-Out Burger", "brand:wikidata": "Q1205312", "marker-color": "rgb(255,255,178)", "marker-size": "small"}}, {"type": "Feature", "geometry": {"type": "Point", "coordinates": [-112.26647, 33.50809]}, "properties": {"id": "AX1zmdNbHRvXqHoZYT5-zNRAe_k=", "ref": "232", "@spider": "innout", "addr:full": "9585 W. Camelback Rd.", "addr:city": "Phoenix", "addr:state": "AZ", "addr:postcode": "85037", "name": "Phoenix (Camelback)", "website": "http://locations.in-n-out.com/232", "brand": "In-N-Out Burger", "brand:wikidata": "Q1205312", "marker-color": "rgb(255,255,178)", "marker-size": "small"}}, {"type": "Feature", "geometry": {"type": "Point", "coordinates": [-113.52311, 37.1278]}, "properties": {"id": "2ruWPFJCzByb5MOHE3R0cWeVuME=", "ref": "215", "@spider": "innout", "addr:full": "832 W. Telegraph St.", "addr:city": "Washington City", "addr:state": "UT", "addr:postcode": "84780", "name": "Washington City", "website": "http://locations.in-n-out.com/215", "brand": "In-N-Out Burger", "brand:wikidata": "Q1205312", "marker-color": "rgb(255,255,178)", "marker-size": "small"}}, {"type": "Feature", "geometry": {"type": "Point", "coordinates": [-112.36853, 33.63818]}, "properties": {"id": "w00AdPhxWEjJNcmk-sRIIcpFnEw=", "ref": "332", "@spider": "innout", "addr:full": "14321 W. Bell Rd.", "addr:city": "Surprise", "addr:state": "AZ", "addr:postcode": "85374", "name": "Surprise", "website": "http://locations.in-n-out.com/332", "brand": "In-N-Out Burger", "brand:wikidata": "Q1205312", "marker-color": "rgb(255,255,178)", "marker-size": "small"}}, {"type": "Feature", "geometry": {"type": "Point", "coordinates": [-112.34041, 33.45937]}, "properties": {"id": "Q47PBPhSOqzhmzOxpsh141YmqYo=", "ref": "148", "@spider": "innout", "addr:full": "1525 Dysart Rd.", "addr:city": "Avondale", "addr:state": "AZ", "addr:postcode": "85323", "name": "Avondale", "website": "http://locations.in-n-out.com/148", "brand": "In-N-Out Burger", "brand:wikidata": "Q1205312", "marker-color": "rgb(255,255,178)", "marker-size": "small"}}, {"type": "Feature", "geometry": {"type": "Point", "coordinates": [-114.03694, 35.21825]}, "properties": {"id": "roG7olJXurEXwNXlivGqbMYFUHQ=", "ref": "201", "@spider": "innout", "addr:full": "1770 E. Beverly Ave.", "addr:city": "Kingman", "addr:state": "AZ", "addr:postcode": "86409", "name": "Kingman", "website": "http://locations.in-n-out.com/201", "brand": "In-N-Out Burger", "brand:wikidata": "Q1205312", "marker-color": "rgb(255,255,178)", "marker-size": "small"}}, {"type": "Feature", "geometry": {"type": "Point", "coordinates": [-114.57523, 35.15922]}, "properties": {"id": "6d6TbM0dh0rF9OTXyGwMevEhgmk=", "ref": "181", "@spider": "innout", "addr:full": "2085 Casino Dr.", "addr:city": "Laughlin", "addr:state": "NV", "addr:postcode": "89029", "name": "Laughlin", "website": "http://locations.in-n-out.com/181", "brand": "In-N-Out Burger", "brand:wikidata": "Q1205312", "marker-color": "rgb(255,255,178)", "marker-size": "small"}}, {"type": "Feature", "geometry": {"type": "Point", "coordinates": [-114.34779, 34.47483]}, "properties": {"id": "MsMWCW4TefsquKdnRSVe2V3-j9Q=", "ref": "143", "@spider": "innout", "addr:full": "81 London Bridge Rd.", "addr:city": "Lake Havasu City", "addr:state": "AZ", "addr:postcode": "86403", "name": "Lake Havasu City", "website": "http://locations.in-n-out.com/143", "brand": "In-N-Out Burger", "brand:wikidata": "Q1205312", "marker-color": "rgb(255,255,178)", "marker-size": "small"}}, {"type": "Feature", "geometry": {"type": "Point", "coordinates": [-115.03392, 36.06331]}, "properties": {"id": "bzkXAJKVklCRlk7D4C100HP6ujo=", "ref": "150", "@spider": "innout", "addr:full": "1051 W. Sunset Rd.", "addr:city": "Henderson", "addr:state": "NV", "addr:postcode": "89014", "name": "Henderson", "website": "http://locations.in-n-out.com/150", "brand": "In-N-Out Burger", "brand:wikidata": "Q1205312", "marker-color": "rgb(255,255,178)", "marker-size": "small"}}, {"type": "Feature", "geometry": {"type": "Point", "coordinates": [-115.06266, 36.16083]}, "properties": {"id": "eVz-AE_2MzEsegu4nBSgZxtxV3U=", "ref": "81", "@spider": "innout", "addr:full": "51 N Nellis", "addr:city": "Las Vegas", "addr:state": "NV", "addr:postcode": "89110", "name": "Las Vegas (Nellis)", "website": "http://locations.in-n-out.com/81", "brand": "In-N-Out Burger", "brand:wikidata": "Q1205312", "marker-color": "rgb(255,255,178)", "marker-size": "small"}}, {"type": "Feature", "geometry": {"type": "Point", "coordinates": [-115.11141, 36.23968]}, "properties": {"id": "WFVzVA8AkZvTsAeVV30U5FMdMzE=", "ref": "243", "@spider": "innout", "addr:full": "2765 E. Craig Rd.", "addr:city": "North Las Vegas", "addr:state": "NV", "addr:postcode": "89030", "name": "North Las Vegas", "website": "http://locations.in-n-out.com/243", "brand": "In-N-Out Burger", "brand:wikidata": "Q1205312", "marker-color": "rgb(255,255,178)", "marker-size": "small"}}, {"type": "Feature", "geometry": {"type": "Point", "coordinates": [-115.1344, 36.28523]}, "properties": {"id": "Ap-YjXnkAP-BSwlu55HVNdYLQHg=", "ref": "234", "@spider": "innout", "addr:full": "6880 N. 5th Street", "addr:city": "North Las Vegas", "addr:state": "NV", "addr:postcode": "89084", "name": "North Las Vegas", "website": "http://locations.in-n-out.com/234", "brand": "In-N-Out Burger", "brand:wikidata": "Q1205312", "marker-color": "rgb(255,255,178)", "marker-size": "small"}}, {"type": "Feature", "geometry": {"type": "Point", "coordinates": [-115.09154, 36.11578]}, "properties": {"id": "9ffYPcpNsdhMb6tjULovbCbezwk=", "ref": "334", "@spider": "innout", "addr:full": "3804 East Flamingo Rd.", "addr:city": "Las Vegas", "addr:state": "NV", "addr:postcode": "89121", "name": "Las Vegas", "website": "http://locations.in-n-out.com/334", "brand": "In-N-Out Burger", "brand:wikidata": "Q1205312", "marker-color": "rgb(255,255,178)", "marker-size": "small"}}, {"type": "Feature", "geometry": {"type": "Point", "coordinates": [-115.13758, 36.10417]}, "properties": {"id": "n5cDYKOrdD78etM-uhasttT-KRM=", "ref": "88", "@spider": "innout", "addr:full": "4705 S. Maryland Pkwy.", "addr:city": "Las Vegas", "addr:state": "NV", "addr:postcode": "89119", "name": "Las Vegas (Maryland Pkwy & Tropicana)", "website": "http://locations.in-n-out.com/88", "brand": "In-N-Out Burger", "brand:wikidata": "Q1205312", "marker-color": "rgb(255,255,178)", "marker-size": "small"}}, {"type": "Feature", "geometry": {"type": "Point", "coordinates": [-115.11813, 36.02139]}, "properties": {"id": "LiVpwCMxUQuaLAvWbJb-3CChmc4=", "ref": "165", "@spider": "innout", "addr:full": "9240 S. Eastern Ave.", "addr:city": "Las Vegas", "addr:state": "NV", "addr:postcode": "89123", "name": "Las Vegas (Eastern Ave.)", "website": "http://locations.in-n-out.com/165", "brand": "In-N-Out Burger", "brand:wikidata": "Q1205312", "marker-color": "rgb(255,255,178)", "marker-size": "small"}}, {"type": "Feature", "geometry": {"type": "Point", "coordinates": [-115.1699, 36.11744]}, "properties": {"id": "srefUTkl_5nLN1tdqij2JyEIleg=", "ref": "320", "@spider": "innout", "addr:full": "3545 S. Las Vegas Blvd, Ste L24", "addr:city": "Las Vegas", "addr:state": "NV", "addr:postcode": "89109", "name": "Las Vegas", "website": "http://locations.in-n-out.com/320", "brand": "In-N-Out Burger", "brand:wikidata": "Q1205312", "marker-color": "rgb(255,255,178)", "marker-size": "small"}}, {"type": "Feature", "geometry": {"type": "Point", "coordinates": [-115.18057, 36.14486]}, "properties": {"id": "r2FGuBQF48NS-t350JcynpblSVY=", "ref": "80", "@spider": "innout", "addr:full": "2900 W. Sahara Ave.", "addr:city": "Las Vegas", "addr:state": "NV", "addr:postcode": "89102", "name": "Las Vegas (Sahara)", "website": "http://locations.in-n-out.com/80", "brand": "In-N-Out Burger", "brand:wikidata": "Q1205312", "marker-color": "rgb(255,255,178)", "marker-size": "small"}}, {"type": "Feature", "geometry": {"type": "Point", "coordinates": [-115.14228, 35.98619]}, "properties": {"id": "88ZG3DpbJG_EgbU1p-aUP7PDUHM=", "ref": "364", "@spider": "innout", "addr:full": "3551 St. Rose Pkwy.", "addr:city": "Henderson", "addr:state": "NV", "addr:postcode": "89052", "name": "Henderson", "website": "http://locations.in-n-out.com/364", "brand": "In-N-Out Burger", "brand:wikidata": "Q1205312", "marker-color": "rgb(255,255,178)", "marker-size": "small"}}, {"type": "Feature", "geometry": {"type": "Point", "coordinates": [-115.18219, 36.10132]}, "properties": {"id": "8fiy7lHwWXaf7oTr12Rbnp3Su64=", "ref": "86", "@spider": "innout", "addr:full": "4888 Dean Martin Dr.", "addr:city": "Las Vegas", "addr:state": "NV", "addr:postcode": "89103", "name": "Las Vegas (Dean Martin & Tropicana)", "website": "http://locations.in-n-out.com/86", "brand": "In-N-Out Burger", "brand:wikidata": "Q1205312", "marker-color": "rgb(255,255,178)", "marker-size": "small"}}, {"type": "Feature", "geometry": {"type": "Point", "coordinates": [-115.19118, 36.04056]}, "properties": {"id": "38MawA7gt4c41TapXaSOyjpwGHU=", "ref": "221", "@spider": "innout", "addr:full": "3882 Blue Diamond Rd.", "addr:city": "Las Vegas", "addr:state": "NV", "addr:postcode": "89139", "name": "Las Vegas (Blue Diamond Rd.)", "website": "http://locations.in-n-out.com/221", "brand": "In-N-Out Burger", "brand:wikidata": "Q1205312", "marker-color": "rgb(255,255,178)", "marker-size": "small"}}, {"type": "Feature", "geometry": {"type": "Point", "coordinates": [-115.25707, 36.2652]}, "properties": {"id": "8kPQoSUOvbqxg40RX0y4J9qgL70=", "ref": "204", "@spider": "innout", "addr:full": "5690 Centennial Center Blvd.", "addr:city": "Las Vegas", "addr:state": "NV", "addr:postcode": "89149", "name": "Las Vegas (Centennial)", "website": "http://locations.in-n-out.com/204", "brand": "In-N-Out Burger", "brand:wikidata": "Q1205312", "marker-color": "rgb(255,255,178)", "marker-size": "small"}}, {"type": "Feature", "geometry": {"type": "Point", "coordinates": [-115.24654, 36.19564]}, "properties": {"id": "HSASAET6MzqiPEUbiEw-v2cxkIM=", "ref": "104", "@spider": "innout", "addr:full": "1960 Rock Springs", "addr:city": "Las Vegas", "addr:state": "NV", "addr:postcode": "89128", "name": "Las Vegas (Lake Mead Blvd.)", "website": "http://locations.in-n-out.com/104", "brand": "In-N-Out Burger", "brand:wikidata": "Q1205312", "marker-color": "rgb(255,255,178)", "marker-size": "small"}}, {"type": "Feature", "geometry": {"type": "Point", "coordinates": [-115.2417, 36.06968]}, "properties": {"id": "wtVg-Yb94RoCB-xCgop6mvzEoBE=", "ref": "352", "@spider": "innout", "addr:full": "6530 S. Rainbow Blvd. ", "addr:city": "Las Vegas ", "addr:state": "NV", "addr:postcode": "89118", "name": "Las Vegas", "website": "http://locations.in-n-out.com/352", "brand": "In-N-Out Burger", "brand:wikidata": "Q1205312", "marker-color": "rgb(255,255,178)", "marker-size": "small"}}, {"type": "Feature", "geometry": {"type": "Point", "coordinates": [-115.31351, 36.14482]}, "properties": {"id": "9KDTz5GXBaJ-2EtVxLlsC6yaP-8=", "ref": "331", "@spider": "innout", "addr:full": "10040 W. Sahara Ave.", "addr:city": "Las Vegas", "addr:state": "NV", "addr:postcode": "89117", "name": "Las Vegas", "website": "http://locations.in-n-out.com/331", "brand": "In-N-Out Burger", "brand:wikidata": "Q1205312", "marker-color": "rgb(255,255,178)", "marker-size": "small"}}, {"type": "Feature", "geometry": {"type": "Point", "coordinates": [-115.30211, 36.10069]}, "properties": {"id": "_7SEDeO81rSm8ZN8Qdq_y0u7PQg=", "ref": "226", "@spider": "innout", "addr:full": "9610 W. Tropicana Ave.", "addr:city": "Las Vegas", "addr:state": "NV", "addr:postcode": "89147", "name": "Las Vegas (Tropicana Ave. & Tee Pee Ln.)", "website": "http://locations.in-n-out.com/226", "brand": "In-N-Out Burger", "brand:wikidata": "Q1205312", "marker-color": "rgb(255,255,178)", "marker-size": "small"}}, {"type": "Feature", "geometry": {"type": "Point", "coordinates": [-114.60057, 32.69905]}, "properties": {"id": "MHAxsOqpGhmu4YrRi0gS8YfY2H0=", "ref": "203", "@spider": "innout", "addr:full": "1940 E. 16th Street", "addr:city": "Yuma", "addr:state": "AZ", "addr:postcode": "85365", "name": "Yuma", "website": "http://locations.in-n-out.com/203", "brand": "In-N-Out Burger", "brand:wikidata": "Q1205312", "marker-color": "rgb(255,255,178)", "marker-size": "small"}}, {"type": "Feature", "geometry": {"type": "Point", "coordinates": [-122.88006, 42.34643]}, "properties": {"id": "QaZ5B0FDa8aKe9M9iaM4T_7Mhxs=", "ref": "304", "@spider": "innout", "addr:full": "1970 Crater Lake Hwy.", "addr:city": "Medford", "addr:state": "OR", "addr:postcode": "97504", "name": "Medford", "website": "http://locations.in-n-out.com/304", "brand": "In-N-Out Burger", "brand:wikidata": "Q1205312", "marker-color": "rgb(255,255,178)", "marker-size": "small"}}, {"type": "Feature", "geometry": {"type": "Point", "coordinates": [-123.32116, 42.4625]}, "properties": {"id": "5WMMR-GYFjhtzE96HiJ7pgLx2rc=", "ref": "328", "@spider": "innout", "addr:full": "124 NE Morgan Lane", "addr:city": "Grants Pass", "addr:state": "OR", "addr:postcode": "97526", "name": "Grants Pass", "website": "http://locations.in-n-out.com/328", "brand": "In-N-Out Burger", "brand:wikidata": "Q1205312", "marker-color": "rgb(255,255,178)", "marker-size": "small"}}, {"type": "Feature", "geometry": {"type": "Point", "coordinates": [-122.99449, 45.01077]}, "properties": {"id": "pIrHSDA4lZFoTbPYynSE-275sTQ=", "ref": "351", "@spider": "innout", "addr:full": "6280 Keizer Station Blvd. ", "addr:city": "Keizer", "addr:state": "OR", "addr:postcode": "97303", "name": "Keizer", "website": "http://locations.in-n-out.com/351", "brand": "In-N-Out Burger", "brand:wikidata": "Q1205312", "marker-color": "rgb(255,255,178)", "marker-size": "small"}}, {"type": "Feature", "geometry": {"type": "Point", "coordinates": [-97.17114, 33.2294]}, "properties": {"id": "APyEi_bhUMkAPx6J_I1JrqB5eBo=", "ref": "322", "@spider": "innout", "addr:full": "2835 W. University Dr.", "addr:city": "Denton", "addr:state": "TX", "addr:postcode": "76201", "name": "Denton", "website": "http://locations.in-n-out.com/322", "brand": "In-N-Out Burger", "brand:wikidata": "Q1205312", "marker-color": "rgb(255,255,178)", "marker-size": "small"}}, {"type": "Feature", "geometry": {"type": "Point", "coordinates": [-96.65328, 33.12914]}, "properties": {"id": "_fK8gYjGcdlGA09B3a4a8RyUZD4=", "ref": "255", "@spider": "innout", "addr:full": "190 E. Stacy Rd.", "addr:city": "Allen", "addr:state": "TX", "addr:postcode": "75002", "name": "Allen", "website": "http://locations.in-n-out.com/255", "brand": "In-N-Out Burger", "brand:wikidata": "Q1205312", "marker-color": "rgb(255,255,178)", "marker-size": "small"}}, {"type": "Feature", "geometry": {"type": "Point", "coordinates": [-96.80456, 33.1018]}, "properties": {"id": "aO9MWd_7HNlDTGdFH-Vl7vscZdk=", "ref": "256", "@spider": "innout", "addr:full": "2800 Preston Rd.", "addr:city": "Frisco", "addr:state": "TX", "addr:postcode": "75034", "name": "Frisco", "website": "http://locations.in-n-out.com/256", "brand": "In-N-Out Burger", "brand:wikidata": "Q1205312", "marker-color": "rgb(255,255,178)", "marker-size": "small"}}, {"type": "Feature", "geometry": {"type": "Point", "coordinates": [-96.87604, 33.07076]}, "properties": {"id": "yHaQ--D7A6FXdx-vrLKdVxctV5g=", "ref": "299", "@spider": "innout", "addr:full": "5298 State Highway 121", "addr:city": "The Colony", "addr:state": "TX", "addr:postcode": "75056", "name": "The Colony", "website": "http://locations.in-n-out.com/299", "brand": "In-N-Out Burger", "brand:wikidata": "Q1205312", "marker-color": "rgb(255,255,178)", "marker-size": "small"}}, {"type": "Feature", "geometry": {"type": "Point", "coordinates": [-97.28667, 33.02593]}, "properties": {"id": "sGpWMAPrvimcDCBoE9xO7-tkLmw=", "ref": "329", "@spider": "innout", "addr:full": "3500 Highway 114", "addr:city": "Fort Worth", "addr:state": "TX", "addr:postcode": "76177", "name": "Fort Worth", "website": "http://locations.in-n-out.com/329", "brand": "In-N-Out Burger", "brand:wikidata": "Q1205312", "marker-color": "rgb(255,255,178)", "marker-size": "small"}}, {"type": "Feature", "geometry": {"type": "Point", "coordinates": [-96.70497, 33.03473]}, "properties": {"id": "mlJv1YqXMPsl8X7C1dRGOwZLvR4=", "ref": "277", "@spider": "innout", "addr:full": "2740 N. Central Expy.", "addr:city": "Plano", "addr:state": "TX", "addr:postcode": "75074", "name": "Plano", "website": "http://locations.in-n-out.com/277", "brand": "In-N-Out Burger", "brand:wikidata": "Q1205312", "marker-color": "rgb(255,255,178)", "marker-size": "small"}}, {"type": "Feature", "geometry": {"type": "Point", "coordinates": [-97.08656, 32.92662]}, "properties": {"id": "36v_rkTJ_8osexJ_vWhH6fefizs=", "ref": "283", "@spider": "innout", "addr:full": "1303 William D. Tate Ave.", "addr:city": "Grapevine", "addr:state": "TX", "addr:postcode": "76051", "name": "Grapevine", "website": "http://locations.in-n-out.com/283", "brand": "In-N-Out Burger", "brand:wikidata": "Q1205312", "marker-color": "rgb(255,255,178)", "marker-size": "small"}}, {"type": "Feature", "geometry": {"type": "Point", "coordinates": [-96.82097, 32.95705]}, "properties": {"id": "NQtqJpDE_0AJoCVXlJYI9E5IS3g=", "ref": "268", "@spider": "innout", "addr:full": "15260 Dallas Pkwy.", "addr:city": "Dallas", "addr:state": "TX", "addr:postcode": "75248", "name": "Dallas (Addison)", "website": "http://locations.in-n-out.com/268", "brand": "In-N-Out Burger", "brand:wikidata": "Q1205312", "marker-color": "rgb(255,255,178)", "marker-size": "small"}}, {"type": "Feature", "geometry": {"type": "Point", "coordinates": [-97.3223, 32.899]}, "properties": {"id": "vS6l5l98iqzgWIjdNUpNStYhiIk=", "ref": "301", "@spider": "innout", "addr:full": "2501 N. Tarrant Pkwy.", "addr:city": "Fort Worth", "addr:state": "TX", "addr:postcode": "76177", "name": "Fort Worth", "website": "http://locations.in-n-out.com/301", "brand": "In-N-Out Burger", "brand:wikidata": "Q1205312", "marker-color": "rgb(255,255,178)", "marker-size": "small"}}, {"type": "Feature", "geometry": {"type": "Point", "coordinates": [-96.83873, 32.92404]}, "properties": {"id": "z-jx40j78ek569pIkplF6EoHRm8=", "ref": "266", "@spider": "innout", "addr:full": "12909 Midway Rd.", "addr:city": "Dallas", "addr:state": "TX", "addr:postcode": "75244", "name": "Dallas (Midway)", "website": "http://locations.in-n-out.com/266", "brand": "In-N-Out Burger", "brand:wikidata": "Q1205312", "marker-color": "rgb(255,255,178)", "marker-size": "small"}}, {"type": "Feature", "geometry": {"type": "Point", "coordinates": [-96.61745, 32.95409]}, "properties": {"id": "P8h1b7aYkAg0wrnHKNGW50M3qmQ=", "ref": "269", "@spider": "innout", "addr:full": "150 Town Center Blvd.", "addr:city": "Garland", "addr:state": "TX", "addr:postcode": "75040", "name": "Garland", "website": "http://locations.in-n-out.com/269", "brand": "In-N-Out Burger", "brand:wikidata": "Q1205312", "marker-color": "rgb(255,255,178)", "marker-size": "small"}}, {"type": "Feature", "geometry": {"type": "Point", "coordinates": [-96.77061, 32.92522]}, "properties": {"id": "-jPOZXXrjvvIjQkXVrsuno5WtZs=", "ref": "259", "@spider": "innout", "addr:full": "7909 Lyndon B Johnson Fwy.", "addr:city": "Dallas", "addr:state": "TX", "addr:postcode": "75251", "name": "Dallas", "website": "http://locations.in-n-out.com/259", "brand": "In-N-Out Burger", "brand:wikidata": "Q1205312", "marker-color": "rgb(255,255,178)", "marker-size": "small"}}, {"type": "Feature", "geometry": {"type": "Point", "coordinates": [-96.95976, 32.89691]}, "properties": {"id": "faXNd3c8RP2vTB1P-_HKDC7uKuI=", "ref": "263", "@spider": "innout", "addr:full": "6501 N. Macarthur Blvd.", "addr:city": "Irving", "addr:state": "TX", "addr:postcode": "75039", "name": "Irving", "website": "http://locations.in-n-out.com/263", "brand": "In-N-Out Burger", "brand:wikidata": "Q1205312", "marker-color": "rgb(255,255,178)", "marker-size": "small"}}, {"type": "Feature", "geometry": {"type": "Point", "coordinates": [-97.18486, 32.8404]}, "properties": {"id": "KTj33q0u6THQtxR-OnRusvkqKho=", "ref": "273", "@spider": "innout", "addr:full": "780 Airport Fwy.", "addr:city": "Hurst", "addr:state": "TX", "addr:postcode": "76054", "name": "Hurst", "website": "http://locations.in-n-out.com/273", "brand": "In-N-Out Burger", "brand:wikidata": "Q1205312", "marker-color": "rgb(255,255,178)", "marker-size": "small"}}, {"type": "Feature", "geometry": {"type": "Point", "coordinates": [-97.42463, 32.80709]}, "properties": {"id": "OIup7nPW5MNjeAuPFtGO0S7-JyU=", "ref": "278", "@spider": "innout", "addr:full": "5916 Quebec St.", "addr:city": "Fort Worth", "addr:state": "TX", "addr:postcode": "76135", "name": "Fort Worth (Lake Worth)", "website": "http://locations.in-n-out.com/278", "brand": "In-N-Out Burger", "brand:wikidata": "Q1205312", "marker-color": "rgb(255,255,178)", "marker-size": "small"}}, {"type": "Feature", "geometry": {"type": "Point", "coordinates": [-96.76943, 32.85997]}, "properties": {"id": "znbXBMnsYHg1qfNVULzZmsYd69M=", "ref": "258", "@spider": "innout", "addr:full": "7940 N. Central Expy.", "addr:city": "Dallas", "addr:state": "TX", "addr:postcode": "75206", "name": "Dallas", "website": "http://locations.in-n-out.com/258", "brand": "In-N-Out Burger", "brand:wikidata": "Q1205312", "marker-color": "rgb(255,255,178)", "marker-size": "small"}}, {"type": "Feature", "geometry": {"type": "Point", "coordinates": [-96.44848, 32.90942]}, "properties": {"id": "GLFZLwwGGXbZDEbznxKxkZNYYWw=", "ref": "264", "@spider": "innout", "addr:full": "1106 E. I-30", "addr:city": "Rockwall", "addr:state": "TX", "addr:postcode": "75087", "name": "Rockwall", "website": "http://locations.in-n-out.com/264", "brand": "In-N-Out Burger", "brand:wikidata": "Q1205312", "marker-color": "rgb(255,255,178)", "marker-size": "small"}}, {"type": "Feature", "geometry": {"type": "Point", "coordinates": [-96.84424, 32.8289]}, "properties": {"id": "Fqp-xMNkQc3ZtCUubn0Omeaat4E=", "ref": "341", "@spider": "innout", "addr:full": "2525 W. Mockingbird Ln", "addr:city": "Dallas", "addr:state": "TX", "addr:postcode": "75235", "name": "Dallas", "website": "http://locations.in-n-out.com/341", "brand": "In-N-Out Burger", "brand:wikidata": "Q1205312", "marker-color": "rgb(255,255,178)", "marker-size": "small"}}, {"type": "Feature", "geometry": {"type": "Point", "coordinates": [-97.35867, 32.7514]}, "properties": {"id": "z8Vb0Yf5m3SE01FZyviv4thiDqs=", "ref": "260", "@spider": "innout", "addr:full": "2900 W. 7th St.", "addr:city": "Fort Worth", "addr:state": "TX", "addr:postcode": "76107", "name": "Fort Worth", "website": "http://locations.in-n-out.com/260", "brand": "In-N-Out Burger", "brand:wikidata": "Q1205312", "marker-color": "rgb(255,255,178)", "marker-size": "small"}}, {"type": "Feature", "geometry": {"type": "Point", "coordinates": [-97.39506, 32.68031]}, "properties": {"id": "tC1wxyVfZYUJQdy2JJyjU2Le5Sw=", "ref": "280", "@spider": "innout", "addr:full": "4620 S. Hulen St.", "addr:city": "Fort Worth", "addr:state": "TX", "addr:postcode": "76132", "name": "Fort Worth (Hulen)", "website": "http://locations.in-n-out.com/280", "brand": "In-N-Out Burger", "brand:wikidata": "Q1205312", "marker-color": "rgb(255,255,178)", "marker-size": "small"}}, {"type": "Feature", "geometry": {"type": "Point", "coordinates": [-97.12294, 32.6782]}, "properties": {"id": "oECm7S_eZKMDa8fvS7S9cnXLNsU=", "ref": "262", "@spider": "innout", "addr:full": "1075 W. I-20", "addr:city": "Arlington", "addr:state": "TX", "addr:postcode": "76017", "name": "Arlington", "website": "http://locations.in-n-out.com/262", "brand": "In-N-Out Burger", "brand:wikidata": "Q1205312", "marker-color": "rgb(255,255,178)", "marker-size": "small"}}, {"type": "Feature", "geometry": {"type": "Point", "coordinates": [-97.13479, 32.58242]}, "properties": {"id": "6VlIxxBxYX9ThwGT-wZ4wI7lJDY=", "ref": "282", "@spider": "innout", "addr:full": "1221 N. Hwy. 287", "addr:city": "Mansfield", "addr:state": "TX", "addr:postcode": "76063", "name": "Mansfield", "website": "http://locations.in-n-out.com/282", "brand": "In-N-Out Burger", "brand:wikidata": "Q1205312", "marker-color": "rgb(255,255,178)", "marker-size": "small"}}, {"type": "Feature", "geometry": {"type": "Point", "coordinates": [-96.8217, 32.59681]}, "properties": {"id": "9rVYNHIqNU7jJfr_ZrjtTn3t7_4=", "ref": "275", "@spider": "innout", "addr:full": "740 N. I-35E", "addr:city": "Lancaster", "addr:state": "TX", "addr:postcode": "75146", "name": "Lancaster", "website": "http://locations.in-n-out.com/275", "brand": "In-N-Out Burger", "brand:wikidata": "Q1205312", "marker-color": "rgb(255,255,178)", "marker-size": "small"}}, {"type": "Feature", "geometry": {"type": "Point", "coordinates": [-104.71652, 38.87224]}, "properties": {"id": "YFeu7jxPaUMWhXlS3jOHlp7oy68=", "ref": "371", "@spider": "innout", "addr:full": "2895 New Center Point Road", "addr:city": "Colorado Springs", "addr:state": "CO", "addr:postcode": "80922", "name": "Colorado Springs ", "website": "http://locations.in-n-out.com/371", "brand": "In-N-Out Burger", "brand:wikidata": "Q1205312", "marker-color": "rgb(255,255,178)", "marker-size": "small"}}, {"type": "Feature", "geometry": {"type": "Point", "coordinates": [-104.7971, 38.99022]}, "properties": {"id": "u80D93MTyPXI1V2Q-E0m6oS5fkc=", "ref": "359", "@spider": "innout", "addr:full": "1840 Democracy Point ", "addr:city": "Colorado Springs", "addr:state": "CO", "addr:postcode": "80908", "name": "Colorado Springs ", "website": "http://locations.in-n-out.com/359", "brand": "In-N-Out Burger", "brand:wikidata": "Q1205312", "marker-color": "rgb(255,255,178)", "marker-size": "small"}}, {"type": "Feature", "geometry": {"type": "Point", "coordinates": [-104.82368, 39.71074]}, "properties": {"id": "mT9yfALWRouIjVAIQ-KqGznuJlw=", "ref": "360", "@spider": "innout", "addr:full": "14150 E. Alameda Ave.", "addr:city": "Aurora", "addr:state": "CO", "addr:postcode": "80012", "name": "Aurora", "website": "http://locations.in-n-out.com/360", "brand": "In-N-Out Burger", "brand:wikidata": "Q1205312", "marker-color": "rgb(255,255,178)", "marker-size": "small"}}, {"type": "Feature", "geometry": {"type": "Point", "coordinates": [-104.88198, 39.56512]}, "properties": {"id": "ljVzVWDvPbgTv9g86_QptVUmJkQ=", "ref": "363", "@spider": "innout", "addr:full": "9171 W. Westview Rd.", "addr:city": "Lone Tree ", "addr:state": "CO", "addr:postcode": "80124", "name": "Lone Tree", "website": "http://locations.in-n-out.com/363", "brand": "In-N-Out Burger", "brand:wikidata": "Q1205312", "marker-color": "rgb(255,255,178)", "marker-size": "small"}}, {"type": "Feature", "geometry": {"type": "Point", "coordinates": [-105.08083, 39.71304]}, "properties": {"id": "QuM34oHJzsLfBJhNYjBYq_F9_HA=", "ref": "366", "@spider": "innout", "addr:full": "150 S. Wadsworth", "addr:city": "Lakewood", "addr:state": "CO", "addr:postcode": "80226", "name": "Lakewood", "website": "http://locations.in-n-out.com/366", "brand": "In-N-Out Burger", "brand:wikidata": "Q1205312", "marker-color": "rgb(255,255,178)", "marker-size": "small"}}, {"type": "Feature", "geometry": {"type": "Point", "coordinates": [-104.98429, 39.94348]}, "properties": {"id": "RaSMoRLcygwodUf2gmJZiNvwQKE=", "ref": "376", "@spider": "innout", "addr:full": "111 E. 136th Ave.", "addr:city": "Thornton", "addr:state": "CO", "addr:postcode": "80023", "name": "Thornton", "website": "http://locations.in-n-out.com/376", "brand": "In-N-Out Burger", "brand:wikidata": "Q1205312", "marker-color": "rgb(255,255,178)", "marker-size": "small"}}, {"type": "Feature", "geometry": {"type": "Point", "coordinates": [-97.12444, 31.5514]}, "properties": {"id": "mVIAIY8j-2SvOFcqJWEHYqR1tQ4=", "ref": "307", "@spider": "innout", "addr:full": "801 South 4th St.", "addr:city": "Waco", "addr:state": "TX", "addr:postcode": "76706", "name": "Waco", "website": "http://locations.in-n-out.com/307", "brand": "In-N-Out Burger", "brand:wikidata": "Q1205312", "marker-color": "rgb(255,255,178)", "marker-size": "small"}}, {"type": "Feature", "geometry": {"type": "Point", "coordinates": [-97.72142, 31.09033]}, "properties": {"id": "FYAIHCibwbedLVxQg4jLL0HLUQI=", "ref": "296", "@spider": "innout", "addr:full": "2006 E. Central Texas Expy.", "addr:city": "Killeen", "addr:state": "TX", "addr:postcode": "76541", "name": "Killeen", "website": "http://locations.in-n-out.com/296", "brand": "In-N-Out Burger", "brand:wikidata": "Q1205312", "marker-color": "rgb(255,255,178)", "marker-size": "small"}}, {"type": "Feature", "geometry": {"type": "Point", "coordinates": [-97.69112, 30.56186]}, "properties": {"id": "hakCIQI50_bPBU7EKQ-kII_vmzE=", "ref": "289", "@spider": "innout", "addr:full": "4251 I-35 North", "addr:city": "Round Rock", "addr:state": "TX", "addr:postcode": "78664", "name": "Round Rock", "website": "http://locations.in-n-out.com/289", "brand": "In-N-Out Burger", "brand:wikidata": "Q1205312", "marker-color": "rgb(255,255,178)", "marker-size": "small"}}, {"type": "Feature", "geometry": {"type": "Point", "coordinates": [-97.82056, 30.52461]}, "properties": {"id": "2nTcMu82VtgLZCxaxZfl625txeI=", "ref": "294", "@spider": "innout", "addr:full": "901 E. Whitestone Blvd.", "addr:city": "Cedar Park", "addr:state": "TX", "addr:postcode": "78613", "name": "Cedar Park", "website": "http://locations.in-n-out.com/294", "brand": "In-N-Out Burger", "brand:wikidata": "Q1205312", "marker-color": "rgb(255,255,178)", "marker-size": "small"}}, {"type": "Feature", "geometry": {"type": "Point", "coordinates": [-97.59744, 30.46439]}, "properties": {"id": "qTatx6-lvEG0h3m--6lgcTQiUAM=", "ref": "316", "@spider": "innout", "addr:full": "1600 Town Center Dr.", "addr:city": "Pflugerville", "addr:state": "TX", "addr:postcode": "78660", "name": "Pflugerville", "website": "http://locations.in-n-out.com/316", "brand": "In-N-Out Burger", "brand:wikidata": "Q1205312", "marker-color": "rgb(255,255,178)", "marker-size": "small"}}, {"type": "Feature", "geometry": {"type": "Point", "coordinates": [-97.67414, 30.40499]}, "properties": {"id": "6EpF_OVuZvI97i6SuxUtIX5CfYE=", "ref": "315", "@spider": "innout", "addr:full": "12431 N. I-35", "addr:city": "Austin", "addr:state": "TX", "addr:postcode": "78753", "name": "Austin", "website": "http://locations.in-n-out.com/315", "brand": "In-N-Out Burger", "brand:wikidata": "Q1205312", "marker-color": "rgb(255,255,178)", "marker-size": "small"}}, {"type": "Feature", "geometry": {"type": "Point", "coordinates": [-97.71564, 30.30434]}, "properties": {"id": "KuEVUDc5fmfpDGOEPykDMHokWMc=", "ref": "290", "@spider": "innout", "addr:full": "4515 Airport Blvd.", "addr:city": "Austin", "addr:state": "TX", "addr:postcode": "78751", "name": "Austin", "website": "http://locations.in-n-out.com/290", "brand": "In-N-Out Burger", "brand:wikidata": "Q1205312", "marker-color": "rgb(255,255,178)", "marker-size": "small"}}, {"type": "Feature", "geometry": {"type": "Point", "coordinates": [-97.74169, 30.29219]}, "properties": {"id": "ZzHalCZN5pfbBrBoqHj2CSHDYJo=", "ref": "319", "@spider": "innout", "addr:full": "2700 Guadalupe St", "addr:city": "Austin", "addr:state": "TX", "addr:postcode": "78705", "name": "Austin", "website": "http://locations.in-n-out.com/319", "brand": "In-N-Out Burger", "brand:wikidata": "Q1205312", "marker-color": "rgb(255,255,178)", "marker-size": "small"}}, {"type": "Feature", "geometry": {"type": "Point", "coordinates": [-97.78861, 30.23866]}, "properties": {"id": "Ijc-cOcxWlHdq9vcXxwgS6lMS_4=", "ref": "306", "@spider": "innout", "addr:full": "3701 S. Lamar Blvd.", "addr:city": "Austin", "addr:state": "TX", "addr:postcode": "78704", "name": "Austin", "website": "http://locations.in-n-out.com/306", "brand": "In-N-Out Burger", "brand:wikidata": "Q1205312", "marker-color": "rgb(255,255,178)", "marker-size": "small"}}, {"type": "Feature", "geometry": {"type": "Point", "coordinates": [-97.91448, 29.89218]}, "properties": {"id": "YhcV4nRkz-mFzCLEUyrcb961nw4=", "ref": "314", "@spider": "innout", "addr:full": "1437 North IH-35", "addr:city": "San Marcos", "addr:state": "TX", "addr:postcode": "78666", "name": "San Marcos", "website": "http://locations.in-n-out.com/314", "brand": "In-N-Out Burger", "brand:wikidata": "Q1205312", "marker-color": "rgb(255,255,178)", "marker-size": "small"}}, {"type": "Feature", "geometry": {"type": "Point", "coordinates": [-95.54295, 29.96347]}, "properties": {"id": "5wJOw9lqq7PjDCrY0yg9mA36vJM=", "ref": "357", "@spider": "innout", "addr:full": "7611 FM 1960 W.", "addr:city": "Houston", "addr:state": "TX", "addr:postcode": "77070", "name": "Houston", "website": "http://locations.in-n-out.com/357", "brand": "In-N-Out Burger", "brand:wikidata": "Q1205312", "marker-color": "rgb(255,255,178)", "marker-size": "small"}}, {"type": "Feature", "geometry": {"type": "Point", "coordinates": [-98.07864, 29.7299]}, "properties": {"id": "Qcz1ZcSTZJpklGSj9sNpQuUnsaA=", "ref": "325", "@spider": "innout", "addr:full": "106 FM 306", "addr:city": "New Braunfels", "addr:state": "TX", "addr:postcode": "78130", "name": "New Braunfels", "website": "http://locations.in-n-out.com/325", "brand": "In-N-Out Burger", "brand:wikidata": "Q1205312", "marker-color": "rgb(255,255,178)", "marker-size": "small"}}, {"type": "Feature", "geometry": {"type": "Point", "coordinates": [-98.44986, 29.64805]}, "properties": {"id": "fYSaiVN-1nEC1qqCHrDhZrTyRNY=", "ref": "323", "@spider": "innout", "addr:full": "22226 N. US Hwy 281", "addr:city": "San Antonio", "addr:state": "TX", "addr:postcode": "78258", "name": "San Antonio", "website": "http://locations.in-n-out.com/323", "brand": "In-N-Out Burger", "brand:wikidata": "Q1205312", "marker-color": "rgb(255,255,178)", "marker-size": "small"}}, {"type": "Feature", "geometry": {"type": "Point", "coordinates": [-95.80127, 29.78651]}, "properties": {"id": "ejkTBOtqEyuTSwkmOMl_UmGgQgc=", "ref": "349", "@spider": "innout", "addr:full": "1010 Katy-Fort Bend Rd. ", "addr:city": "Katy ", "addr:state": "TX", "addr:postcode": "77493", "name": "Katy", "website": "http://locations.in-n-out.com/349", "brand": "In-N-Out Burger", "brand:wikidata": "Q1205312", "marker-color": "rgb(255,255,178)", "marker-size": "small"}}, {"type": "Feature", "geometry": {"type": "Point", "coordinates": [-98.39647, 29.51138]}, "properties": {"id": "LKmfcWRK0-Ro55jHo__9DQtnjs8=", "ref": "302", "@spider": "innout", "addr:full": "8202 I-35 North", "addr:city": "Windcrest", "addr:state": "TX", "addr:postcode": "78239", "name": "Windcrest", "website": "http://locations.in-n-out.com/302", "brand": "In-N-Out Burger", "brand:wikidata": "Q1205312", "marker-color": "rgb(255,255,178)", "marker-size": "small"}}, {"type": "Feature", "geometry": {"type": "Point", "coordinates": [-98.7085, 29.49497]}, "properties": {"id": "-n-MpDlLGt5GfCnU-ZzYGwI4AsQ=", "ref": "298", "@spider": "innout", "addr:full": "10918 Culebra Rd.", "addr:city": "San Antonio", "addr:state": "TX", "addr:postcode": "78253", "name": "San Antonio", "website": "http://locations.in-n-out.com/298", "brand": "In-N-Out Burger", "brand:wikidata": "Q1205312", "marker-color": "rgb(255,255,178)", "marker-size": "small"}}, {"type": "Feature", "geometry": {"type": "Point", "coordinates": [-95.58031, 29.63807]}, "properties": {"id": "u61nE1HlwO33vq-t1s6F733_3Rw=", "ref": "350", "@spider": "innout", "addr:full": "12611 S. Kirkwood Rd. ", "addr:city": "Stafford ", "addr:state": "TX", "addr:postcode": "77477", "name": "Stafford ", "website": "http://locations.in-n-out.com/350", "brand": "In-N-Out Burger", "brand:wikidata": "Q1205312", "marker-color": "rgb(255,255,178)", "marker-size": "small"}}]}
